{
"type": "FeatureCollection",
"name": "n490_132kv_overlap",
"crs": { "type": "name", "properties": { "name": "urn:ogc:def:crs:OGC:1.3:CRS84" } },
"features": [
{ "type": "Feature", "properties": { "area0": "DK2", "area1": "DK2", "bus0": 5459, "bus1": 5492, "length": 16830.732294793303, "circuits": 1.0, "Vbase": 132.0, "ug": false, "uc": 0.0, "lat": [ 55.724254375999, 55.866598491471 ], "lon": [ 11.5509013712634, 11.6412376287366 ], "x": "[283405.99210726 289844.90014682]", "y": "[6180780.32341085 6196333.58130459]", "source": "Pypsa 2019-09-04", "info": { }, "line_id": 6495, "bus0_name": "unknown", "bus1_name": "unknown", "from_node": 18, "to_node": 19, "overlap_delaunay1": true, "overlap_delaunay2": false, "overlap_delaunay3": false, "overlap_delaunay4": false, "overlap_delaunay5": false, "overlap_mst": true, "delaunay_category": "Delaunay1", "category": "MST" }, "geometry": { "type": "LineString", "coordinates": [ [ 11.550901371263402, 55.724254375998996 ], [ 11.641237628736601, 55.866598491471002 ] ] } },
{ "type": "Feature", "properties": { "area0": "DK2", "area1": "DK2", "bus0": 5459, "bus1": 5493, "length": 29789.1161325254, "circuits": 2.0, "Vbase": 132.0, "ug": false, "uc": 0.0, "lat": [ 55.7239579034032, 55.6613791913563 ], "lon": [ 11.5503157229467, 11.0897602770533 ], "x": "[283367.58877374 254068.33128221]", "y": "[6180749.18118515 6175326.89128259]", "source": "Pypsa 2019-09-04", "info": { }, "line_id": 283, "bus0_name": "unknown", "bus1_name": "Asnæsværket", "from_node": 18, "to_node": 10, "overlap_delaunay1": true, "overlap_delaunay2": false, "overlap_delaunay3": false, "overlap_delaunay4": false, "overlap_delaunay5": false, "overlap_mst": false, "delaunay_category": "Delaunay1", "category": "Delaunay1" }, "geometry": { "type": "LineString", "coordinates": [ [ 11.550315722946701, 55.723957903403203 ], [ 11.089760277053299, 55.661379191356289 ] ] } },
{ "type": "Feature", "properties": { "area0": "DK2", "area1": "DK2", "bus0": 5497, "bus1": 5498, "length": 29667.867972547403, "circuits": 1.0, "Vbase": 132.0, "ug": false, "uc": 0.0, "lat": [ 55.2258832364125, 55.2188467647848 ], "lon": [ 11.7617900103495, 11.2957669896505 ], "x": "[294060.0852666 264394.4241654]", "y": "[6124710.31569558 6125403.88385618]", "source": "Pypsa 2019-09-04", "info": { }, "line_id": 259, "bus0_name": "unknown", "bus1_name": "Stigsnæs", "from_node": 25, "to_node": 13, "overlap_delaunay1": false, "overlap_delaunay2": true, "overlap_delaunay3": false, "overlap_delaunay4": false, "overlap_delaunay5": false, "overlap_mst": false, "delaunay_category": "Delaunay2", "category": "Delaunay2" }, "geometry": { "type": "LineString", "coordinates": [ [ 11.7617900103495, 55.225883236412507 ], [ 11.295766989650501, 55.2188467647848 ] ] } },
{ "type": "Feature", "properties": { "area0": "DK2", "area1": "DK2", "bus0": 5496, "bus1": 5499, "length": 13989.628346474699, "circuits": 1.0, "Vbase": 132.0, "ug": false, "uc": 0.0, "lat": [ 55.5478422889072, 55.4409162986839 ], "lon": [ 11.6704618613278, 11.7867221386722 ], "x": "[289968.6511526  296749.45509323]", "y": "[6160792.05362203 6148553.63516739]", "source": "Pypsa 2019-09-04", "info": { }, "line_id": 257, "bus0_name": "unknown", "bus1_name": "unknown", "from_node": 26, "to_node": 21, "overlap_delaunay1": true, "overlap_delaunay2": false, "overlap_delaunay3": false, "overlap_delaunay4": false, "overlap_delaunay5": false, "overlap_mst": true, "delaunay_category": "Delaunay1", "category": "MST" }, "geometry": { "type": "LineString", "coordinates": [ [ 11.670461861327802, 55.547842288907198 ], [ 11.786722138672202, 55.440916298683895 ] ] } },
{ "type": "Feature", "properties": { "area0": "DK2", "area1": "DK2", "bus0": 5495, "bus1": 5499, "length": 22715.565321435497, "circuits": 1.0, "Vbase": 132.0, "ug": false, "uc": 0.0, "lat": [ 55.4556139199382, 55.5479433495487 ], "lon": [ 11.3492755156863, 11.6698284843137 ], "x": "[269177.95074242 289929.25248463]", "y": "[6151554.08618828 6160805.20984125]", "source": "Pypsa 2019-09-04", "info": { }, "line_id": 327, "bus0_name": "unknown", "bus1_name": "unknown", "from_node": 14, "to_node": 21, "overlap_delaunay1": true, "overlap_delaunay2": false, "overlap_delaunay3": false, "overlap_delaunay4": false, "overlap_delaunay5": false, "overlap_mst": true, "delaunay_category": "Delaunay1", "category": "MST" }, "geometry": { "type": "LineString", "coordinates": [ [ 11.349275515686301, 55.455613919938202 ], [ 11.669828484313699, 55.547943349548703 ] ] } },
{ "type": "Feature", "properties": { "area0": "DK2", "area1": "DK2", "bus0": 5493, "bus1": 5499, "length": 39859.6460371176, "circuits": 1.0, "Vbase": 132.0, "ug": false, "uc": 0.0, "lat": [ 55.6612477098529, 55.629547, 55.588435, 55.5481102913427 ], "lon": [ 11.0897532329896, 11.277466, 11.331024, 11.6697879312452 ], "x": "[254067.06332626 265677.6016123  268805.30678184 289927.58630794]", "y": "[6175312.29595582 6171137.04799326 6166385.43196148 6160823.90003053]", "source": "Pypsa 2019-09-04", "info": { }, "line_id": 254, "bus0_name": "Asnæsværket", "bus1_name": "unknown", "from_node": 10, "to_node": 21, "overlap_delaunay1": false, "overlap_delaunay2": true, "overlap_delaunay3": false, "overlap_delaunay4": false, "overlap_delaunay5": false, "overlap_mst": false, "delaunay_category": "Delaunay2", "category": "Delaunay2" }, "geometry": { "type": "LineString", "coordinates": [ [ 11.089753232989601, 55.661247709852901 ], [ 11.277466, 55.629547 ], [ 11.331024, 55.588435 ], [ 11.6697879312452, 55.548110291342695 ] ] } },
{ "type": "Feature", "properties": { "area0": "DK2", "area1": "DK2", "bus0": 5500, "bus1": 5501, "length": 16485.261880248898, "circuits": 1.0, "Vbase": 132.0, "ug": false, "uc": 0.0, "lat": [ 55.4980538544331, 55.3512640824705 ], "lon": [ 11.9902626477786, 12.0244773522214 ], "x": "[309894.9978114  311356.59434504]", "y": "[6154333.03441167 6137912.0324784 ]", "source": "Pypsa 2019-09-04", "info": { }, "line_id": 256, "bus0_name": "unknown", "bus1_name": "unknown", "from_node": 41, "to_node": 40, "overlap_delaunay1": false, "overlap_delaunay2": true, "overlap_delaunay3": false, "overlap_delaunay4": false, "overlap_delaunay5": false, "overlap_mst": false, "delaunay_category": "Delaunay2", "category": "Delaunay2" }, "geometry": { "type": "LineString", "coordinates": [ [ 11.9902626477786, 55.498053854433103 ], [ 12.0244773522214, 55.351264082470486 ] ] } },
{ "type": "Feature", "properties": { "area0": "DK2", "area1": "DK2", "bus0": 5498, "bus1": 5502, "length": 41266.277913301499, "circuits": 1.0, "Vbase": 132.0, "ug": true, "uc": 0.0, "lat": [ 55.2186922423601, 55.192196, 55.176515, 54.960271, 54.8681717437768 ], "lon": [ 11.2949533217989, 11.229401, 11.228027, 11.201935, 11.1909785082442 ], "x": "[264341.78262128 260014.97733066 259833.18971091 256864.02707164\n 255605.06311949]", "y": "[6125389.4515974  6122666.71675209 6120927.74577449 6096972.45814609\n 6086769.74020005]", "source": "Pypsa 2019-09-04", "info": { }, "line_id": 11541, "bus0_name": "Stigsnæs", "bus1_name": "unknown", "from_node": 13, "to_node": 12, "overlap_delaunay1": false, "overlap_delaunay2": false, "overlap_delaunay3": false, "overlap_delaunay4": false, "overlap_delaunay5": false, "overlap_mst": false, "delaunay_category": "None", "category": "None" }, "geometry": { "type": "LineString", "coordinates": [ [ 11.2949533217989, 55.218692242360106 ], [ 11.229401, 55.192196 ], [ 11.228027, 55.176515 ], [ 11.201935, 54.960271 ], [ 11.190978508244198, 54.868171743776792 ] ] } },
{ "type": "Feature", "properties": { "area0": "DK2", "area1": "DK2", "bus0": 5498, "bus1": 5502, "length": 41371.957555071298, "circuits": 1.0, "Vbase": 132.0, "ug": true, "uc": 0.0, "lat": [ 54.8680538097134, 54.891616, 54.95554, 55.18122, 55.2185858662759 ], "lon": [ 11.1913259103967, 11.255493, 11.26236, 11.289825, 11.2952818690593 ], "x": "[255626.62811161 259881.99411122 260702.15317165 263793.87490625\n 264362.04047507]", "y": "[6086755.41367616 6089153.29065414 6096237.91246705 6121239.84262724\n 6125376.51154694]", "source": "Pypsa 2019-09-04", "info": { }, "line_id": 11495, "bus0_name": "Stigsnæs", "bus1_name": "unknown", "from_node": 13, "to_node": 12, "overlap_delaunay1": false, "overlap_delaunay2": false, "overlap_delaunay3": false, "overlap_delaunay4": false, "overlap_delaunay5": false, "overlap_mst": false, "delaunay_category": "None", "category": "None" }, "geometry": { "type": "LineString", "coordinates": [ [ 11.191325910396698, 54.868053809713395 ], [ 11.255493, 54.891616 ], [ 11.26236, 54.95554 ], [ 11.289825, 55.18122 ], [ 11.2952818690593, 55.218585866275909 ] ] } },
{ "type": "Feature", "properties": { "area0": "DK2", "area1": "DK2", "bus0": 5502, "bus1": 5504, "length": 34904.525429515699, "circuits": 1.0, "Vbase": 132.0, "ug": false, "uc": 0.0, "lat": [ 54.779378884354, 54.867842275266 ], "lon": [ 11.7123702273422, 11.1913767726578 ], "x": "[288581.60233892 255628.60933802]", "y": "[6075198.8512647 6086731.7148423]", "source": "Pypsa 2019-09-04", "info": { }, "line_id": 269, "bus0_name": "unknown", "bus1_name": "unknown", "from_node": 12, "to_node": 22, "overlap_delaunay1": true, "overlap_delaunay2": false, "overlap_delaunay3": false, "overlap_delaunay4": false, "overlap_delaunay5": false, "overlap_mst": false, "delaunay_category": "Delaunay1", "category": "Delaunay1" }, "geometry": { "type": "LineString", "coordinates": [ [ 11.712370227342198, 54.779378884354003 ], [ 11.191376772657801, 54.867842275266 ] ] } },
{ "type": "Feature", "properties": { "area0": "DK2", "area1": "DK2", "bus0": 5503, "bus1": 5504, "length": 15043.4641290206, "circuits": 1.0, "Vbase": 132.0, "ug": true, "uc": 0.0, "lat": [ 54.7175998928567, 54.7791882866511 ], "lon": [ 11.5044567454921, 11.7124012545079 ], "x": "[274873.94826051 288582.60216304]", "y": "[6068975.7669847  6075177.56061114]", "source": "Pypsa 2019-09-04", "info": { }, "line_id": 273, "bus0_name": "unknown", "bus1_name": "unknown", "from_node": 17, "to_node": 22, "overlap_delaunay1": true, "overlap_delaunay2": false, "overlap_delaunay3": false, "overlap_delaunay4": false, "overlap_delaunay5": false, "overlap_mst": true, "delaunay_category": "Delaunay1", "category": "MST" }, "geometry": { "type": "LineString", "coordinates": [ [ 11.504456745492099, 54.71759989285669 ], [ 11.712401254507903, 54.779188286651099 ] ] } },
{ "type": "Feature", "properties": { "area0": "DK2", "area1": "DK2", "bus0": 5504, "bus1": 5505, "length": 16041.593318213201, "circuits": 1.0, "Vbase": 132.0, "ug": false, "uc": 0.0, "lat": [ 54.7794493275711, 54.8590779552349 ], "lon": [ 11.7131730058293, 11.9211649941707 ], "x": "[288633.57538146 302393.8384469 ]", "y": "[6075204.2640915  6083453.27321496]", "source": "Pypsa 2019-09-04", "info": { }, "line_id": 268, "bus0_name": "unknown", "bus1_name": "unknown", "from_node": 22, "to_node": 34, "overlap_delaunay1": true, "overlap_delaunay2": false, "overlap_delaunay3": false, "overlap_delaunay4": false, "overlap_delaunay5": false, "overlap_mst": true, "delaunay_category": "Delaunay1", "category": "MST" }, "geometry": { "type": "LineString", "coordinates": [ [ 11.713173005829303, 54.779449327571101 ], [ 11.921164994170701, 54.859077955234895 ] ] } },
{ "type": "Feature", "properties": { "area0": "DK2", "area1": "DK2", "bus0": 5505, "bus1": 5506, "length": 11739.683321709699, "circuits": 1.0, "Vbase": 132.0, "ug": false, "uc": 0.0, "lat": [ 54.8589708186803, 54.7565818176385 ], "lon": [ 11.9216459923913, 11.9653780076087 ], "x": "[302424.17587151 304736.72863648]", "y": "[6083439.99993654 6071929.46196441]", "source": "Pypsa 2019-09-04", "info": { }, "line_id": 270, "bus0_name": "unknown", "bus1_name": "unknown", "from_node": 34, "to_node": 39, "overlap_delaunay1": true, "overlap_delaunay2": false, "overlap_delaunay3": false, "overlap_delaunay4": false, "overlap_delaunay5": false, "overlap_mst": true, "delaunay_category": "Delaunay1", "category": "MST" }, "geometry": { "type": "LineString", "coordinates": [ [ 11.921645992391298, 54.858970818680291 ], [ 11.965378007608702, 54.756581817638498 ] ] } },
{ "type": "Feature", "properties": { "area0": "DK2", "area1": "DK2", "bus0": 5500, "bus1": 5508, "length": 10036.859322681401, "circuits": 1.0, "Vbase": 132.0, "ug": false, "uc": 0.0, "lat": [ 55.3508519047647, 55.294134325113 ], "lon": [ 12.0241888395997, 11.9012871604003 ], "x": "[311336.34824451 303266.27700101]", "y": "[6137866.96690853 6131898.40783907]", "source": "Pypsa 2019-09-04", "info": { }, "line_id": 411, "bus0_name": "unknown", "bus1_name": "unknown", "from_node": 41, "to_node": 32, "overlap_delaunay1": true, "overlap_delaunay2": false, "overlap_delaunay3": false, "overlap_delaunay4": false, "overlap_delaunay5": false, "overlap_mst": true, "delaunay_category": "Delaunay1", "category": "MST" }, "geometry": { "type": "LineString", "coordinates": [ [ 12.024188839599702, 55.350851904764703 ], [ 11.901287160400299, 55.294134325113006 ] ] } },
{ "type": "Feature", "properties": { "area0": "DK2", "area1": "DK2", "bus0": 5501, "bus1": 5509, "length": 15072.445648540601, "circuits": 1.0, "Vbase": 132.0, "ug": false, "uc": 0.0, "lat": [ 55.4985061359503, 55.584555, 55.6114580274283 ], "lon": [ 11.9904759180317, 12.106934, 12.1082942053889 ], "x": "[309910.64396104 317663.006442   317873.43515003]", "y": "[6154382.75962305 6163642.22324626 6166631.30971324]", "source": "Pypsa 2019-09-04", "info": { }, "line_id": 255, "bus0_name": "unknown", "bus1_name": "unknown", "from_node": 40, "to_node": 43, "overlap_delaunay1": true, "overlap_delaunay2": false, "overlap_delaunay3": false, "overlap_delaunay4": false, "overlap_delaunay5": false, "overlap_mst": false, "delaunay_category": "Delaunay1", "category": "Delaunay1" }, "geometry": { "type": "LineString", "coordinates": [ [ 11.990475918031702, 55.498506135950301 ], [ 12.106934, 55.584555 ], [ 12.1082942053889, 55.611458027428291 ] ] } },
{ "type": "Feature", "properties": { "area0": "DK2", "area1": "DK2", "bus0": 5511, "bus1": 5513, "length": 9346.7326403840907, "circuits": 1.0, "Vbase": 132.0, "ug": false, "uc": 0.0, "lat": [ 55.7642037618788, 55.7611322388511 ], "lon": [ 12.2405905403729, 12.3893844596271 ], "x": "[326879.85424224 336199.58530584]", "y": "[6183284.17081797 6182580.62829703]", "source": "Pypsa 2019-09-04", "info": { }, "line_id": 245, "bus0_name": "Hovegård", "bus1_name": "unknown", "from_node": 48, "to_node": 52, "overlap_delaunay1": true, "overlap_delaunay2": false, "overlap_delaunay3": false, "overlap_delaunay4": false, "overlap_delaunay5": false, "overlap_mst": true, "delaunay_category": "Delaunay1", "category": "MST" }, "geometry": { "type": "LineString", "coordinates": [ [ 12.240590540372899, 55.764203761878797 ], [ 12.389384459627099, 55.761132238851097 ] ] } },
{ "type": "Feature", "properties": { "area0": "DK2", "area1": "DK2", "bus0": 5513, "bus1": 5518, "length": 9050.6873123987207, "circuits": 1.0, "Vbase": 132.0, "ug": false, "uc": 0.0, "lat": [ 55.7610419963204, 55.7349240580936 ], "lon": [ 12.3902554357078, 12.5267375642922 ], "x": "[336253.84164615 344711.54743044]", "y": "[6182568.52972147 6179348.62761247]", "source": "Pypsa 2019-09-04", "info": { }, "line_id": 333, "bus0_name": "unknown", "bus1_name": "unknown", "from_node": 52, "to_node": 56, "overlap_delaunay1": true, "overlap_delaunay2": false, "overlap_delaunay3": false, "overlap_delaunay4": false, "overlap_delaunay5": false, "overlap_mst": true, "delaunay_category": "Delaunay1", "category": "MST" }, "geometry": { "type": "LineString", "coordinates": [ [ 12.390255435707802, 55.761041996320394 ], [ 12.526737564292201, 55.73492405809359 ] ] } },
{ "type": "Feature", "properties": { "area0": "DK2", "area1": "DK2", "bus0": 5516, "bus1": 5518, "length": 7126.8672893006406, "circuits": 1.0, "Vbase": 132.0, "ug": false, "uc": 0.0, "lat": [ 55.7956390839629, 55.7350812873128 ], "lon": [ 12.5640953499517, 12.5273056500483 ], "x": "[347294.1740097  344747.83194675]", "y": "[6186020.4682184  6179364.84726716]", "source": "Pypsa 2019-09-04", "info": { }, "line_id": 246, "bus0_name": "Glentegård", "bus1_name": "unknown", "from_node": 57, "to_node": 56, "overlap_delaunay1": true, "overlap_delaunay2": false, "overlap_delaunay3": false, "overlap_delaunay4": false, "overlap_delaunay5": false, "overlap_mst": false, "delaunay_category": "Delaunay1", "category": "Delaunay1" }, "geometry": { "type": "LineString", "coordinates": [ [ 12.564095349951698, 55.795639083962897 ], [ 12.527305650048302, 55.735081287312795 ] ] } },
{ "type": "Feature", "properties": { "area0": "DK2", "area1": "DK2", "bus0": 5509, "bus1": 5519, "length": 14324.514192701999, "circuits": 2.0, "Vbase": 132.0, "ug": false, "uc": 0.0, "lat": [ 55.6118263416547, 55.6704998313238 ], "lon": [ 12.1087046854591, 12.3111563145409 ], "x": "[317900.98783249 330901.29729781]", "y": "[6166671.20333182 6172685.75255815]", "source": "Pypsa 2019-09-04", "info": { }, "line_id": 330, "bus0_name": "unknown", "bus1_name": "Ishøj", "from_node": 43, "to_node": 50, "overlap_delaunay1": true, "overlap_delaunay2": false, "overlap_delaunay3": false, "overlap_delaunay4": false, "overlap_delaunay5": false, "overlap_mst": false, "delaunay_category": "Delaunay1", "category": "Delaunay1" }, "geometry": { "type": "LineString", "coordinates": [ [ 12.108704685459101, 55.611826341654698 ], [ 12.3111563145409, 55.670499831323802 ] ] } },
{ "type": "Feature", "properties": { "area0": "DK2", "area1": "DK2", "bus0": 5516, "bus1": 5519, "length": 21074.124799309498, "circuits": 1.0, "Vbase": 132.0, "ug": false, "uc": 0.0, "lat": [ 55.6707816783335, 55.7957108549554 ], "lon": [ 12.3118896954608, 12.5639043045392 ], "x": "[330948.62227102 347282.48106235]", "y": "[6172715.31910511 6186028.87450047]", "source": "Pypsa 2019-09-04", "info": { }, "line_id": 332, "bus0_name": "Glentegård", "bus1_name": "Ishøj", "from_node": 57, "to_node": 50, "overlap_delaunay1": false, "overlap_delaunay2": true, "overlap_delaunay3": false, "overlap_delaunay4": false, "overlap_delaunay5": false, "overlap_mst": false, "delaunay_category": "Delaunay2", "category": "Delaunay2" }, "geometry": { "type": "LineString", "coordinates": [ [ 12.311889695460799, 55.670781678333491 ], [ 12.563904304539204, 55.795710854955409 ] ] } },
{ "type": "Feature", "properties": { "area0": "DK2", "area1": "DK2", "bus0": 5511, "bus1": 5519, "length": 10468.805263971701, "circuits": 1.0, "Vbase": 132.0, "ug": true, "uc": 0.0, "lat": [ 55.7639809962645, 55.677584 ], "lon": [ 12.2403197324314, 12.306061 ], "x": "[326861.88151723 330611.56769051]", "y": "[6183260.06595221 6173486.27823698]", "source": "Pypsa 2019-09-04", "info": { }, "line_id": 334, "bus0_name": "Hovegård", "bus1_name": "Ishøj", "from_node": 48, "to_node": 50, "overlap_delaunay1": true, "overlap_delaunay2": false, "overlap_delaunay3": false, "overlap_delaunay4": false, "overlap_delaunay5": false, "overlap_mst": false, "delaunay_category": "Delaunay1", "category": "Delaunay1" }, "geometry": { "type": "LineString", "coordinates": [ [ 12.240319732431402, 55.763980996264493 ], [ 12.306061, 55.677584 ] ] } },
{ "type": "Feature", "properties": { "area0": "DK2", "area1": "DK2", "bus0": 5518, "bus1": 5519, "length": 15331.9836223125, "circuits": 1.0, "Vbase": 132.0, "ug": false, "uc": 0.0, "lat": [ 55.7347042221124, 55.69926, 55.6707140467901 ], "lon": [ 12.5267859076139, 12.43103, 12.3119669654935 ], "x": "[344713.70902034 338556.72315062 330953.18866626]", "y": "[6179324.06153594 6175599.56751879 6172707.60695796]", "source": "Pypsa 2019-09-04", "info": { }, "line_id": 414, "bus0_name": "unknown", "bus1_name": "Ishøj", "from_node": 56, "to_node": 50, "overlap_delaunay1": false, "overlap_delaunay2": true, "overlap_delaunay3": false, "overlap_delaunay4": false, "overlap_delaunay5": false, "overlap_mst": false, "delaunay_category": "Delaunay2", "category": "Delaunay2" }, "geometry": { "type": "LineString", "coordinates": [ [ 12.526785907613903, 55.734704222112398 ], [ 12.43103, 55.69926 ], [ 12.311966965493502, 55.670714046790096 ] ] } },
{ "type": "Feature", "properties": { "area0": "DK2", "area1": "DK2", "bus0": 5519, "bus1": 5522, "length": 7494.6041293655908, "circuits": 2.0, "Vbase": 132.0, "ug": true, "uc": 0.0, "lat": [ 55.6704189669446, 55.634198, 55.6135147508585 ], "lon": [ 12.3118350423312, 12.363739, 12.3623825712356 ], "x": "[330943.62161337 334053.78715041 333880.93802048]", "y": "[6172675.10187696 6168520.27823486 6166222.55905888]", "source": "Pypsa 2019-09-04", "info": { }, "line_id": 288, "bus0_name": "Ishøj", "bus1_name": "unknown", "from_node": 50, "to_node": 51, "overlap_delaunay1": true, "overlap_delaunay2": false, "overlap_delaunay3": false, "overlap_delaunay4": false, "overlap_delaunay5": false, "overlap_mst": true, "delaunay_category": "Delaunay1", "category": "MST" }, "geometry": { "type": "LineString", "coordinates": [ [ 12.311835042331202, 55.670418966944595 ], [ 12.363739, 55.634198 ], [ 12.362382571235598, 55.613514750858492 ] ] } },
{ "type": "Feature", "properties": { "area0": "DK2", "area1": "DK2", "bus0": 5509, "bus1": 5522, "length": 15954.0588199879, "circuits": 2.0, "Vbase": 132.0, "ug": false, "uc": 0.0, "lat": [ 55.611713739192, 55.6132592609162 ], "lon": [ 12.1087556799727, 12.3619173200273 ], "x": "[317903.67652307 333850.56291834]", "y": "[6166658.54373564 6166195.2502161 ]", "source": "Pypsa 2019-09-04", "info": { }, "line_id": 289, "bus0_name": "unknown", "bus1_name": "unknown", "from_node": 43, "to_node": 51, "overlap_delaunay1": false, "overlap_delaunay2": true, "overlap_delaunay3": false, "overlap_delaunay4": false, "overlap_delaunay5": false, "overlap_mst": false, "delaunay_category": "Delaunay2", "category": "Delaunay2" }, "geometry": { "type": "LineString", "coordinates": [ [ 12.108755679972701, 55.611713739191998 ], [ 12.361917320027302, 55.613259260916202 ] ] } },
{ "type": "Feature", "properties": { "area0": "DK2", "area1": "DK2", "bus0": 5511, "bus1": 5526, "length": 6038.51878413339, "circuits": 1.0, "Vbase": 132.0, "ug": false, "uc": 0.0, "lat": [ 55.7380560087769, 55.7640920723354 ], "lon": [ 12.1553909521265, 12.2397510478735 ], "x": "[321416.71066873 326826.70577227]", "y": "[6180591.65021677 6183273.84422755]", "source": "Pypsa 2019-09-04", "info": { }, "line_id": 335, "bus0_name": "Hovegård", "bus1_name": "unknown", "from_node": 48, "to_node": 44, "overlap_delaunay1": true, "overlap_delaunay2": false, "overlap_delaunay3": false, "overlap_delaunay4": false, "overlap_delaunay5": false, "overlap_mst": true, "delaunay_category": "Delaunay1", "category": "MST" }, "geometry": { "type": "LineString", "coordinates": [ [ 12.155390952126499, 55.738056008776901 ], [ 12.239751047873503, 55.764092072335394 ] ] } },
{ "type": "Feature", "properties": { "area0": "DK2", "area1": "DK2", "bus0": 5497, "bus1": 5528, "length": 8036.5062798894405, "circuits": 1.0, "Vbase": 132.0, "ug": false, "uc": 0.0, "lat": [ 55.225645274248, 55.1563651532519 ], "lon": [ 11.7623633484847, 11.7978176515153 ], "x": "[294095.30442116 295995.31681743]", "y": "[6124682.15553723 6116872.52776325]", "source": "Pypsa 2019-09-04", "info": { }, "line_id": 265, "bus0_name": "unknown", "bus1_name": "unknown", "from_node": 25, "to_node": 27, "overlap_delaunay1": true, "overlap_delaunay2": false, "overlap_delaunay3": false, "overlap_delaunay4": false, "overlap_delaunay5": false, "overlap_mst": true, "delaunay_category": "Delaunay1", "category": "MST" }, "geometry": { "type": "LineString", "coordinates": [ [ 11.762363348484701, 55.225645274247988 ], [ 11.797817651515301, 55.15636515325189 ] ] } },
{ "type": "Feature", "properties": { "area0": "DK2", "area1": "DK2", "bus0": 5504, "bus1": 5529, "length": 18888.362149247801, "circuits": 2.0, "Vbase": 132.0, "ug": false, "uc": 0.0, "lat": [ 54.9292822136524, 54.7795336311408 ], "lon": [ 11.8512911886849, 11.7130088113151 ], "x": "[298262.09284599 288623.4602773 ]", "y": "[6091460.83193122 6075214.13500743]", "source": "Pypsa 2019-09-04", "info": { }, "line_id": 385, "bus0_name": "unknown", "bus1_name": "unknown", "from_node": 22, "to_node": 29, "overlap_delaunay1": true, "overlap_delaunay2": false, "overlap_delaunay3": false, "overlap_delaunay4": false, "overlap_delaunay5": false, "overlap_mst": false, "delaunay_category": "Delaunay1", "category": "Delaunay1" }, "geometry": { "type": "LineString", "coordinates": [ [ 11.851291188684902, 54.929282213652407 ], [ 11.713008811315101, 54.779533631140808 ] ] } },
{ "type": "Feature", "properties": { "area0": "DK2", "area1": "DK2", "bus0": 5518, "bus1": 5531, "length": 9613.3491073762507, "circuits": 1.0, "Vbase": 132.0, "ug": false, "uc": 0.0, "lat": [ 55.734591067339, 55.694616, 55.6622718364685 ], "lon": [ 12.5271437873499, 12.524414, 12.5831450310486 ], "x": "[344735.72488417 344405.49863045 347970.59265896]", "y": "[6179310.67069229 6174869.39722081 6171140.6985382 ]", "source": "Pypsa 2019-09-04", "info": { }, "line_id": 271, "bus0_name": "unknown", "bus1_name": "København", "from_node": 56, "to_node": 60, "overlap_delaunay1": true, "overlap_delaunay2": false, "overlap_delaunay3": false, "overlap_delaunay4": false, "overlap_delaunay5": false, "overlap_mst": false, "delaunay_category": "Delaunay1", "category": "Delaunay1" }, "geometry": { "type": "LineString", "coordinates": [ [ 12.527143787349898, 55.734591067338982 ], [ 12.524414, 55.694616 ], [ 12.583145031048602, 55.662271836468499 ] ] } },
{ "type": "Feature", "properties": { "area0": "DK2", "area1": "DK2", "bus0": 5518, "bus1": 5531, "length": 8783.152948812769, "circuits": 1.0, "Vbase": 132.0, "ug": false, "uc": 0.0, "lat": [ 55.7346115864515, 55.6623268432809 ], "lon": [ 12.5273402741504, 12.5832867258496 ], "x": "[344748.1404521 347979.7171535]", "y": "[6179312.5133399  6171146.50776894]", "source": "Pypsa 2019-09-04", "info": { }, "line_id": 272, "bus0_name": "unknown", "bus1_name": "København", "from_node": 56, "to_node": 60, "overlap_delaunay1": true, "overlap_delaunay2": false, "overlap_delaunay3": false, "overlap_delaunay4": false, "overlap_delaunay5": false, "overlap_mst": false, "delaunay_category": "Delaunay1", "category": "Delaunay1" }, "geometry": { "type": "LineString", "coordinates": [ [ 12.527340274150399, 55.734611586451486 ], [ 12.583286725849598, 55.662326843280908 ] ] } },
{ "type": "Feature", "properties": { "area0": "DK2", "area1": "DK2", "bus0": 5505, "bus1": 5533, "length": 14840.2541553797, "circuits": 1.0, "Vbase": 132.0, "ug": false, "uc": 0.0, "lat": [ 54.8594774363788, 54.9923294106961 ], "lon": [ 11.9215020927341, 11.902349907266 ], "x": "[302417.42118336 301843.04121289]", "y": "[6083496.75312342 6098327.08101095]", "source": "Pypsa 2019-09-04", "info": { }, "line_id": 267, "bus0_name": "unknown", "bus1_name": "unknown", "from_node": 34, "to_node": 33, "overlap_delaunay1": true, "overlap_delaunay2": false, "overlap_delaunay3": false, "overlap_delaunay4": false, "overlap_delaunay5": false, "overlap_mst": false, "delaunay_category": "Delaunay1", "category": "Delaunay1" }, "geometry": { "type": "LineString", "coordinates": [ [ 11.9215020927341, 54.859477436378796 ], [ 11.902349907266002, 54.992329410696101 ] ] } },
{ "type": "Feature", "properties": { "area0": "DK2", "area1": "DK2", "bus0": 5529, "bus1": 5533, "length": 7682.2194826977293, "circuits": 2.0, "Vbase": 132.0, "ug": false, "uc": 0.0, "lat": [ 54.9923518664151, 54.9297424985251 ], "lon": [ 11.9021250480981, 11.8516889519019 ], "x": "[301828.77246109 298289.87343158]", "y": "[6098330.21601595 6091510.87816539]", "source": "Pypsa 2019-09-04", "info": { }, "line_id": 375, "bus0_name": "unknown", "bus1_name": "unknown", "from_node": 29, "to_node": 33, "overlap_delaunay1": true, "overlap_delaunay2": false, "overlap_delaunay3": false, "overlap_delaunay4": false, "overlap_delaunay5": false, "overlap_mst": true, "delaunay_category": "Delaunay1", "category": "MST" }, "geometry": { "type": "LineString", "coordinates": [ [ 11.902125048098101, 54.992351866415099 ], [ 11.851688951901902, 54.929742498525094 ] ] } },
{ "type": "Feature", "properties": { "area0": "DK2", "area1": "DK2", "bus0": 5507, "bus1": 5533, "length": 15126.097816245601, "circuits": 2.0, "Vbase": 132.0, "ug": false, "uc": 0.0, "lat": [ 54.9928394672703, 55.127610389643 ], "lon": [ 11.9023697366033, 11.9324692633967 ], "x": "[301846.82388399 304430.15176002]", "y": "[6098383.75496885 6113288.78045895]", "source": "Pypsa 2019-09-04", "info": { }, "line_id": 376, "bus0_name": "unknown", "bus1_name": "unknown", "from_node": 35, "to_node": 33, "overlap_delaunay1": true, "overlap_delaunay2": false, "overlap_delaunay3": false, "overlap_delaunay4": false, "overlap_delaunay5": false, "overlap_mst": true, "delaunay_category": "Delaunay1", "category": "MST" }, "geometry": { "type": "LineString", "coordinates": [ [ 11.902369736603299, 54.992839467270294 ], [ 11.932469263396699, 55.12761038964301 ] ] } },
{ "type": "Feature", "properties": { "area0": "DK2", "area1": "DK2", "bus0": 5528, "bus1": 5533, "length": 19330.689096573798, "circuits": 1.0, "Vbase": 132.0, "ug": false, "uc": 0.0, "lat": [ 55.1558797493524, 54.9928262332405 ], "lon": [ 11.7980966442893, 11.9021593557107 ], "x": "[296010.60577666 301833.30520535]", "y": "[6116817.72460081 6098382.87939268]", "source": "Pypsa 2019-09-04", "info": { }, "line_id": 384, "bus0_name": "unknown", "bus1_name": "unknown", "from_node": 27, "to_node": 33, "overlap_delaunay1": true, "overlap_delaunay2": false, "overlap_delaunay3": false, "overlap_delaunay4": false, "overlap_delaunay5": false, "overlap_mst": false, "delaunay_category": "Delaunay1", "category": "Delaunay1" }, "geometry": { "type": "LineString", "coordinates": [ [ 11.798096644289302, 55.155879749352401 ], [ 11.902159355710699, 54.992826233240493 ] ] } },
{ "type": "Feature", "properties": { "area0": "DK2", "area1": "DK2", "bus0": 5496, "bus1": 5569, "length": 7526.3301958042593, "circuits": 1.0, "Vbase": 132.0, "ug": false, "uc": 0.0, "lat": [ 55.4404792490633, 55.3816720809912 ], "lon": [ 11.7867368185921, 11.7281251814079 ], "x": "[296748.13581546 292734.31703667]", "y": "[6148504.98154043 6142137.2389876 ]", "source": "Pypsa 2019-09-04", "info": { }, "line_id": 326, "bus0_name": "unknown", "bus1_name": "unknown", "from_node": 26, "to_node": 24, "overlap_delaunay1": true, "overlap_delaunay2": false, "overlap_delaunay3": false, "overlap_delaunay4": false, "overlap_delaunay5": false, "overlap_mst": true, "delaunay_category": "Delaunay1", "category": "MST" }, "geometry": { "type": "LineString", "coordinates": [ [ 11.7867368185921, 55.440479249063287 ], [ 11.728125181407902, 55.381672080991201 ] ] } },
{ "type": "Feature", "properties": { "area0": "DK2", "area1": "DK2", "bus0": 5523, "bus1": 5575, "length": 20937.493113852801, "circuits": 2.0, "Vbase": 132.0, "ug": false, "uc": 0.0, "lat": [ 55.4452036749591, 55.3191578694424 ], "lon": [ 11.9610331935266, 11.7158778064734 ], "x": "[307792.26807626 291630.56603828]", "y": "[6148534.77860211 6135220.91329607]", "source": "Pypsa 2019-09-04", "info": { }, "line_id": 378, "bus0_name": "Bjæverskov", "bus1_name": "unknown", "from_node": 38, "to_node": 23, "overlap_delaunay1": false, "overlap_delaunay2": true, "overlap_delaunay3": false, "overlap_delaunay4": false, "overlap_delaunay5": false, "overlap_mst": false, "delaunay_category": "Delaunay2", "category": "Delaunay2" }, "geometry": { "type": "LineString", "coordinates": [ [ 11.9610331935266, 55.445203674959096 ], [ 11.715877806473403, 55.319157869442392 ] ] } },
{ "type": "Feature", "properties": { "area0": "DK2", "area1": "DK2", "bus0": 5569, "bus1": 5575, "length": 6941.5746757349398, "circuits": 1.0, "Vbase": 132.0, "ug": false, "uc": 0.0, "lat": [ 55.3811986243888, 55.3192397724116 ], "lon": [ 11.7278550262251, 11.7155959737749 ], "x": "[292714.73235456 291613.12123683]", "y": "[6142085.38521788 6135230.86606516]", "source": "Pypsa 2019-09-04", "info": { }, "line_id": 6498, "bus0_name": "unknown", "bus1_name": "unknown", "from_node": 24, "to_node": 23, "overlap_delaunay1": true, "overlap_delaunay2": false, "overlap_delaunay3": false, "overlap_delaunay4": false, "overlap_delaunay5": false, "overlap_mst": true, "delaunay_category": "Delaunay1", "category": "MST" }, "geometry": { "type": "LineString", "coordinates": [ [ 11.727855026225098, 55.381198624388794 ], [ 11.715595973774899, 55.319239772411599 ] ] } },
{ "type": "Feature", "properties": { "area0": "DK2", "area1": "DK2", "bus0": 5497, "bus1": 5575, "length": 10724.1593068646, "circuits": 2.0, "Vbase": 132.0, "ug": false, "uc": 0.0, "lat": [ 55.3187424100476, 55.2261351624741 ], "lon": [ 11.7156688155306, 11.7621151844694 ], "x": "[291615.13067516 294082.05964451]", "y": "[6135175.33121191 6124737.37451065]", "source": "Pypsa 2019-09-04", "info": { }, "line_id": 6499, "bus0_name": "unknown", "bus1_name": "unknown", "from_node": 25, "to_node": 23, "overlap_delaunay1": true, "overlap_delaunay2": false, "overlap_delaunay3": false, "overlap_delaunay4": false, "overlap_delaunay5": false, "overlap_mst": true, "delaunay_category": "Delaunay1", "category": "MST" }, "geometry": { "type": "LineString", "coordinates": [ [ 11.715668815530602, 55.318742410047584 ], [ 11.762115184469401, 55.226135162474101 ] ] } },
{ "type": "Feature", "properties": { "area0": "DK2", "area1": "DK2", "bus0": 5531, "bus1": 5576, "length": 7959.0358175590409, "circuits": 1.0, "Vbase": 132.0, "ug": false, "uc": 0.0, "lat": [ 55.6623478210519, 55.7338176424311 ], "lon": [ 12.5834563596703, 12.5807286403297 ], "x": "[347990.46678278 348096.43563283]", "y": "[6171148.46988177 6179105.87083321]", "source": "Pypsa 2019-09-04", "info": { }, "line_id": 416, "bus0_name": "København", "bus1_name": "unknown", "from_node": 60, "to_node": 59, "overlap_delaunay1": true, "overlap_delaunay2": false, "overlap_delaunay3": false, "overlap_delaunay4": false, "overlap_delaunay5": false, "overlap_mst": false, "delaunay_category": "Delaunay1", "category": "Delaunay1" }, "geometry": { "type": "LineString", "coordinates": [ [ 12.583456359670299, 55.662347821051895 ], [ 12.580728640329697, 55.733817642431106 ] ] } },
{ "type": "Feature", "properties": { "area0": "DK2", "area1": "DK2", "bus0": 5516, "bus1": 5576, "length": 6902.6781670997607, "circuits": 1.0, "Vbase": 132.0, "ug": false, "uc": 0.0, "lat": [ 55.7343192088615, 55.7956281842888 ], "lon": [ 12.5806526082804, 12.5643063917196 ], "x": "[348093.61117077 347307.35853569]", "y": "[6179161.83984523 6186018.790214  ]", "source": "Pypsa 2019-09-04", "info": { }, "line_id": 248, "bus0_name": "Glentegård", "bus1_name": "unknown", "from_node": 57, "to_node": 59, "overlap_delaunay1": true, "overlap_delaunay2": false, "overlap_delaunay3": false, "overlap_delaunay4": false, "overlap_delaunay5": false, "overlap_mst": true, "delaunay_category": "Delaunay1", "category": "MST" }, "geometry": { "type": "LineString", "coordinates": [ [ 12.580652608280399, 55.7343192088615 ], [ 12.564306391719599, 55.795628184288802 ] ] } },
{ "type": "Feature", "properties": { "area0": "DK2", "area1": "DK2", "bus0": 5518, "bus1": 5576, "length": 3309.3001489615399, "circuits": 1.0, "Vbase": 132.0, "ug": false, "uc": 0.0, "lat": [ 55.7348365337192, 55.7340764664077 ], "lon": [ 12.5276090264763, 12.5802709735237 ], "x": "[344765.90392482 348068.71108492]", "y": "[6179336.93771016 6179135.66983639]", "source": "Pypsa 2019-09-04", "info": { }, "line_id": 249, "bus0_name": "unknown", "bus1_name": "unknown", "from_node": 56, "to_node": 59, "overlap_delaunay1": true, "overlap_delaunay2": false, "overlap_delaunay3": false, "overlap_delaunay4": false, "overlap_delaunay5": false, "overlap_mst": true, "delaunay_category": "Delaunay1", "category": "MST" }, "geometry": { "type": "LineString", "coordinates": [ [ 12.527609026476298, 55.734836533719204 ], [ 12.580270973523701, 55.734076466407686 ] ] } },
{ "type": "Feature", "properties": { "area0": "DK2", "area1": "DK2", "bus0": 5504, "bus1": 5580, "length": 27243.6524918502, "circuits": 1.0, "Vbase": 132.0, "ug": false, "uc": 0.0, "lat": [ 54.7790541483446, 54.672243, 54.651591, 54.5484111605732 ], "lon": [ 11.7128992771496, 11.755371, 11.740265, 11.6621670376907 ], "x": "[288613.91705174 290794.41617048 289714.05615076 284132.30677297]", "y": "[6075161.14036241 6063154.91585435 6060903.2791043  6049665.46819681]", "source": "Pypsa 2019-09-04", "info": { }, "line_id": 11548, "bus0_name": "unknown", "bus1_name": "Rødsand 1 (Nysted)", "from_node": 22, "to_node": 20, "overlap_delaunay1": false, "overlap_delaunay2": false, "overlap_delaunay3": false, "overlap_delaunay4": false, "overlap_delaunay5": false, "overlap_mst": false, "delaunay_category": "None", "category": "None" }, "geometry": { "type": "LineString", "coordinates": [ [ 11.712899277149598, 54.779054148344606 ], [ 11.755371, 54.672243 ], [ 11.740265, 54.651591 ], [ 11.662167037690699, 54.548411160573202 ] ] } },
{ "type": "Feature", "properties": { "area0": "DK2", "area1": "DK2", "bus0": 5504, "bus1": 5581, "length": 29872.694417795799, "circuits": 1.0, "Vbase": 132.0, "ug": false, "uc": 0.0, "lat": [ 54.7791090771505, 54.723034, 54.669066, 54.627748, 54.619798, 54.5683297427783 ], "lon": [ 11.7125104534061, 11.630402, 11.530151, 11.4711, 11.47522, 11.5011865848023 ], "x": "[288589.2085203  283011.16677505 276261.01103128 272223.82791848\n 272445.24513456 273835.69369429]", "y": "[6075168.42202897 6069183.08514078 6063496.3492197  6059091.55728987\n 6058194.1375867  6052386.85395303]", "source": "Pypsa 2019-09-04", "info": { }, "line_id": 11602, "bus0_name": "unknown", "bus1_name": "Rødsand 2", "from_node": 22, "to_node": 16, "overlap_delaunay1": false, "overlap_delaunay2": false, "overlap_delaunay3": false, "overlap_delaunay4": false, "overlap_delaunay5": false, "overlap_mst": false, "delaunay_category": "None", "category": "None" }, "geometry": { "type": "LineString", "coordinates": [ [ 11.712510453406102, 54.779109077150508 ], [ 11.630402, 54.723034 ], [ 11.530151, 54.669066 ], [ 11.4711, 54.627748 ], [ 11.47522, 54.619798 ], [ 11.501186584802298, 54.568329742778296 ] ] } },
{ "type": "Feature", "properties": { "area0": "DK2", "area1": "DK2", "bus0": 5499, "bus1": 5584, "length": 17591.2708562964, "circuits": 1.0, "Vbase": 132.0, "ug": false, "uc": 0.0, "lat": [ 55.5480778724688, 55.5604661338048 ], "lon": [ 11.6706726978282, 11.9485593021718 ], "x": "[289983.20248398 307566.86114722]", "y": "[6160817.61780597 6161390.16738358]", "source": "Pypsa 2019-09-04", "info": { }, "line_id": 6494, "bus0_name": "unknown", "bus1_name": "unknown", "from_node": 21, "to_node": 37, "overlap_delaunay1": true, "overlap_delaunay2": false, "overlap_delaunay3": false, "overlap_delaunay4": false, "overlap_delaunay5": false, "overlap_mst": false, "delaunay_category": "Delaunay1", "category": "Delaunay1" }, "geometry": { "type": "LineString", "coordinates": [ [ 11.6706726978282, 55.548077872468781 ], [ 11.948559302171802, 55.560466133804809 ] ] } },
{ "type": "Feature", "properties": { "area0": "DK2", "area1": "DK2", "bus0": 5509, "bus1": 5584, "length": 12268.278663298899, "circuits": 1.0, "Vbase": 132.0, "ug": false, "uc": 0.0, "lat": [ 55.5605077132314, 55.564369, 55.6115275518773 ], "lon": [ 11.9494503761541, 12.028656, 12.1079981704405 ], "x": "[307623.23911326 312634.9332977  317855.11830627]", "y": "[6161392.3230324  6161605.22490458 6166639.82054414]", "source": "Pypsa 2019-09-04", "info": { }, "line_id": 253, "bus0_name": "unknown", "bus1_name": "unknown", "from_node": 43, "to_node": 37, "overlap_delaunay1": true, "overlap_delaunay2": false, "overlap_delaunay3": false, "overlap_delaunay4": false, "overlap_delaunay5": false, "overlap_mst": true, "delaunay_category": "Delaunay1", "category": "MST" }, "geometry": { "type": "LineString", "coordinates": [ [ 11.9494503761541, 55.560507713231402 ], [ 12.028656, 55.564369 ], [ 12.107998170440498, 55.611527551877295 ] ] } },
{ "type": "Feature", "properties": { "area0": "DK2", "area1": "DK2", "bus0": 5522, "bus1": 5585, "length": 8323.4183055562007, "circuits": 2.0, "Vbase": 132.0, "ug": true, "uc": 0.0, "lat": [ 55.5598897995509, 55.6130814461272 ], "lon": [ 12.2692970582168, 12.3620509417832 ], "x": "[327785.1937567  333858.22428695]", "y": "[6160483.85541153 6166175.1488497 ]", "source": "Pypsa 2019-09-04", "info": { }, "line_id": 6497, "bus0_name": "unknown", "bus1_name": "unknown", "from_node": 51, "to_node": 49, "overlap_delaunay1": true, "overlap_delaunay2": false, "overlap_delaunay3": false, "overlap_delaunay4": false, "overlap_delaunay5": false, "overlap_mst": true, "delaunay_category": "Delaunay1", "category": "MST" }, "geometry": { "type": "LineString", "coordinates": [ [ 12.269297058216802, 55.559889799550909 ], [ 12.362050941783199, 55.613081446127204 ] ] } },
{ "type": "Feature", "properties": { "area0": "DK2", "area1": "DK2", "bus0": 5585, "bus1": 5586, "length": 9138.3708201436402, "circuits": 2.0, "Vbase": 132.0, "ug": false, "uc": 0.0, "lat": [ 55.5595229290993, 55.4992693570256 ], "lon": [ 12.268678297362, 12.1704087026379 ], "x": "[327744.57583786 321275.70681384]", "y": "[6160444.57812279 6153990.13383436]", "source": "Pypsa 2019-09-04", "info": { }, "line_id": 290, "bus0_name": "unknown", "bus1_name": "unknown", "from_node": 49, "to_node": 45, "overlap_delaunay1": true, "overlap_delaunay2": false, "overlap_delaunay3": false, "overlap_delaunay4": false, "overlap_delaunay5": false, "overlap_mst": true, "delaunay_category": "Delaunay1", "category": "MST" }, "geometry": { "type": "LineString", "coordinates": [ [ 12.268678297361999, 55.559522929099302 ], [ 12.1704087026379, 55.499269357025589 ] ] } },
{ "type": "Feature", "properties": { "area0": "DK2", "area1": "DK2", "bus0": 5501, "bus1": 5586, "length": 11312.975159977199, "circuits": 2.0, "Vbase": 132.0, "ug": false, "uc": 0.0, "lat": [ 55.4990810590512, 55.498306940987 ], "lon": [ 12.1696561798583, 11.9906528201417 ], "x": "[321227.33596362 309920.85392517]", "y": "[6153971.12343771 6154360.1185927 ]", "source": "Pypsa 2019-09-04", "info": { }, "line_id": 6496, "bus0_name": "unknown", "bus1_name": "unknown", "from_node": 40, "to_node": 45, "overlap_delaunay1": true, "overlap_delaunay2": false, "overlap_delaunay3": false, "overlap_delaunay4": false, "overlap_delaunay5": false, "overlap_mst": true, "delaunay_category": "Delaunay1", "category": "MST" }, "geometry": { "type": "LineString", "coordinates": [ [ 12.169656179858301, 55.4990810590512 ], [ 11.990652820141701, 55.498306940986993 ] ] } },
{ "type": "Feature", "properties": { "area0": "DK2", "area1": "DK2", "bus0": 5509, "bus1": 5590, "length": 15340.394294397, "circuits": 2.0, "Vbase": 132.0, "ug": false, "uc": 0.0, "lat": [ 55.611794732147, 55.6573633653593 ], "lon": [ 12.1078848632655, 11.8780161367345 ], "x": "[317849.22323261 303604.86663361]", "y": "[6166669.83880349 6172365.8608028 ]", "source": "Pypsa 2019-09-04", "info": { }, "line_id": 284, "bus0_name": "unknown", "bus1_name": "unknown", "from_node": 43, "to_node": 30, "overlap_delaunay1": true, "overlap_delaunay2": false, "overlap_delaunay3": false, "overlap_delaunay4": false, "overlap_delaunay5": false, "overlap_mst": false, "delaunay_category": "Delaunay1", "category": "Delaunay1" }, "geometry": { "type": "LineString", "coordinates": [ [ 12.107884863265499, 55.611794732146997 ], [ 11.8780161367345, 55.657363365359295 ] ] } },
{ "type": "Feature", "properties": { "area0": "DK2", "area1": "DK2", "bus0": 5459, "bus1": 5590, "length": 21794.278872747, "circuits": 2.0, "Vbase": 132.0, "ug": false, "uc": 0.0, "lat": [ 55.6575328133074, 55.7239313324896 ], "lon": [ 11.8771730348676, 11.5511719651324 ], "x": "[303552.69763563 283421.18790876]", "y": "[6172387.09665068 6180743.54910198]", "source": "Pypsa 2019-09-04", "info": { }, "line_id": 6657, "bus0_name": "unknown", "bus1_name": "unknown", "from_node": 18, "to_node": 30, "overlap_delaunay1": true, "overlap_delaunay2": false, "overlap_delaunay3": false, "overlap_delaunay4": false, "overlap_delaunay5": false, "overlap_mst": false, "delaunay_category": "Delaunay1", "category": "Delaunay1" }, "geometry": { "type": "LineString", "coordinates": [ [ 11.877173034867598, 55.657532813307398 ], [ 11.551171965132401, 55.723931332489599 ] ] } },
{ "type": "Feature", "properties": { "area0": "DK2", "area1": "DK2", "bus0": 5516, "bus1": 6104, "length": 16448.590054900902, "circuits": 1.0, "Vbase": 132.0, "ug": true, "uc": 0.0, "lat": [ 55.7961137861439, 55.9351200611729 ], "lon": [ 12.5640887324349, 12.4751272675651 ], "x": "[347295.61737626 342284.49910174]", "y": "[6186073.29655546 6201738.17038531]", "source": "Pypsa 2019-09-04", "info": { }, "line_id": 331, "bus0_name": "Glentegård", "bus1_name": "unknown", "from_node": 57, "to_node": 53, "overlap_delaunay1": true, "overlap_delaunay2": false, "overlap_delaunay3": false, "overlap_delaunay4": false, "overlap_delaunay5": false, "overlap_mst": false, "delaunay_category": "Delaunay1", "category": "Delaunay1" }, "geometry": { "type": "LineString", "coordinates": [ [ 12.564088732434898, 55.796113786143891 ], [ 12.475127267565098, 55.935120061172896 ] ] } },
{ "type": "Feature", "properties": { "area0": "DK2", "area1": "DK2", "bus0": 6103, "bus1": 6104, "length": 16140.248339305001, "circuits": 2.0, "Vbase": 132.0, "ug": false, "uc": 0.0, "lat": [ 55.9137948404099, 55.908424, 55.9352543052017 ], "lon": [ 12.2268561420228, 12.366486, 12.4745662016826 ], "x": "[326685.43546354 335386.84619441 342250.00642577]", "y": "[6199960.02369359 6199021.34831979 6201754.38588843]", "source": "Pypsa 2019-09-04", "info": { }, "line_id": 379, "bus0_name": "unknown", "bus1_name": "unknown", "from_node": 46, "to_node": 53, "overlap_delaunay1": true, "overlap_delaunay2": false, "overlap_delaunay3": false, "overlap_delaunay4": false, "overlap_delaunay5": false, "overlap_mst": false, "delaunay_category": "Delaunay1", "category": "Delaunay1" }, "geometry": { "type": "LineString", "coordinates": [ [ 12.226856142022799, 55.913794840409892 ], [ 12.366486, 55.908424 ], [ 12.474566201682599, 55.935254305201703 ] ] } },
{ "type": "Feature", "properties": { "area0": "DK2", "area1": "DK2", "bus0": 6103, "bus1": 6106, "length": 11946.2914831332, "circuits": 2.0, "Vbase": 132.0, "ug": false, "uc": 0.0, "lat": [ 55.9690581376172, 55.9139410463206 ], "lon": [ 12.0619987657867, 12.2260262342133 ], "x": "[316646.91619428 326634.23605767]", "y": "[6206533.10443234 6199978.36913123]", "source": "Pypsa 2019-09-04", "info": { }, "line_id": 394, "bus0_name": "unknown", "bus1_name": "unknown", "from_node": 46, "to_node": 42, "overlap_delaunay1": true, "overlap_delaunay2": false, "overlap_delaunay3": false, "overlap_delaunay4": false, "overlap_delaunay5": false, "overlap_mst": true, "delaunay_category": "Delaunay1", "category": "MST" }, "geometry": { "type": "LineString", "coordinates": [ [ 12.061998765786701, 55.969058137617203 ], [ 12.226026234213299, 55.913941046320609 ] ] } },
{ "type": "Feature", "properties": { "area0": "DK2", "area1": "DK2", "bus0": 6104, "bus1": 6107, "length": 13369.7490139496, "circuits": 1.0, "Vbase": 132.0, "ug": false, "uc": 0.0, "lat": [ 56.042678712013, 55.966881, 55.9355915036736 ], "lon": [ 12.5708888918329, 12.495575, 12.4751298201619 ], "x": "[348685.67235857 343689.51478875 342286.57450062]", "y": "[6213490.80105424 6205225.33239846 6201790.61531325]", "source": "Pypsa 2019-09-04", "info": { }, "line_id": 6817, "bus0_name": "unknown", "bus1_name": "Teglstrupgård", "from_node": 53, "to_node": 58, "overlap_delaunay1": true, "overlap_delaunay2": false, "overlap_delaunay3": false, "overlap_delaunay4": false, "overlap_delaunay5": false, "overlap_mst": false, "delaunay_category": "Delaunay1", "category": "Delaunay1" }, "geometry": { "type": "LineString", "coordinates": [ [ 12.570888891832899, 56.042678712013 ], [ 12.495575, 55.966881 ], [ 12.475129820161902, 55.935591503673592 ] ] } },
{ "type": "Feature", "properties": { "area0": "DK2", "area1": "SE4", "bus0": 6107, "bus1": 6129, "length": 22911.764933812799, "circuits": 1.0, "Vbase": 132.0, "ug": false, "uc": 0.0, "lat": [ 56.0705192943046, 56.074335, 56.0429493270381 ], "lon": [ 12.9332088939973, 12.834778, 12.571544690813 ], "x": "[371344.07320254 365231.22959838 348727.57337101]", "y": "[6215853.9212866  6216466.29826129 6213519.47292401]", "source": "Pypsa 2019-09-04", "info": { }, "line_id": 2408, "bus0_name": "Teglstrupgård", "bus1_name": "Mörap", "from_node": 58, "to_node": 61, "overlap_delaunay1": true, "overlap_delaunay2": false, "overlap_delaunay3": false, "overlap_delaunay4": false, "overlap_delaunay5": false, "overlap_mst": true, "delaunay_category": "Delaunay1", "category": "MST" }, "geometry": { "type": "LineString", "coordinates": [ [ 12.9332088939973, 56.070519294304596 ], [ 12.834778, 56.074335 ], [ 12.571544690813001, 56.042949327038109 ] ] } },
{ "type": "Feature", "properties": { "area0": "DK2", "area1": "SE4", "bus0": 6107, "bus1": 6129, "length": 22976.692072117203, "circuits": 1.0, "Vbase": 132.0, "ug": false, "uc": 0.0, "lat": [ 56.070449937018, 56.03676, 56.0428622688843 ], "lon": [ 12.9332161859927, 12.649384, 12.5715490336071 ], "x": "[371344.29596429 353551.82459546 348727.50309911]", "y": "[6215846.19022124 6212663.03841372 6213509.77727591]", "source": "Pypsa 2019-09-04", "info": { }, "line_id": 6819, "bus0_name": "Teglstrupgård", "bus1_name": "Mörap", "from_node": 58, "to_node": 61, "overlap_delaunay1": true, "overlap_delaunay2": false, "overlap_delaunay3": false, "overlap_delaunay4": false, "overlap_delaunay5": false, "overlap_mst": true, "delaunay_category": "Delaunay1", "category": "MST" }, "geometry": { "type": "LineString", "coordinates": [ [ 12.9332161859927, 56.070449937017997 ], [ 12.649384, 56.03676 ], [ 12.571549033607099, 56.042862268884299 ] ] } },
{ "type": "Feature", "properties": { "area0": "DK2", "area1": "DK2", "bus0": 6107, "bus1": 6140, "length": 13110.1375806498, "circuits": 1.0, "Vbase": 132.0, "ug": false, "uc": 0.0, "lat": [ 56.0426525632459, 56.008363, 55.9340435032271 ], "lon": [ 12.5712032473829, 12.584839, 12.5204890652196 ], "x": "[348705.14744703 349420.91644678 345113.05029223]", "y": "[6213487.2029097  6209642.33064565 6201515.8444066 ]", "source": "Pypsa 2019-09-04", "info": { }, "line_id": 397, "bus0_name": "Teglstrupgård", "bus1_name": "unknown", "from_node": 58, "to_node": 55, "overlap_delaunay1": true, "overlap_delaunay2": false, "overlap_delaunay3": false, "overlap_delaunay4": false, "overlap_delaunay5": false, "overlap_mst": true, "delaunay_category": "Delaunay1", "category": "MST" }, "geometry": { "type": "LineString", "coordinates": [ [ 12.571203247382901, 56.042652563245916 ], [ 12.584839, 56.008363 ], [ 12.5204890652196, 55.934043503227095 ] ] } },
{ "type": "Feature", "properties": { "area0": "DK2", "area1": "DK2", "bus0": 6104, "bus1": 6140, "length": 2781.5495790573, "circuits": 1.0, "Vbase": 132.0, "ug": false, "uc": 0.0, "lat": [ 55.9353408472334, 55.9338331533622 ], "lon": [ 12.4754224932204, 12.5198475067796 ], "x": "[342303.83303963 345072.14383246]", "y": "[6201762.06069365 6201493.87890141]", "source": "Pypsa 2019-09-04", "info": { }, "line_id": 417, "bus0_name": "unknown", "bus1_name": "unknown", "from_node": 53, "to_node": 55, "overlap_delaunay1": true, "overlap_delaunay2": false, "overlap_delaunay3": false, "overlap_delaunay4": false, "overlap_delaunay5": false, "overlap_mst": true, "delaunay_category": "Delaunay1", "category": "MST" }, "geometry": { "type": "LineString", "coordinates": [ [ 12.475422493220401, 55.935340847233398 ], [ 12.519847506779598, 55.933833153362201 ] ] } },
{ "type": "Feature", "properties": { "area0": "NO5", "area1": "NO5", "bus0": 6405, "bus1": 6478, "length": 94210.606593122895, "circuits": 1.0, "Vbase": 132.0, "ug": false, "uc": 0.0, "lat": [ 61.2069246766079, 61.29069, 61.423006, 61.517456, 61.492588810339 ], "lon": [ 7.33850459163975, 7.098541, 6.652222, 6.131744, 5.74903921225485 ], "x": "[88979.67811093 77279.17684026 55378.02529729 29206.77225467\n  8591.66671501]", "y": "[6809971.55894071 6820790.60910828 6838422.7628599  6852544.34223538\n 6852628.24575081]", "source": "Pypsa 2019-09-04", "info": { }, "line_id": 1322, "bus0_name": "Fardal in Sogn", "bus1_name": "unknown", "from_node": 4, "to_node": 1, "overlap_delaunay1": true, "overlap_delaunay2": false, "overlap_delaunay3": false, "overlap_delaunay4": false, "overlap_delaunay5": false, "overlap_mst": false, "delaunay_category": "Delaunay1", "category": "Delaunay1" }, "geometry": { "type": "LineString", "coordinates": [ [ 7.338504591639752, 61.20692467660789 ], [ 7.098541, 61.29069 ], [ 6.652222, 61.423006 ], [ 6.131744, 61.517456 ], [ 5.749039212254852, 61.492588810338994 ] ] } },
{ "type": "Feature", "properties": { "area0": "NO3", "area1": "NO3", "bus0": 6603, "bus1": 6605, "length": 33284.984373810199, "circuits": 2.0, "Vbase": 132.0, "ug": false, "uc": 0.0, "lat": [ 63.0581865391036, 63.169235, 63.271747122419 ], "lon": [ 9.6024199750926, 9.95773300000001, 9.93306218856054 ], "x": "[227381.23797589 246270.32867439 245932.81679804]", "y": "[7003531.60265856 7014416.86880281 7025910.08173438]", "source": "Pypsa 2019-09-04", "info": { }, "line_id": 1166, "bus0_name": "Trondheim", "bus1_name": "Grana", "from_node": 7, "to_node": 5, "overlap_delaunay1": true, "overlap_delaunay2": false, "overlap_delaunay3": false, "overlap_delaunay4": false, "overlap_delaunay5": false, "overlap_mst": true, "delaunay_category": "Delaunay1", "category": "MST" }, "geometry": { "type": "LineString", "coordinates": [ [ 9.602419975092602, 63.058186539103595 ], [ 9.957733, 63.169235 ], [ 9.933062188560539, 63.271747122419001 ] ] } },
{ "type": "Feature", "properties": { "area0": "NO1", "area1": "NO3", "bus0": 6561, "bus1": 6611, "length": 99665.265344991407, "circuits": 1.0, "Vbase": 132.0, "ug": false, "uc": 0.0, "lat": [ 62.6285260466415, 62.184732, 61.837532913534 ], "lon": [ 10.2668803297433, 10.623779, 11.1288969745905 ], "x": "[257373.65645778 272299.60314499 296249.28021071]", "y": "[6953108.52789811 6902456.20600378 6862152.90093466]", "source": "Pypsa 2019-09-04", "info": { }, "line_id": 1164, "bus0_name": "Rendalen", "bus1_name": "Ulset", "from_node": 11, "to_node": 9, "overlap_delaunay1": true, "overlap_delaunay2": false, "overlap_delaunay3": false, "overlap_delaunay4": false, "overlap_delaunay5": false, "overlap_mst": true, "delaunay_category": "Delaunay1", "category": "MST" }, "geometry": { "type": "LineString", "coordinates": [ [ 10.2668803297433, 62.628526046641497 ], [ 10.623779, 62.184732 ], [ 11.128896974590502, 61.837532913533998 ] ] } },
{ "type": "Feature", "properties": { "area0": "NO3", "area1": "NO3", "bus0": 6611, "bus1": 6612, "length": 9416.3881286834712, "circuits": 1.0, "Vbase": 132.0, "ug": false, "uc": 0.0, "lat": [ 62.6815788399503, 62.6288473888959 ], "lon": [ 10.1228770726635, 10.2663749273365 ], "x": "[250449.06763745 257350.41039652]", "y": "[6959557.12677361 6953146.16088202]", "source": "Pypsa 2019-09-04", "info": { }, "line_id": 1334, "bus0_name": "Ulset", "bus1_name": "Litjfossen", "from_node": 9, "to_node": 8, "overlap_delaunay1": true, "overlap_delaunay2": false, "overlap_delaunay3": false, "overlap_delaunay4": false, "overlap_delaunay5": false, "overlap_mst": true, "delaunay_category": "Delaunay1", "category": "MST" }, "geometry": { "type": "LineString", "coordinates": [ [ 10.122877072663501, 62.681578839950291 ], [ 10.266374927336498, 62.628847388895906 ] ] } },
{ "type": "Feature", "properties": { "area0": "NO3", "area1": "NO3", "bus0": 6612, "bus1": 6613, "length": 13461.7625221208, "circuits": 1.0, "Vbase": 132.0, "ug": false, "uc": 0.0, "lat": [ 62.764642333228, 62.6818480622148 ], "lon": [ 9.93059299951052, 10.1222020004895 ], "x": "[241352.96436663 250416.84368942]", "y": "[6969549.94032603 6959589.67352746]", "source": "Pypsa 2019-09-04", "info": { }, "line_id": 1335, "bus0_name": "Litjfossen", "bus1_name": "Brattset", "from_node": 8, "to_node": 6, "overlap_delaunay1": true, "overlap_delaunay2": false, "overlap_delaunay3": false, "overlap_delaunay4": false, "overlap_delaunay5": false, "overlap_mst": true, "delaunay_category": "Delaunay1", "category": "MST" }, "geometry": { "type": "LineString", "coordinates": [ [ 9.930592999510518, 62.764642333227982 ], [ 10.122202000489503, 62.68184806221479 ] ] } },
{ "type": "Feature", "properties": { "area0": "NO3", "area1": "NO3", "bus0": 6605, "bus1": 6613, "length": 36654.9311625271, "circuits": 1.0, "Vbase": 132.0, "ug": false, "uc": 0.0, "lat": [ 63.0578905163084, 62.7649652979347 ], "lon": [ 9.60225399160166, 9.93006400839835 ], "x": "[227370.09830184 241328.84763705]", "y": "[7003499.41176483 6969587.96656203]", "source": "Pypsa 2019-09-04", "info": { }, "line_id": 1336, "bus0_name": "Grana", "bus1_name": "Brattset", "from_node": 5, "to_node": 6, "overlap_delaunay1": true, "overlap_delaunay2": false, "overlap_delaunay3": false, "overlap_delaunay4": false, "overlap_delaunay5": false, "overlap_mst": true, "delaunay_category": "Delaunay1", "category": "MST" }, "geometry": { "type": "LineString", "coordinates": [ [ 9.60225399160166, 63.057890516308397 ], [ 9.930064008398352, 62.764965297934694 ] ] } },
{ "type": "Feature", "properties": { "area0": "NO3", "area1": "NO3", "bus0": 6606, "bus1": 6618, "length": 125981.474688156, "circuits": 1.0, "Vbase": 132.0, "ug": false, "uc": 0.0, "lat": [ 62.4779336946648, 61.7329656956376 ], "lon": [ 7.03366082879706, 5.21884217120294 ], "x": "[ 90056.21464396 -15397.05795894]", "y": "[6952756.49307279 6883316.2517785 ]", "source": "Pypsa 2019-09-04", "info": { }, "line_id": 1165, "bus0_name": "Ålesund", "bus1_name": "Åskara", "from_node": 3, "to_node": 0, "overlap_delaunay1": true, "overlap_delaunay2": false, "overlap_delaunay3": false, "overlap_delaunay4": false, "overlap_delaunay5": false, "overlap_mst": true, "delaunay_category": "Delaunay1", "category": "MST" }, "geometry": { "type": "LineString", "coordinates": [ [ 7.033660828797059, 62.477933694664799 ], [ 5.218842171202942, 61.73296569563761 ] ] } },
{ "type": "Feature", "properties": { "area0": "NO5", "area1": "NO3", "bus0": 6398, "bus1": 6618, "length": 75300.078479969699, "circuits": 1.0, "Vbase": 132.0, "ug": false, "uc": 0.0, "lat": [ 61.2333014522257, 61.251744, 61.665766, 61.7326154996854 ], "lon": [ 6.09286047561288, 5.951843, 5.23361200000001, 5.2185534689179 ], "x": "[ 22826.01975515  15590.13646308 -15748.35101137 -15418.06316007]", "y": "[6821383.19852374 6824465.14879647 6875773.4609288  6883279.8548565 ]", "source": "Pypsa 2019-09-04", "info": { }, "line_id": 1337, "bus0_name": "Høyanger", "bus1_name": "Åskara", "from_node": 2, "to_node": 0, "overlap_delaunay1": true, "overlap_delaunay2": false, "overlap_delaunay3": false, "overlap_delaunay4": false, "overlap_delaunay5": false, "overlap_mst": false, "delaunay_category": "Delaunay1", "category": "Delaunay1" }, "geometry": { "type": "LineString", "coordinates": [ [ 6.09286047561288, 61.233301452225696 ], [ 5.951843, 61.251744 ], [ 5.233612, 61.665766 ], [ 5.218553468917899, 61.732615499685409 ] ] } },
{ "type": "Feature", "properties": { "area0": "NO4", "area1": "NO4", "bus0": 6738, "bus1": 6745, "length": 77762.037462832697, "circuits": 2.0, "Vbase": 132.0, "ug": false, "uc": 0.0, "lat": [ 70.1632389892148, 70.2867741721907 ], "lon": [ 28.5722516757757, 26.5461563242243 ], "x": "[1010303.05544039  932391.88871338]", "y": "[7841260.29347021 7839039.161194  ]", "source": "Pypsa 2019-09-04", "info": { }, "line_id": 1279, "bus0_name": "Varangerbotn", "bus1_name": "Adamselv", "from_node": 73, "to_node": 72, "overlap_delaunay1": true, "overlap_delaunay2": false, "overlap_delaunay3": false, "overlap_delaunay4": false, "overlap_delaunay5": false, "overlap_mst": true, "delaunay_category": "Delaunay1", "category": "MST" }, "geometry": { "type": "LineString", "coordinates": [ [ 28.572251675775711, 70.163238989214804 ], [ 26.546156324224295, 70.286774172190704 ] ] } },
{ "type": "Feature", "properties": { "area0": "NO4", "area1": "NO4", "bus0": 6746, "bus1": 6747, "length": 66002.682057947895, "circuits": 1.0, "Vbase": 132.0, "ug": false, "uc": 0.0, "lat": [ 70.3629820192702, 69.9351232590657 ], "lon": [ 24.6131855467015, 23.4108014532985 ], "x": "[859246.32385428 821163.21989669]", "y": "[7834819.35865839 7780829.53289064]", "source": "Pypsa 2019-09-04", "info": { }, "line_id": 1281, "bus0_name": "Hammerfest", "bus1_name": "unknown", "from_node": 70, "to_node": 68, "overlap_delaunay1": true, "overlap_delaunay2": false, "overlap_delaunay3": false, "overlap_delaunay4": false, "overlap_delaunay5": false, "overlap_mst": false, "delaunay_category": "Delaunay1", "category": "Delaunay1" }, "geometry": { "type": "LineString", "coordinates": [ [ 24.613185546701487, 70.362982019270177 ], [ 23.410801453298504, 69.935123259065719 ] ] } },
{ "type": "Feature", "properties": { "area0": "NO4", "area1": "NO4", "bus0": 6745, "bus1": 6748, "length": 64082.104300705403, "circuits": 1.0, "Vbase": 132.0, "ug": false, "uc": 0.0, "lat": [ 70.2867148045666, 69.9595855678542 ], "lon": [ 26.5453464606535, 25.1576865393465 ], "x": "[932363.13361733 886922.37554738]", "y": "[7839026.87375591 7793691.89015555]", "source": "Pypsa 2019-09-04", "info": { }, "line_id": 1157, "bus0_name": "Adamselv", "bus1_name": "unknown", "from_node": 72, "to_node": 71, "overlap_delaunay1": true, "overlap_delaunay2": false, "overlap_delaunay3": false, "overlap_delaunay4": false, "overlap_delaunay5": false, "overlap_mst": true, "delaunay_category": "Delaunay1", "category": "MST" }, "geometry": { "type": "LineString", "coordinates": [ [ 26.545346460653491, 70.286714804566586 ], [ 25.157686539346503, 69.959585567854205 ] ] } },
{ "type": "Feature", "properties": { "area0": "NO4", "area1": "NO4", "bus0": 6746, "bus1": 6748, "length": 49483.263164758704, "circuits": 1.0, "Vbase": 132.0, "ug": false, "uc": 0.0, "lat": [ 69.9596375722394, 70.3629541255401 ], "lon": [ 25.1571317555366, 24.6136812444634 ], "x": "[886900.44939764 859265.20349104]", "y": "[7793694.09140303 7834819.21541356]", "source": "Pypsa 2019-09-04", "info": { }, "line_id": 1159, "bus0_name": "Hammerfest", "bus1_name": "unknown", "from_node": 70, "to_node": 71, "overlap_delaunay1": true, "overlap_delaunay2": false, "overlap_delaunay3": false, "overlap_delaunay4": false, "overlap_delaunay5": false, "overlap_mst": true, "delaunay_category": "Delaunay1", "category": "MST" }, "geometry": { "type": "LineString", "coordinates": [ [ 25.157131755536604, 69.959637572239401 ], [ 24.613681244463397, 70.362954125540085 ] ] } },
{ "type": "Feature", "properties": { "area0": "NO4", "area1": "NO4", "bus0": 6748, "bus1": 6749, "length": 54586.670315533302, "circuits": 1.0, "Vbase": 132.0, "ug": false, "uc": 0.0, "lat": [ 69.9594106563015, 69.6815085044273 ], "lon": [ 25.156948922957, 23.990390077043 ], "x": "[886897.74889511 847319.4916927 ]", "y": "[7793667.92900157 7755975.43996201]", "source": "Pypsa 2019-09-04", "info": { }, "line_id": 1161, "bus0_name": "unknown", "bus1_name": "Alta", "from_node": 71, "to_node": 69, "overlap_delaunay1": true, "overlap_delaunay2": false, "overlap_delaunay3": false, "overlap_delaunay4": false, "overlap_delaunay5": false, "overlap_mst": true, "delaunay_category": "Delaunay1", "category": "MST" }, "geometry": { "type": "LineString", "coordinates": [ [ 25.156948922956992, 69.959410656301486 ], [ 23.99039007704301, 69.681508504427299 ] ] } },
{ "type": "Feature", "properties": { "area0": "NO4", "area1": "NO4", "bus0": 6747, "bus1": 6749, "length": 36008.854794408704, "circuits": 1.0, "Vbase": 132.0, "ug": false, "uc": 0.0, "lat": [ 69.6815418883442, 69.9348915691034 ], "lon": [ 23.9897441190975, 23.4107688809025 ], "x": "[847294.14612563 821165.54178259]", "y": "[7755975.4486758  7780803.73716282]", "source": "Pypsa 2019-09-04", "info": { }, "line_id": 1282, "bus0_name": "unknown", "bus1_name": "Alta", "from_node": 68, "to_node": 69, "overlap_delaunay1": true, "overlap_delaunay2": false, "overlap_delaunay3": false, "overlap_delaunay4": false, "overlap_delaunay5": false, "overlap_mst": true, "delaunay_category": "Delaunay1", "category": "MST" }, "geometry": { "type": "LineString", "coordinates": [ [ 23.989744119097494, 69.681541888344199 ], [ 23.410768880902495, 69.934891569103399 ] ] } },
{ "type": "Feature", "properties": { "area0": "NO4", "area1": "NO4", "bus0": 6747, "bus1": 6750, "length": 54823.355137686602, "circuits": 2.0, "Vbase": 132.0, "ug": false, "uc": 0.0, "lat": [ 69.934942807674, 69.7134159244637 ], "lon": [ 23.4100929560386, 22.1392230439614 ], "x": "[821139.08711218 775708.2522078 ]", "y": "[7780805.83923017 7750051.99529205]", "source": "Pypsa 2019-09-04", "info": { }, "line_id": 1284, "bus0_name": "unknown", "bus1_name": "Kvænangsbotn", "from_node": 68, "to_node": 67, "overlap_delaunay1": true, "overlap_delaunay2": false, "overlap_delaunay3": false, "overlap_delaunay4": false, "overlap_delaunay5": false, "overlap_mst": true, "delaunay_category": "Delaunay1", "category": "MST" }, "geometry": { "type": "LineString", "coordinates": [ [ 23.410092956038596, 69.934942807674005 ], [ 22.139223043961401, 69.713415924463703 ] ] } },
{ "type": "Feature", "properties": { "area0": "NO4", "area1": "NO4", "bus0": 6750, "bus1": 6751, "length": 53036.444255807102, "circuits": 2.0, "Vbase": 132.0, "ug": false, "uc": 0.0, "lat": [ 69.4316092107865, 69.7132540117726 ], "lon": [ 21.0419255165229, 22.1384634834771 ], "x": "[736566.40440763 775681.14309787]", "y": "[7714181.26539397 7750030.61404729]", "source": "Pypsa 2019-09-04", "info": { }, "line_id": 1283, "bus0_name": "Kvænangsbotn", "bus1_name": "Guolasjakka", "from_node": 67, "to_node": 66, "overlap_delaunay1": true, "overlap_delaunay2": false, "overlap_delaunay3": false, "overlap_delaunay4": false, "overlap_delaunay5": false, "overlap_mst": true, "delaunay_category": "Delaunay1", "category": "MST" }, "geometry": { "type": "LineString", "coordinates": [ [ 21.041925516522902, 69.431609210786519 ], [ 22.138463483477103, 69.713254011772605 ] ] } },
{ "type": "Feature", "properties": { "area0": "NO4", "area1": "NO4", "bus0": 6751, "bus1": 6754, "length": 49767.989968568399, "circuits": 1.0, "Vbase": 132.0, "ug": false, "uc": 0.0, "lat": [ 69.4315607063924, 69.5584675576947 ], "lon": [ 21.0411364926109, 19.8211375073891 ], "x": "[736536.13100296 687748.91186621]", "y": "[7714172.82664403 7724042.89394735]", "source": "Pypsa 2019-09-04", "info": { }, "line_id": 1163, "bus0_name": "Guolasjakka", "bus1_name": "unknown", "from_node": 66, "to_node": 64, "overlap_delaunay1": true, "overlap_delaunay2": false, "overlap_delaunay3": false, "overlap_delaunay4": false, "overlap_delaunay5": false, "overlap_mst": false, "delaunay_category": "Delaunay1", "category": "Delaunay1" }, "geometry": { "type": "LineString", "coordinates": [ [ 21.041136492610903, 69.431560706392403 ], [ 19.821137507389093, 69.558467557694684 ] ] } },
{ "type": "Feature", "properties": { "area0": "NO4", "area1": "NO4", "bus0": 6752, "bus1": 6755, "length": 48922.629636329104, "circuits": 2.0, "Vbase": 132.0, "ug": false, "uc": 0.0, "lat": [ 69.1832234854148, 69.6206167025019 ], "lon": [ 19.2493875130831, 19.1588154869169 ], "x": "[668419.99061211 661521.88044287]", "y": "[7680633.76599216 7729064.32589473]", "source": "Pypsa 2019-09-04", "info": { }, "line_id": 1280, "bus0_name": "Balsfjord", "bus1_name": "Tromsø", "from_node": 63, "to_node": 62, "overlap_delaunay1": true, "overlap_delaunay2": false, "overlap_delaunay3": false, "overlap_delaunay4": false, "overlap_delaunay5": false, "overlap_mst": false, "delaunay_category": "Delaunay1", "category": "Delaunay1" }, "geometry": { "type": "LineString", "coordinates": [ [ 19.249387513083096, 69.183223485414786 ], [ 19.1588154869169, 69.620616702501906 ] ] } },
{ "type": "Feature", "properties": { "area0": "NO4", "area1": "NO4", "bus0": 6754, "bus1": 6755, "length": 26657.491722530001, "circuits": 1.0, "Vbase": 132.0, "ug": false, "uc": 0.0, "lat": [ 69.5585526721964, 69.6207314463272 ], "lon": [ 19.8202772181023, 19.1592147818977 ], "x": "[687714.72162727 661536.4972804 ]", "y": "[7724049.71700737 7729078.15141518]", "source": "Pypsa 2019-09-04", "info": { }, "line_id": 1286, "bus0_name": "unknown", "bus1_name": "Tromsø", "from_node": 64, "to_node": 62, "overlap_delaunay1": true, "overlap_delaunay2": false, "overlap_delaunay3": false, "overlap_delaunay4": false, "overlap_delaunay5": false, "overlap_mst": true, "delaunay_category": "Delaunay1", "category": "MST" }, "geometry": { "type": "LineString", "coordinates": [ [ 19.820277218102309, 69.558552672196399 ], [ 19.159214781897703, 69.620731446327198 ] ] } },
{ "type": "Feature", "properties": { "area0": "NO4", "area1": "NO4", "bus0": 6752, "bus1": 6756, "length": 45150.343899919295, "circuits": 1.0, "Vbase": 132.0, "ug": false, "uc": 0.0, "lat": [ 69.1830889443811, 69.2439621225689 ], "lon": [ 19.2498625216598, 20.3764494783402 ], "x": "[668439.83114262 712408.07975435]", "y": "[7680620.10041118 7690893.01083294]", "source": "Pypsa 2019-09-04", "info": { }, "line_id": 1162, "bus0_name": "Balsfjord", "bus1_name": "Skibotn", "from_node": 63, "to_node": 65, "overlap_delaunay1": true, "overlap_delaunay2": false, "overlap_delaunay3": false, "overlap_delaunay4": false, "overlap_delaunay5": false, "overlap_mst": true, "delaunay_category": "Delaunay1", "category": "MST" }, "geometry": { "type": "LineString", "coordinates": [ [ 19.2498625216598, 69.183088944381112 ], [ 20.376449478340206, 69.243962122568902 ] ] } },
{ "type": "Feature", "properties": { "area0": "NO4", "area1": "NO4", "bus0": 6751, "bus1": 6756, "length": 33480.105381990696, "circuits": 1.0, "Vbase": 132.0, "ug": false, "uc": 0.0, "lat": [ 69.2440849345836, 69.4314179199206 ], "lon": [ 20.3772411431321, 21.0412158568679 ], "x": "[712438.08585843 736540.80078843]", "y": "[7690909.40673385 7714157.27828326]", "source": "Pypsa 2019-09-04", "info": { }, "line_id": 1285, "bus0_name": "Guolasjakka", "bus1_name": "Skibotn", "from_node": 66, "to_node": 65, "overlap_delaunay1": true, "overlap_delaunay2": false, "overlap_delaunay3": false, "overlap_delaunay4": false, "overlap_delaunay5": false, "overlap_mst": true, "delaunay_category": "Delaunay1", "category": "MST" }, "geometry": { "type": "LineString", "coordinates": [ [ 20.3772411431321, 69.244084934583611 ], [ 21.041215856867893, 69.431417919920591 ] ] } },
{ "type": "Feature", "properties": { "area0": "NO4", "area1": "NO4", "bus0": 6738, "bus1": 6809, "length": 92402.728992273493, "circuits": 1.0, "Vbase": 132.0, "ug": false, "uc": 0.0, "lat": [ 69.6823525702791, 69.650402, 70.1630814704297 ], "lon": [ 30.1199489209736, 29.459839, 28.5729215983266 ], "x": "[1080737.77271456 1056649.70520949 1010331.77872049]", "y": "[7802830.47982099 7793181.97553524 7841248.74526738]", "source": "Pypsa 2019-09-04", "info": { }, "line_id": 1158, "bus0_name": "Varangerbotn", "bus1_name": "Kirkenes", "from_node": 73, "to_node": 75, "overlap_delaunay1": true, "overlap_delaunay2": false, "overlap_delaunay3": false, "overlap_delaunay4": false, "overlap_delaunay5": false, "overlap_mst": true, "delaunay_category": "Delaunay1", "category": "MST" }, "geometry": { "type": "LineString", "coordinates": [ [ 30.119948920973602, 69.682352570279107 ], [ 29.459839, 69.650402 ], [ 28.572921598326591, 70.163081470429688 ] ] } },
{ "type": "Feature", "properties": { "area0": "NO4", "area1": "NO4", "bus0": 6740, "bus1": 6809, "length": 34937.263377442301, "circuits": 1.0, "Vbase": 132.0, "ug": false, "uc": 0.0, "lat": [ 69.6822542996576, 69.4408020623223 ], "lon": [ 30.1201074576278, 29.5493875423722 ], "x": "[1080746.45545407 1065584.20210407]", "y": "[7802821.32841305 7771205.26667387]", "source": "Pypsa 2019-09-04", "info": { }, "line_id": 1160, "bus0_name": "Skogfoss", "bus1_name": "Kirkenes", "from_node": 74, "to_node": 75, "overlap_delaunay1": true, "overlap_delaunay2": false, "overlap_delaunay3": false, "overlap_delaunay4": false, "overlap_delaunay5": false, "overlap_mst": true, "delaunay_category": "Delaunay1", "category": "MST" }, "geometry": { "type": "LineString", "coordinates": [ [ 30.1201074576278, 69.6822542996576 ], [ 29.549387542372198, 69.440802062322291 ] ] } },
{ "type": "Feature", "properties": { "area0": "DK2", "area1": "DK2", "bus0": 5531, "bus1": 7263, "length": 5614.1769200015597, "circuits": 1.0, "Vbase": 132.0, "ug": false, "uc": 0.0, "lat": [ 55.67681, 55.678359, 55.6715272447751 ], "lon": [ 12.569733, 12.492828, 12.4906451348255 ], "x": "[347183.79663842 342355.31634867 342190.5870046 ]", "y": "[6172787.61844808 6173132.09639064 6172377.01072485]", "source": "Pypsa 2019-09-04", "info": { }, "line_id": 415, "bus0_name": "København", "bus1_name": null, "from_node": 60, "to_node": 54, "overlap_delaunay1": true, "overlap_delaunay2": false, "overlap_delaunay3": false, "overlap_delaunay4": false, "overlap_delaunay5": false, "overlap_mst": true, "delaunay_category": "Delaunay1", "category": "MST" }, "geometry": { "type": "LineString", "coordinates": [ [ 12.569733, 55.67681 ], [ 12.492828, 55.678359 ], [ 12.490645134825501, 55.671527244775085 ] ] } },
{ "type": "Feature", "properties": { "area0": "DK2", "area1": "DK2", "bus0": 5531, "bus1": 7263, "length": 5905.94140027291, "circuits": 1.0, "Vbase": 132.0, "ug": false, "uc": 0.0, "lat": [ 55.662139851936, 55.6715263479521 ], "lon": [ 12.5830246738567, 12.4906539613483 ], "x": "[347962.51157992 342191.1383508 ]", "y": "[6171126.27838712 6172376.89086656]", "source": "Pypsa 2019-09-04", "info": { }, "line_id": 11018, "bus0_name": "København", "bus1_name": null, "from_node": 60, "to_node": 54, "overlap_delaunay1": true, "overlap_delaunay2": false, "overlap_delaunay3": false, "overlap_delaunay4": false, "overlap_delaunay5": false, "overlap_mst": true, "delaunay_category": "Delaunay1", "category": "MST" }, "geometry": { "type": "LineString", "coordinates": [ [ 12.583024673856702, 55.662139851935997 ], [ 12.490653961348299, 55.671526347952096 ] ] } },
{ "type": "Feature", "properties": { "area0": "DK2", "area1": "DK2", "bus0": 5519, "bus1": 7263, "length": 11339.1784046599, "circuits": 1.0, "Vbase": 132.0, "ug": false, "uc": 0.0, "lat": [ 55.6715281415982, 55.677584, 55.6706409373104 ], "lon": [ 12.4906363083026, 12.43103, 12.3119986277998 ], "x": "[342190.03565843 338467.35504802 330954.86400333]", "y": "[6172377.13058321 6173188.09380369 6172699.39658607]", "source": "Pypsa 2019-09-04", "info": { }, "line_id": 11019, "bus0_name": "Ishøj", "bus1_name": null, "from_node": 50, "to_node": 54, "overlap_delaunay1": true, "overlap_delaunay2": false, "overlap_delaunay3": false, "overlap_delaunay4": false, "overlap_delaunay5": false, "overlap_mst": false, "delaunay_category": "Delaunay1", "category": "Delaunay1" }, "geometry": { "type": "LineString", "coordinates": [ [ 12.4906363083026, 55.671528141598195 ], [ 12.43103, 55.677584 ], [ 12.311998627799799, 55.670640937310388 ] ] } },
{ "type": "Feature", "properties": { "area0": "DK2", "area1": "DK2", "bus0": 5514, "bus1": 7697, "length": 21845.122374713897, "circuits": 2.0, "Vbase": 132.0, "ug": false, "uc": 0.0, "lat": [ 55.822116, 55.816721936324 ], "lon": [ 12.23465, 11.8862819416983 ], "x": "[326764.61685835 304921.5786682 ]", "y": "[6189741.52966266 6190068.30892135]", "source": "Pypsa 2019-09-04", "info": { }, "line_id": 328, "bus0_name": "Kyndbyværket", "bus1_name": null, "from_node": 31, "to_node": 47, "overlap_delaunay1": true, "overlap_delaunay2": false, "overlap_delaunay3": false, "overlap_delaunay4": false, "overlap_delaunay5": false, "overlap_mst": false, "delaunay_category": "Delaunay1", "category": "Delaunay1" }, "geometry": { "type": "LineString", "coordinates": [ [ 12.23465, 55.822116 ], [ 11.8862819416983, 55.816721936323994 ] ] } },
{ "type": "Feature", "properties": { "area0": "DK2", "area1": "DK2", "bus0": 6103, "bus1": 7697, "length": 10194.4804291082, "circuits": 2.0, "Vbase": 132.0, "ug": false, "uc": 0.0, "lat": [ 55.822116, 55.9135615174891 ], "lon": [ 12.23465, 12.2264325354217 ], "x": "[326764.61685835 326657.92735703]", "y": "[6189741.52966266 6199935.12899024]", "source": "Pypsa 2019-09-04", "info": { }, "line_id": 329, "bus0_name": "unknown", "bus1_name": null, "from_node": 46, "to_node": 47, "overlap_delaunay1": true, "overlap_delaunay2": false, "overlap_delaunay3": false, "overlap_delaunay4": false, "overlap_delaunay5": false, "overlap_mst": true, "delaunay_category": "Delaunay1", "category": "MST" }, "geometry": { "type": "LineString", "coordinates": [ [ 12.23465, 55.822116 ], [ 12.226432535421701, 55.9135615174891 ] ] } },
{ "type": "Feature", "properties": { "area0": "DK2", "area1": "DK2", "bus0": 5511, "bus1": 7697, "length": 6427.9812609045903, "circuits": 2.0, "Vbase": 132.0, "ug": false, "uc": 0.0, "lat": [ 55.7644643748136, 55.822116 ], "lon": [ 12.2401191708283, 12.23465 ], "x": "[326851.44523978 326764.61685835]", "y": "[6183314.34101886 6189741.52966266]", "source": "Pypsa 2019-09-04", "info": { }, "line_id": 412, "bus0_name": "Hovegård", "bus1_name": null, "from_node": 48, "to_node": 47, "overlap_delaunay1": true, "overlap_delaunay2": false, "overlap_delaunay3": false, "overlap_delaunay4": false, "overlap_delaunay5": false, "overlap_mst": true, "delaunay_category": "Delaunay1", "category": "MST" }, "geometry": { "type": "LineString", "coordinates": [ [ 12.240119170828299, 55.764464374813599 ], [ 12.23465, 55.822116 ] ] } },
{ "type": "Feature", "properties": { "area0": "DK2", "area1": "DK2", "bus0": 5508, "bus1": 7951, "length": 5492.0273961121293, "circuits": 1.0, "Vbase": 132.0, "ug": false, "uc": 0.0, "lat": [ 55.2937748465328, 55.255642, 55.2552510019235 ], "lon": [ 11.9006616063697, 11.847382, 11.8480685 ], "x": "[303224.79512303 299651.29327133 299692.93706649]", "y": "[6131860.19114832 6127770.68565896 6127725.22342573]", "source": "Pypsa 2019-09-04", "info": { }, "line_id": 258, "bus0_name": "unknown", "bus1_name": null, "from_node": 32, "to_node": 28, "overlap_delaunay1": true, "overlap_delaunay2": false, "overlap_delaunay3": false, "overlap_delaunay4": false, "overlap_delaunay5": false, "overlap_mst": true, "delaunay_category": "Delaunay1", "category": "MST" }, "geometry": { "type": "LineString", "coordinates": [ [ 11.900661606369702, 55.293774846532799 ], [ 11.847382, 55.255642 ], [ 11.8480685, 55.255251001923497 ] ] } },
{ "type": "Feature", "properties": { "area0": "DK2", "area1": "DK2", "bus0": 5575, "bus1": 7951, "length": 11011.5195227764, "circuits": 2.0, "Vbase": 132.0, "ug": false, "uc": 0.0, "lat": [ 55.318206, 55.25486, 55.2552510019235 ], "lon": [ 11.716919, 11.848755, 11.8480685 ], "x": "[291691.60773782 299734.58171981 299692.93706649]", "y": "[6135111.93042648 6127679.76117667 6127725.22342573]", "source": "Pypsa 2019-09-04", "info": { }, "line_id": 410, "bus0_name": "unknown", "bus1_name": null, "from_node": 23, "to_node": 28, "overlap_delaunay1": true, "overlap_delaunay2": false, "overlap_delaunay3": false, "overlap_delaunay4": false, "overlap_delaunay5": false, "overlap_mst": false, "delaunay_category": "Delaunay1", "category": "Delaunay1" }, "geometry": { "type": "LineString", "coordinates": [ [ 11.716919, 55.318206 ], [ 11.848755, 55.25486 ], [ 11.8480685, 55.255251001923497 ] ] } },
{ "type": "Feature", "properties": { "area0": "DK2", "area1": "DK2", "bus0": 5508, "bus1": 7986, "length": 8341.1653187577413, "circuits": 1.0, "Vbase": 132.0, "ug": false, "uc": 0.0, "lat": [ 55.2937273518862, 55.22119 ], "lon": [ 11.9010517924357, 11.933899 ], "x": "[303249.32419209 304978.94935701]", "y": "[6131853.80619622 6123693.33568358]", "source": "Pypsa 2019-09-04", "info": { }, "line_id": 262, "bus0_name": "unknown", "bus1_name": null, "from_node": 32, "to_node": 36, "overlap_delaunay1": true, "overlap_delaunay2": false, "overlap_delaunay3": false, "overlap_delaunay4": false, "overlap_delaunay5": false, "overlap_mst": false, "delaunay_category": "Delaunay1", "category": "Delaunay1" }, "geometry": { "type": "LineString", "coordinates": [ [ 11.901051792435702, 55.293727351886197 ], [ 11.933899, 55.22119 ] ] } },
{ "type": "Feature", "properties": { "area0": "DK2", "area1": "DK2", "bus0": 5507, "bus1": 7986, "length": 10361.4814323352, "circuits": 2.0, "Vbase": 132.0, "ug": false, "uc": 0.0, "lat": [ 55.22119, 55.1281205913608 ], "lon": [ 11.933899, 11.9325297705359 ], "x": "[304978.94935701 304436.50306797]", "y": "[6123693.33568358 6113345.35867779]", "source": "Pypsa 2019-09-04", "info": { }, "line_id": 377, "bus0_name": "unknown", "bus1_name": null, "from_node": 35, "to_node": 36, "overlap_delaunay1": true, "overlap_delaunay2": false, "overlap_delaunay3": false, "overlap_delaunay4": false, "overlap_delaunay5": false, "overlap_mst": false, "delaunay_category": "Delaunay1", "category": "Delaunay1" }, "geometry": { "type": "LineString", "coordinates": [ [ 11.933899, 55.22119 ], [ 11.932529770535902, 55.128120591360791 ] ] } },
{ "type": "Feature", "properties": { "area0": "DK2", "area1": "DK2", "bus0": 7951, "bus1": 7986, "length": 6769.9662648474405, "circuits": 1.0, "Vbase": 132.0, "ug": false, "uc": 0.0, "lat": [ 55.2552510019235, 55.255642, 55.22119 ], "lon": [ 11.8480685, 11.847382, 11.933899 ], "x": "[299692.93706649 299651.29327133 304978.94935701]", "y": "[6127725.22342573 6127770.68565896 6123693.33568358]", "source": "Pypsa 2019-09-04", "info": { }, "line_id": 409, "bus0_name": null, "bus1_name": null, "from_node": 28, "to_node": 36, "overlap_delaunay1": true, "overlap_delaunay2": false, "overlap_delaunay3": false, "overlap_delaunay4": false, "overlap_delaunay5": false, "overlap_mst": true, "delaunay_category": "Delaunay1", "category": "MST" }, "geometry": { "type": "LineString", "coordinates": [ [ 11.8480685, 55.255251001923497 ], [ 11.847382, 55.255642 ], [ 11.933899, 55.22119 ] ] } },
{ "type": "Feature", "properties": { "area0": "DK2", "area1": "DK2", "bus0": 5495, "bus1": 8058, "length": 24363.408197465698, "circuits": 1.0, "Vbase": 132.0, "ug": false, "uc": 0.0, "lat": [ 55.244684, 55.375989, 55.4552467418778 ], "lon": [ 11.416168, 11.335144, 11.3488333861274 ], "x": "[272196.73759428 267817.96400652 269147.86383723]", "y": "[6127876.77669418 6142746.37360758 6151514.72204324]", "source": "Pypsa 2019-09-04", "info": { }, "line_id": 261, "bus0_name": "unknown", "bus1_name": null, "from_node": 14, "to_node": 15, "overlap_delaunay1": true, "overlap_delaunay2": false, "overlap_delaunay3": false, "overlap_delaunay4": false, "overlap_delaunay5": false, "overlap_mst": false, "delaunay_category": "Delaunay1", "category": "Delaunay1" }, "geometry": { "type": "LineString", "coordinates": [ [ 11.416168, 55.244684 ], [ 11.335144, 55.375989 ], [ 11.348833386127401, 55.455246741877794 ] ] } },
{ "type": "Feature", "properties": { "area0": "DK2", "area1": "DK2", "bus0": 5497, "bus1": 8058, "length": 24338.5693552964, "circuits": 1.0, "Vbase": 132.0, "ug": false, "uc": 0.0, "lat": [ 55.244684, 55.281462, 55.2260159540028 ], "lon": [ 11.416168, 11.590576, 11.7618491991273 ], "x": "[272196.73759428 283478.38337762 294064.53406543]", "y": "[6127876.77669418 6131410.71827412 6124724.90181451]", "source": "Pypsa 2019-09-04", "info": { }, "line_id": 260, "bus0_name": "unknown", "bus1_name": null, "from_node": 25, "to_node": 15, "overlap_delaunay1": true, "overlap_delaunay2": false, "overlap_delaunay3": false, "overlap_delaunay4": false, "overlap_delaunay5": false, "overlap_mst": false, "delaunay_category": "Delaunay1", "category": "Delaunay1" }, "geometry": { "type": "LineString", "coordinates": [ [ 11.416168, 55.244684 ], [ 11.590576, 55.281462 ], [ 11.761849199127298, 55.22601595400279 ] ] } },
{ "type": "Feature", "properties": { "area0": "DK2", "area1": "DK2", "bus0": 5498, "bus1": 8058, "length": 8181.1585045743996, "circuits": 2.0, "Vbase": 132.0, "ug": false, "uc": 0.0, "lat": [ 55.2189297188739, 55.244684 ], "lon": [ 11.2957383981913, 11.416168 ], "x": "[264393.09702889 272196.73759428]", "y": "[6125413.20514843 6127876.77669418]", "source": "Pypsa 2019-09-04", "info": { }, "line_id": 6654, "bus0_name": "Stigsnæs", "bus1_name": null, "from_node": 13, "to_node": 15, "overlap_delaunay1": true, "overlap_delaunay2": false, "overlap_delaunay3": false, "overlap_delaunay4": false, "overlap_delaunay5": false, "overlap_mst": true, "delaunay_category": "Delaunay1", "category": "MST" }, "geometry": { "type": "LineString", "coordinates": [ [ 11.295738398191302, 55.218929718873902 ], [ 11.416168, 55.244684 ] ] } }
]
}
