{
"type": "FeatureCollection",
"name": "n490_220kv_delaunay3_removed_land",
"crs": { "type": "name", "properties": { "name": "urn:ogc:def:crs:OGC:1.3:CRS84" } },
"features": [
{ "type": "Feature", "properties": { "voltage_kv": 220.0, "from_node": 54, "to_node": 108, "length_km": 227.33074882083142, "delaunay_k": 3, "edge_set": "Delaunay3" }, "geometry": { "type": "LineString", "coordinates": [ [ 16.316071, 61.771824 ], [ 18.623199, 60.071693 ] ] } },
{ "type": "Feature", "properties": { "voltage_kv": 220.0, "from_node": 54, "to_node": 109, "length_km": 234.14636053400082, "delaunay_k": 3, "edge_set": "Delaunay3" }, "geometry": { "type": "LineString", "coordinates": [ [ 16.316071, 61.771824 ], [ 18.8237, 60.06484 ] ] } },
{ "type": "Feature", "properties": { "voltage_kv": 220.0, "from_node": 61, "to_node": 108, "length_km": 190.59504255976225, "delaunay_k": 3, "edge_set": "Delaunay3" }, "geometry": { "type": "LineString", "coordinates": [ [ 16.44928, 61.407894 ], [ 18.623199, 60.071693 ] ] } },
{ "type": "Feature", "properties": { "voltage_kv": 220.0, "from_node": 61, "to_node": 109, "length_km": 198.19725261571392, "delaunay_k": 3, "edge_set": "Delaunay3" }, "geometry": { "type": "LineString", "coordinates": [ [ 16.44928, 61.407894 ], [ 18.8237, 60.06484 ] ] } },
{ "type": "Feature", "properties": { "voltage_kv": 220.0, "from_node": 87, "to_node": 98, "length_km": 142.23829265197813, "delaunay_k": 3, "edge_set": "Delaunay3" }, "geometry": { "type": "LineString", "coordinates": [ [ 17.166138, 61.172384 ], [ 17.748413, 59.930248 ] ] } },
{ "type": "Feature", "properties": { "voltage_kv": 220.0, "from_node": 87, "to_node": 105, "length_km": 147.31301999426367, "delaunay_k": 3, "edge_set": "Delaunay3" }, "geometry": { "type": "LineString", "coordinates": [ [ 17.166138, 61.172384 ], [ 18.233185, 59.961198 ] ] } },
{ "type": "Feature", "properties": { "voltage_kv": 220.0, "from_node": 87, "to_node": 106, "length_km": 200.83723921536699, "delaunay_k": 3, "edge_set": "Delaunay3" }, "geometry": { "type": "LineString", "coordinates": [ [ 17.166138, 61.172384 ], [ 18.404846, 59.480661 ] ] } },
{ "type": "Feature", "properties": { "voltage_kv": 220.0, "from_node": 87, "to_node": 107, "length_km": 169.10082041965734, "delaunay_k": 3, "edge_set": "Delaunay3" }, "geometry": { "type": "LineString", "coordinates": [ [ 17.166138, 61.172384 ], [ 18.621826, 59.837916 ] ] } },
{ "type": "Feature", "properties": { "voltage_kv": 220.0, "from_node": 89, "to_node": 95, "length_km": 184.58886537894125, "delaunay_k": 3, "edge_set": "Delaunay3" }, "geometry": { "type": "LineString", "coordinates": [ [ 17.179871, 60.700072 ], [ 17.362518, 62.352158 ] ] } },
{ "type": "Feature", "properties": { "voltage_kv": 220.0, "from_node": 111, "to_node": 112, "length_km": 223.23794298694446, "delaunay_k": 3, "edge_set": "Delaunay3" }, "geometry": { "type": "LineString", "coordinates": [ [ 23.100128, 65.837089 ], [ 23.1427, 63.842485 ] ] } },
{ "type": "Feature", "properties": { "voltage_kv": 220.0, "from_node": 111, "to_node": 119, "length_km": 226.90265750480154, "delaunay_k": 3, "edge_set": "Delaunay3" }, "geometry": { "type": "LineString", "coordinates": [ [ 23.100128, 65.837089 ], [ 25.333099, 64.045767 ] ] } },
{ "type": "Feature", "properties": { "voltage_kv": 220.0, "from_node": 111, "to_node": 124, "length_km": 184.44837873022155, "delaunay_k": 3, "edge_set": "Delaunay3" }, "geometry": { "type": "LineString", "coordinates": [ [ 23.100128, 65.837089 ], [ 26.115875, 64.778222 ] ] } },
{ "type": "Feature", "properties": { "voltage_kv": 220.0, "from_node": 111, "to_node": 126, "length_km": 200.5773747642111, "delaunay_k": 3, "edge_set": "Delaunay3" }, "geometry": { "type": "LineString", "coordinates": [ [ 23.100128, 65.837089 ], [ 26.51825, 64.759489 ] ] } },
{ "type": "Feature", "properties": { "voltage_kv": 220.0, "from_node": 111, "to_node": 136, "length_km": 288.39587161468552, "delaunay_k": 3, "edge_set": "Delaunay3" }, "geometry": { "type": "LineString", "coordinates": [ [ 23.100128, 65.837089 ], [ 28.45047, 64.58147 ] ] } },
{ "type": "Feature", "properties": { "voltage_kv": 220.0, "from_node": 112, "to_node": 115, "length_km": 273.03223195144312, "delaunay_k": 3, "edge_set": "Delaunay3" }, "geometry": { "type": "LineString", "coordinates": [ [ 23.1427, 63.842485 ], [ 25.069427, 66.140521 ] ] } },
{ "type": "Feature", "properties": { "voltage_kv": 220.0, "from_node": 115, "to_node": 119, "length_km": 235.09020963217864, "delaunay_k": 3, "edge_set": "Delaunay3" }, "geometry": { "type": "LineString", "coordinates": [ [ 25.069427, 66.140521 ], [ 25.333099, 64.045767 ] ] } }
]
}
