{
"type": "FeatureCollection",
"name": "n490_300kv_delaunay1_removed_land",
"crs": { "type": "name", "properties": { "name": "urn:ogc:def:crs:OGC:1.3:CRS84" } },
"features": [
{ "type": "Feature", "properties": { "voltage_kv": 300.0, "from_node": 2, "to_node": 10, "length_km": 52.842783380781349, "edge_source": "delaunay", "edge_set": "Delaunay1" }, "geometry": { "type": "LineString", "coordinates": [ [ 5.262451, 59.225853 ], [ 5.756836, 58.82654 ] ] } },
{ "type": "Feature", "properties": { "voltage_kv": 300.0, "from_node": 2, "to_node": 14, "length_km": 90.422993630210996, "edge_source": "delaunay", "edge_set": "Delaunay1" }, "geometry": { "type": "LineString", "coordinates": [ [ 5.262451, 59.225853 ], [ 6.008148, 58.513066 ] ] } }
]
}
