{
"type": "FeatureCollection",
"name": "n490_delaunay3_removed_land_area",
"crs": { "type": "name", "properties": { "name": "urn:ogc:def:crs:OGC:1.3:CRS84" } },
"features": [
{ "type": "Feature", "properties": { "from_node": 0, "to_node": 4, "length_km": 25.937530464111443, "delaunay_k": 3, "edge_set": "Delaunay3" }, "geometry": { "type": "LineString", "coordinates": [ [ 11.661987, 54.548173 ], [ 11.712799, 54.779306 ] ] } },
{ "type": "Feature", "properties": { "from_node": 0, "to_node": 6, "length_km": 46.78402681046029, "delaunay_k": 3, "edge_set": "Delaunay3" }, "geometry": { "type": "LineString", "coordinates": [ [ 11.661987, 54.548173 ], [ 11.190948, 54.867915 ] ] } },
{ "type": "Feature", "properties": { "from_node": 1, "to_node": 3, "length_km": 36.556412291732563, "delaunay_k": 3, "edge_set": "Delaunay3" }, "geometry": { "type": "LineString", "coordinates": [ [ 11.501312, 54.568081 ], [ 11.965485, 54.756331 ] ] } },
{ "type": "Feature", "properties": { "from_node": 1, "to_node": 5, "length_km": 42.236218877256356, "delaunay_k": 3, "edge_set": "Delaunay3" }, "geometry": { "type": "LineString", "coordinates": [ [ 11.501312, 54.568081 ], [ 11.921539, 54.859221 ] ] } },
{ "type": "Feature", "properties": { "from_node": 1, "to_node": 7, "length_km": 46.122610063196987, "delaunay_k": 3, "edge_set": "Delaunay3" }, "geometry": { "type": "LineString", "coordinates": [ [ 11.501312, 54.568081 ], [ 11.851501, 54.929509 ] ] } },
{ "type": "Feature", "properties": { "from_node": 1, "to_node": 10, "length_km": 68.176673115539202, "delaunay_k": 3, "edge_set": "Delaunay3" }, "geometry": { "type": "LineString", "coordinates": [ [ 11.501312, 54.568081 ], [ 11.797943, 55.15612 ] ] } },
{ "type": "Feature", "properties": { "from_node": 6, "to_node": 22, "length_km": 66.183964812417457, "delaunay_k": 3, "edge_set": "Delaunay3" }, "geometry": { "type": "LineString", "coordinates": [ [ 11.190948, 54.867915 ], [ 11.348877, 55.455499 ] ] } },
{ "type": "Feature", "properties": { "from_node": 6, "to_node": 25, "length_km": 75.73037004728468, "delaunay_k": 3, "edge_set": "Delaunay3" }, "geometry": { "type": "LineString", "coordinates": [ [ 11.190948, 54.867915 ], [ 11.211548, 55.548058 ] ] } },
{ "type": "Feature", "properties": { "from_node": 6, "to_node": 34, "length_km": 88.565072699988136, "delaunay_k": 3, "edge_set": "Delaunay3" }, "geometry": { "type": "LineString", "coordinates": [ [ 11.190948, 54.867915 ], [ 11.089325, 55.66132 ] ] } },
{ "type": "Feature", "properties": { "from_node": 8, "to_node": 29, "length_km": 104.80147316082922, "delaunay_k": 3, "edge_set": "Delaunay3" }, "geometry": { "type": "LineString", "coordinates": [ [ 11.902313, 54.992585 ], [ 13.189087, 55.58145 ] ] } },
{ "type": "Feature", "properties": { "from_node": 9, "to_node": 60, "length_km": 217.24970006750715, "delaunay_k": 3, "edge_set": "Delaunay3" }, "geometry": { "type": "LineString", "coordinates": [ [ 11.932526, 55.127864 ], [ 14.845276, 56.173846 ] ] } },
{ "type": "Feature", "properties": { "from_node": 10, "to_node": 29, "length_km": 100.11882075647566, "delaunay_k": 3, "edge_set": "Delaunay3" }, "geometry": { "type": "LineString", "coordinates": [ [ 11.797943, 55.15612 ], [ 13.189087, 55.58145 ] ] } },
{ "type": "Feature", "properties": { "from_node": 48, "to_node": 64, "length_km": 126.45193507562851, "delaunay_k": 3, "edge_set": "Delaunay3" }, "geometry": { "type": "LineString", "coordinates": [ [ 11.885834, 55.816715 ], [ 12.991333, 56.771541 ] ] } },
{ "type": "Feature", "properties": { "from_node": 51, "to_node": 64, "length_km": 130.86671987830874, "delaunay_k": 3, "edge_set": "Delaunay3" }, "geometry": { "type": "LineString", "coordinates": [ [ 11.641388, 55.866835 ], [ 12.991333, 56.771541 ] ] } },
{ "type": "Feature", "properties": { "from_node": 53, "to_node": 67, "length_km": 156.30589862669953, "delaunay_k": 3, "edge_set": "Delaunay3" }, "geometry": { "type": "LineString", "coordinates": [ [ 12.520294, 55.933818 ], [ 12.237396, 57.328745 ] ] } },
{ "type": "Feature", "properties": { "from_node": 54, "to_node": 67, "length_km": 155.85062956232326, "delaunay_k": 3, "edge_set": "Delaunay3" }, "geometry": { "type": "LineString", "coordinates": [ [ 12.474976, 55.935356 ], [ 12.237396, 57.328745 ] ] } },
{ "type": "Feature", "properties": { "from_node": 55, "to_node": 67, "length_km": 154.66369182225034, "delaunay_k": 3, "edge_set": "Delaunay3" }, "geometry": { "type": "LineString", "coordinates": [ [ 12.385712, 55.942279 ], [ 12.237396, 57.328745 ] ] } },
{ "type": "Feature", "properties": { "from_node": 56, "to_node": 66, "length_km": 124.37407275678741, "delaunay_k": 3, "edge_set": "Delaunay3" }, "geometry": { "type": "LineString", "coordinates": [ [ 12.061615, 55.969187 ], [ 13.066864, 56.937483 ] ] } },
{ "type": "Feature", "properties": { "from_node": 56, "to_node": 67, "length_km": 151.78087533343839, "delaunay_k": 3, "edge_set": "Delaunay3" }, "geometry": { "type": "LineString", "coordinates": [ [ 12.061615, 55.969187 ], [ 12.237396, 57.328745 ] ] } },
{ "type": "Feature", "properties": { "from_node": 57, "to_node": 68, "length_km": 146.37950171147705, "delaunay_k": 3, "edge_set": "Delaunay3" }, "geometry": { "type": "LineString", "coordinates": [ [ 12.571106, 56.042897 ], [ 12.671356, 57.356164 ] ] } },
{ "type": "Feature", "properties": { "from_node": 57, "to_node": 71, "length_km": 167.6455464041324, "delaunay_k": 3, "edge_set": "Delaunay3" }, "geometry": { "type": "LineString", "coordinates": [ [ 12.571106, 56.042897 ], [ 12.562866, 57.548261 ] ] } },
{ "type": "Feature", "properties": { "from_node": 57, "to_node": 72, "length_km": 172.4839036229983, "delaunay_k": 3, "edge_set": "Delaunay3" }, "geometry": { "type": "LineString", "coordinates": [ [ 12.571106, 56.042897 ], [ 12.087708, 57.568888 ] ] } },
{ "type": "Feature", "properties": { "from_node": 58, "to_node": 67, "length_km": 146.46984126687278, "delaunay_k": 3, "edge_set": "Delaunay3" }, "geometry": { "type": "LineString", "coordinates": [ [ 12.933655, 56.070502 ], [ 12.237396, 57.328745 ] ] } },
{ "type": "Feature", "properties": { "from_node": 59, "to_node": 72, "length_km": 166.23230253628509, "delaunay_k": 3, "edge_set": "Delaunay3" }, "geometry": { "type": "LineString", "coordinates": [ [ 12.984467, 56.159318 ], [ 12.087708, 57.568888 ] ] } },
{ "type": "Feature", "properties": { "from_node": 63, "to_node": 104, "length_km": 307.41309069521532, "delaunay_k": 3, "edge_set": "Delaunay3" }, "geometry": { "type": "LineString", "coordinates": [ [ 15.542908, 56.649432 ], [ 17.932434, 59.094909 ] ] } },
{ "type": "Feature", "properties": { "from_node": 69, "to_node": 103, "length_km": 202.93379081139665, "delaunay_k": 3, "edge_set": "Delaunay3" }, "geometry": { "type": "LineString", "coordinates": [ [ 16.660767, 57.43682 ], [ 18.124695, 59.084327 ] ] } },
{ "type": "Feature", "properties": { "from_node": 69, "to_node": 109, "length_km": 211.07419551671072, "delaunay_k": 3, "edge_set": "Delaunay3" }, "geometry": { "type": "LineString", "coordinates": [ [ 16.660767, 57.43682 ], [ 18.110962, 59.168187 ] ] } },
{ "type": "Feature", "properties": { "from_node": 69, "to_node": 111, "length_km": 209.38347978486004, "delaunay_k": 3, "edge_set": "Delaunay3" }, "geometry": { "type": "LineString", "coordinates": [ [ 16.660767, 57.43682 ], [ 17.766266, 59.221637 ] ] } },
{ "type": "Feature", "properties": { "from_node": 69, "to_node": 112, "length_km": 201.80954132016342, "delaunay_k": 3, "edge_set": "Delaunay3" }, "geometry": { "type": "LineString", "coordinates": [ [ 16.660767, 57.43682 ], [ 17.218323, 59.22234 ] ] } },
{ "type": "Feature", "properties": { "from_node": 74, "to_node": 108, "length_km": 209.51516183076475, "delaunay_k": 3, "edge_set": "Delaunay3" }, "geometry": { "type": "LineString", "coordinates": [ [ 11.954498, 57.726153 ], [ 9.61441, 59.151995 ] ] } },
{ "type": "Feature", "properties": { "from_node": 74, "to_node": 121, "length_km": 206.1608708028713, "delaunay_k": 3, "edge_set": "Delaunay3" }, "geometry": { "type": "LineString", "coordinates": [ [ 11.954498, 57.726153 ], [ 10.37796, 59.383584 ] ] } },
{ "type": "Feature", "properties": { "from_node": 79, "to_node": 107, "length_km": 216.5303789809013, "delaunay_k": 3, "edge_set": "Delaunay3" }, "geometry": { "type": "LineString", "coordinates": [ [ 8.102417, 58.2445 ], [ 11.409302, 59.147769 ] ] } },
{ "type": "Feature", "properties": { "from_node": 82, "to_node": 108, "length_km": 181.92212785724334, "delaunay_k": 3, "edge_set": "Delaunay3" }, "geometry": { "type": "LineString", "coordinates": [ [ 12.299194, 58.304438 ], [ 9.61441, 59.151995 ] ] } },
{ "type": "Feature", "properties": { "from_node": 85, "to_node": 113, "length_km": 90.422993630210996, "delaunay_k": 3, "edge_set": "Delaunay3" }, "geometry": { "type": "LineString", "coordinates": [ [ 6.008148, 58.513066 ], [ 5.262451, 59.225853 ] ] } },
{ "type": "Feature", "properties": { "from_node": 86, "to_node": 108, "length_km": 254.71745822001884, "delaunay_k": 3, "edge_set": "Delaunay3" }, "geometry": { "type": "LineString", "coordinates": [ [ 13.878479, 58.56109 ], [ 9.61441, 59.151995 ] ] } },
{ "type": "Feature", "properties": { "from_node": 87, "to_node": 91, "length_km": 166.91973041799164, "delaunay_k": 3, "edge_set": "Delaunay3" }, "geometry": { "type": "LineString", "coordinates": [ [ 8.782196, 58.575413 ], [ 11.629028, 58.795248 ] ] } },
{ "type": "Feature", "properties": { "from_node": 87, "to_node": 118, "length_km": 160.97186272616523, "delaunay_k": 3, "edge_set": "Delaunay3" }, "geometry": { "type": "LineString", "coordinates": [ [ 8.782196, 58.575413 ], [ 11.181335, 59.317776 ] ] } },
{ "type": "Feature", "properties": { "from_node": 87, "to_node": 119, "length_km": 255.88860495142504, "delaunay_k": 3, "edge_set": "Delaunay3" }, "geometry": { "type": "LineString", "coordinates": [ [ 8.782196, 58.575413 ], [ 12.9776, 59.337392 ] ] } },
{ "type": "Feature", "properties": { "from_node": 88, "to_node": 108, "length_km": 266.62932756702253, "delaunay_k": 3, "edge_set": "Delaunay3" }, "geometry": { "type": "LineString", "coordinates": [ [ 14.111938, 58.598318 ], [ 9.61441, 59.151995 ] ] } },
{ "type": "Feature", "properties": { "from_node": 91, "to_node": 114, "length_km": 128.81061016401452, "delaunay_k": 3, "edge_set": "Delaunay3" }, "geometry": { "type": "LineString", "coordinates": [ [ 11.629028, 58.795248 ], [ 9.593811, 59.282019 ] ] } },
{ "type": "Feature", "properties": { "from_node": 91, "to_node": 122, "length_km": 172.75887044429655, "delaunay_k": 3, "edge_set": "Delaunay3" }, "geometry": { "type": "LineString", "coordinates": [ [ 11.629028, 58.795248 ], [ 8.87146, 59.422728 ] ] } },
{ "type": "Feature", "properties": { "from_node": 97, "to_node": 107, "length_km": 212.12263092171108, "delaunay_k": 3, "edge_set": "Delaunay3" }, "geometry": { "type": "LineString", "coordinates": [ [ 7.727509, 58.974791 ], [ 11.409302, 59.147769 ] ] } },
{ "type": "Feature", "properties": { "from_node": 165, "to_node": 234, "length_km": 142.23829265197813, "delaunay_k": 3, "edge_set": "Delaunay3" }, "geometry": { "type": "LineString", "coordinates": [ [ 17.748413, 59.930248 ], [ 17.166138, 61.172384 ] ] } },
{ "type": "Feature", "properties": { "from_node": 194, "to_node": 234, "length_km": 97.897851380131883, "delaunay_k": 3, "edge_set": "Delaunay3" }, "geometry": { "type": "LineString", "coordinates": [ [ 18.123322, 60.430121 ], [ 17.166138, 61.172384 ] ] } },
{ "type": "Feature", "properties": { "from_node": 202, "to_node": 242, "length_km": 129.61429571382482, "delaunay_k": 3, "edge_set": "Delaunay3" }, "geometry": { "type": "LineString", "coordinates": [ [ 18.020325, 60.532293 ], [ 16.44928, 61.407894 ] ] } },
{ "type": "Feature", "properties": { "from_node": 202, "to_node": 255, "length_km": 166.02495228620563, "delaunay_k": 3, "edge_set": "Delaunay3" }, "geometry": { "type": "LineString", "coordinates": [ [ 18.020325, 60.532293 ], [ 16.316071, 61.771824 ] ] } },
{ "type": "Feature", "properties": { "from_node": 213, "to_node": 267, "length_km": 184.58886537894125, "delaunay_k": 3, "edge_set": "Delaunay3" }, "geometry": { "type": "LineString", "coordinates": [ [ 17.179871, 60.700072 ], [ 17.362518, 62.352158 ] ] } },
{ "type": "Feature", "properties": { "from_node": 234, "to_node": 272, "length_km": 144.58663569220266, "delaunay_k": 3, "edge_set": "Delaunay3" }, "geometry": { "type": "LineString", "coordinates": [ [ 17.166138, 61.172384 ], [ 17.468262, 62.460297 ] ] } },
{ "type": "Feature", "properties": { "from_node": 296, "to_node": 410, "length_km": 452.86725122409871, "delaunay_k": 3, "edge_set": "Delaunay3" }, "geometry": { "type": "LineString", "coordinates": [ [ 9.602051, 63.058071 ], [ 13.807068, 66.707884 ] ] } },
{ "type": "Feature", "properties": { "from_node": 340, "to_node": 386, "length_km": 209.39732282421812, "delaunay_k": 3, "edge_set": "Delaunay3" }, "geometry": { "type": "LineString", "coordinates": [ [ 23.047943, 63.797043 ], [ 25.694275, 65.279688 ] ] } },
{ "type": "Feature", "properties": { "from_node": 341, "to_node": 397, "length_km": 238.35063594242851, "delaunay_k": 3, "edge_set": "Delaunay3" }, "geometry": { "type": "LineString", "coordinates": [ [ 23.1427, 63.842485 ], [ 24.612122, 65.877531 ] ] } },
{ "type": "Feature", "properties": { "from_node": 341, "to_node": 399, "length_km": 254.96165807013281, "delaunay_k": 3, "edge_set": "Delaunay3" }, "geometry": { "type": "LineString", "coordinates": [ [ 23.1427, 63.842485 ], [ 24.892273, 65.995123 ] ] } },
{ "type": "Feature", "properties": { "from_node": 341, "to_node": 400, "length_km": 273.03223195144312, "delaunay_k": 3, "edge_set": "Delaunay3" }, "geometry": { "type": "LineString", "coordinates": [ [ 23.1427, 63.842485 ], [ 25.069427, 66.140521 ] ] } },
{ "type": "Feature", "properties": { "from_node": 341, "to_node": 403, "length_km": 293.91025965784166, "delaunay_k": 3, "edge_set": "Delaunay3" }, "geometry": { "type": "LineString", "coordinates": [ [ 23.1427, 63.842485 ], [ 25.415497, 66.285642 ] ] } },
{ "type": "Feature", "properties": { "from_node": 341, "to_node": 404, "length_km": 333.79250217207135, "delaunay_k": 3, "edge_set": "Delaunay3" }, "geometry": { "type": "LineString", "coordinates": [ [ 23.1427, 63.842485 ], [ 27.030487, 66.33089 ] ] } },
{ "type": "Feature", "properties": { "from_node": 343, "to_node": 395, "length_km": 261.00462946015631, "delaunay_k": 3, "edge_set": "Delaunay3" }, "geometry": { "type": "LineString", "coordinates": [ [ 20.047302, 63.896314 ], [ 23.100128, 65.837089 ] ] } },
{ "type": "Feature", "properties": { "from_node": 343, "to_node": 398, "length_km": 269.61370658311398, "delaunay_k": 3, "edge_set": "Delaunay3" }, "geometry": { "type": "LineString", "coordinates": [ [ 20.047302, 63.896314 ], [ 23.072662, 65.938074 ] ] } },
{ "type": "Feature", "properties": { "from_node": 349, "to_node": 397, "length_km": 210.08039961017144, "delaunay_k": 3, "edge_set": "Delaunay3" }, "geometry": { "type": "LineString", "coordinates": [ [ 24.965057, 64.008479 ], [ 24.612122, 65.877531 ] ] } },
{ "type": "Feature", "properties": { "from_node": 349, "to_node": 399, "length_km": 222.63119509649144, "delaunay_k": 3, "edge_set": "Delaunay3" }, "geometry": { "type": "LineString", "coordinates": [ [ 24.965057, 64.008479 ], [ 24.892273, 65.995123 ] ] } },
{ "type": "Feature", "properties": { "from_node": 349, "to_node": 400, "length_km": 238.95757948567794, "delaunay_k": 3, "edge_set": "Delaunay3" }, "geometry": { "type": "LineString", "coordinates": [ [ 24.965057, 64.008479 ], [ 25.069427, 66.140521 ] ] } },
{ "type": "Feature", "properties": { "from_node": 349, "to_node": 403, "length_km": 256.07463798918644, "delaunay_k": 3, "edge_set": "Delaunay3" }, "geometry": { "type": "LineString", "coordinates": [ [ 24.965057, 64.008479 ], [ 25.415497, 66.285642 ] ] } },
{ "type": "Feature", "properties": { "from_node": 350, "to_node": 397, "length_km": 208.09262550470311, "delaunay_k": 3, "edge_set": "Delaunay3" }, "geometry": { "type": "LineString", "coordinates": [ [ 25.333099, 64.045767 ], [ 24.612122, 65.877531 ] ] } },
{ "type": "Feature", "properties": { "from_node": 350, "to_node": 399, "length_km": 219.45086496571855, "delaunay_k": 3, "edge_set": "Delaunay3" }, "geometry": { "type": "LineString", "coordinates": [ [ 25.333099, 64.045767 ], [ 24.892273, 65.995123 ] ] } },
{ "type": "Feature", "properties": { "from_node": 350, "to_node": 400, "length_km": 235.09020963217864, "delaunay_k": 3, "edge_set": "Delaunay3" }, "geometry": { "type": "LineString", "coordinates": [ [ 25.333099, 64.045767 ], [ 25.069427, 66.140521 ] ] } },
{ "type": "Feature", "properties": { "from_node": 358, "to_node": 393, "length_km": 152.29417405685146, "delaunay_k": 3, "edge_set": "Delaunay3" }, "geometry": { "type": "LineString", "coordinates": [ [ 24.517365, 64.423037 ], [ 24.411621, 65.781941 ] ] } },
{ "type": "Feature", "properties": { "from_node": 358, "to_node": 398, "length_km": 182.72770934703635, "delaunay_k": 3, "edge_set": "Delaunay3" }, "geometry": { "type": "LineString", "coordinates": [ [ 24.517365, 64.423037 ], [ 23.072662, 65.938074 ] ] } },
{ "type": "Feature", "properties": { "from_node": 358, "to_node": 406, "length_km": 229.94510747121763, "delaunay_k": 3, "edge_set": "Delaunay3" }, "geometry": { "type": "LineString", "coordinates": [ [ 24.517365, 64.423037 ], [ 25.717621, 66.413451 ] ] } },
{ "type": "Feature", "properties": { "from_node": 358, "to_node": 418, "length_km": 345.41931701386, "delaunay_k": 3, "edge_set": "Delaunay3" }, "geometry": { "type": "LineString", "coordinates": [ [ 24.517365, 64.423037 ], [ 25.085907, 67.498059 ] ] } },
{ "type": "Feature", "properties": { "from_node": 359, "to_node": 395, "length_km": 247.01982292239711, "delaunay_k": 3, "edge_set": "Delaunay3" }, "geometry": { "type": "LineString", "coordinates": [ [ 19.029694, 64.440225 ], [ 23.100128, 65.837089 ] ] } },
{ "type": "Feature", "properties": { "from_node": 376, "to_node": 397, "length_km": 141.91184464939334, "delaunay_k": 3, "edge_set": "Delaunay3" }, "geometry": { "type": "LineString", "coordinates": [ [ 26.115875, 64.778222 ], [ 24.612122, 65.877531 ] ] } },
{ "type": "Feature", "properties": { "from_node": 378, "to_node": 393, "length_km": 119.61360927634671, "delaunay_k": 3, "edge_set": "Delaunay3" }, "geometry": { "type": "LineString", "coordinates": [ [ 26.05957, 64.965416 ], [ 24.411621, 65.781941 ] ] } },
{ "type": "Feature", "properties": { "from_node": 378, "to_node": 398, "length_km": 176.71123815753117, "delaunay_k": 3, "edge_set": "Delaunay3" }, "geometry": { "type": "LineString", "coordinates": [ [ 26.05957, 64.965416 ], [ 23.072662, 65.938074 ] ] } },
{ "type": "Feature", "properties": { "from_node": 380, "to_node": 393, "length_km": 111.81067845878097, "delaunay_k": 3, "edge_set": "Delaunay3" }, "geometry": { "type": "LineString", "coordinates": [ [ 25.808258, 64.971807 ], [ 24.411621, 65.781941 ] ] } },
{ "type": "Feature", "properties": { "from_node": 380, "to_node": 398, "length_km": 167.160812194973, "delaunay_k": 3, "edge_set": "Delaunay3" }, "geometry": { "type": "LineString", "coordinates": [ [ 25.808258, 64.971807 ], [ 23.072662, 65.938074 ] ] } },
{ "type": "Feature", "properties": { "from_node": 382, "to_node": 393, "length_km": 233.32301318444249, "delaunay_k": 3, "edge_set": "Delaunay3" }, "geometry": { "type": "LineString", "coordinates": [ [ 19.736938, 65.032742 ], [ 24.411621, 65.781941 ] ] } },
{ "type": "Feature", "properties": { "from_node": 382, "to_node": 397, "length_km": 245.58697366199038, "delaunay_k": 3, "edge_set": "Delaunay3" }, "geometry": { "type": "LineString", "coordinates": [ [ 19.736938, 65.032742 ], [ 24.612122, 65.877531 ] ] } },
{ "type": "Feature", "properties": { "from_node": 382, "to_node": 399, "length_km": 262.27784793925582, "delaunay_k": 3, "edge_set": "Delaunay3" }, "geometry": { "type": "LineString", "coordinates": [ [ 19.736938, 65.032742 ], [ 24.892273, 65.995123 ] ] } },
{ "type": "Feature", "properties": { "from_node": 382, "to_node": 400, "length_km": 276.05974531015721, "delaunay_k": 3, "edge_set": "Delaunay3" }, "geometry": { "type": "LineString", "coordinates": [ [ 19.736938, 65.032742 ], [ 25.069427, 66.140521 ] ] } },
{ "type": "Feature", "properties": { "from_node": 384, "to_node": 393, "length_km": 347.10360030914336, "delaunay_k": 3, "edge_set": "Delaunay3" }, "geometry": { "type": "LineString", "coordinates": [ [ 17.049408, 65.221045 ], [ 24.411621, 65.781941 ] ] } },
{ "type": "Feature", "properties": { "from_node": 385, "to_node": 393, "length_km": 160.95001305589443, "delaunay_k": 3, "edge_set": "Delaunay3" }, "geometry": { "type": "LineString", "coordinates": [ [ 21.169281, 65.270498 ], [ 24.411621, 65.781941 ] ] } },
{ "type": "Feature", "properties": { "from_node": 385, "to_node": 397, "length_km": 173.30988582206072, "delaunay_k": 3, "edge_set": "Delaunay3" }, "geometry": { "type": "LineString", "coordinates": [ [ 21.169281, 65.270498 ], [ 24.612122, 65.877531 ] ] } },
{ "type": "Feature", "properties": { "from_node": 385, "to_node": 399, "length_km": 190.18471596894784, "delaunay_k": 3, "edge_set": "Delaunay3" }, "geometry": { "type": "LineString", "coordinates": [ [ 21.169281, 65.270498 ], [ 24.892273, 65.995123 ] ] } },
{ "type": "Feature", "properties": { "from_node": 385, "to_node": 400, "length_km": 204.3869871470429, "delaunay_k": 3, "edge_set": "Delaunay3" }, "geometry": { "type": "LineString", "coordinates": [ [ 21.169281, 65.270498 ], [ 25.069427, 66.140521 ] ] } },
{ "type": "Feature", "properties": { "from_node": 386, "to_node": 394, "length_km": 196.97817968011893, "delaunay_k": 3, "edge_set": "Delaunay3" }, "geometry": { "type": "LineString", "coordinates": [ [ 25.694275, 65.279688 ], [ 21.656799, 65.826407 ] ] } },
{ "type": "Feature", "properties": { "from_node": 386, "to_node": 395, "length_km": 135.56698438366905, "delaunay_k": 3, "edge_set": "Delaunay3" }, "geometry": { "type": "LineString", "coordinates": [ [ 25.694275, 65.279688 ], [ 23.100128, 65.837089 ] ] } },
{ "type": "Feature", "properties": { "from_node": 386, "to_node": 408, "length_km": 277.09811487245503, "delaunay_k": 3, "edge_set": "Delaunay3" }, "geometry": { "type": "LineString", "coordinates": [ [ 25.694275, 65.279688 ], [ 20.429077, 66.505049 ] ] } },
{ "type": "Feature", "properties": { "from_node": 386, "to_node": 409, "length_km": 285.08014273689088, "delaunay_k": 3, "edge_set": "Delaunay3" }, "geometry": { "type": "LineString", "coordinates": [ [ 25.694275, 65.279688 ], [ 20.452423, 66.669299 ] ] } },
{ "type": "Feature", "properties": { "from_node": 386, "to_node": 414, "length_km": 325.05503818102972, "delaunay_k": 3, "edge_set": "Delaunay3" }, "geometry": { "type": "LineString", "coordinates": [ [ 25.694275, 65.279688 ], [ 19.866028, 66.975221 ] ] } },
{ "type": "Feature", "properties": { "from_node": 387, "to_node": 393, "length_km": 353.02567585683886, "delaunay_k": 3, "edge_set": "Delaunay3" }, "geometry": { "type": "LineString", "coordinates": [ [ 16.876373, 65.299207 ], [ 24.411621, 65.781941 ] ] } },
{ "type": "Feature", "properties": { "from_node": 405, "to_node": 430, "length_km": 362.94515074041897, "delaunay_k": 3, "edge_set": "Delaunay3" }, "geometry": { "type": "LineString", "coordinates": [ [ 26.769562, 66.378809 ], [ 29.549103, 69.440681 ] ] } },
{ "type": "Feature", "properties": { "from_node": 406, "to_node": 430, "length_km": 375.85969770823453, "delaunay_k": 3, "edge_set": "Delaunay3" }, "geometry": { "type": "LineString", "coordinates": [ [ 25.717621, 66.413451 ], [ 29.549103, 69.440681 ] ] } },
{ "type": "Feature", "properties": { "from_node": 407, "to_node": 430, "length_km": 347.58092987148672, "delaunay_k": 3, "edge_set": "Delaunay3" }, "geometry": { "type": "LineString", "coordinates": [ [ 27.398529, 66.450241 ], [ 29.549103, 69.440681 ] ] } },
{ "type": "Feature", "properties": { "from_node": 415, "to_node": 434, "length_km": 296.53382339352646, "delaunay_k": 3, "edge_set": "Delaunay3" }, "geometry": { "type": "LineString", "coordinates": [ [ 27.387543, 67.23753 ], [ 30.120392, 69.682374 ] ] } },
{ "type": "Feature", "properties": { "from_node": 421, "to_node": 434, "length_km": 269.47811588477157, "delaunay_k": 3, "edge_set": "Delaunay3" }, "geometry": { "type": "LineString", "coordinates": [ [ 26.820374, 67.602419 ], [ 30.120392, 69.682374 ] ] } }
]
}
