{
"type": "FeatureCollection",
"name": "n490_300kv_delaunay4",
"crs": { "type": "name", "properties": { "name": "urn:ogc:def:crs:OGC:1.3:CRS84" } },
"features": [
{ "type": "Feature", "properties": { "voltage_kv": 300.0, "from_node": 0, "to_node": 38, "length_km": 145.67084637291754, "delaunay_k": 4, "edge_set": "Delaunay4" }, "geometry": { "type": "LineString", "coordinates": [ [ 4.998779, 60.703432 ], [ 6.968079, 59.837916 ] ] } },
{ "type": "Feature", "properties": { "voltage_kv": 300.0, "from_node": 1, "to_node": 22, "length_km": 130.72887111695243, "delaunay_k": 4, "edge_set": "Delaunay4" }, "geometry": { "type": "LineString", "coordinates": [ [ 5.259705, 60.456541 ], [ 6.491547, 59.460431 ] ] } },
{ "type": "Feature", "properties": { "voltage_kv": 300.0, "from_node": 1, "to_node": 25, "length_km": 135.50232868944218, "delaunay_k": 4, "edge_set": "Delaunay4" }, "geometry": { "type": "LineString", "coordinates": [ [ 5.259705, 60.456541 ], [ 6.650848, 59.461826 ] ] } },
{ "type": "Feature", "properties": { "voltage_kv": 300.0, "from_node": 1, "to_node": 26, "length_km": 149.72664740129807, "delaunay_k": 4, "edge_set": "Delaunay4" }, "geometry": { "type": "LineString", "coordinates": [ [ 5.259705, 60.456541 ], [ 6.663208, 59.314272 ] ] } },
{ "type": "Feature", "properties": { "voltage_kv": 300.0, "from_node": 1, "to_node": 38, "length_km": 117.40569128873545, "delaunay_k": 4, "edge_set": "Delaunay4" }, "geometry": { "type": "LineString", "coordinates": [ [ 5.259705, 60.456541 ], [ 6.968079, 59.837916 ] ] } },
{ "type": "Feature", "properties": { "voltage_kv": 300.0, "from_node": 1, "to_node": 40, "length_km": 126.49224803523175, "delaunay_k": 4, "edge_set": "Delaunay4" }, "geometry": { "type": "LineString", "coordinates": [ [ 5.259705, 60.456541 ], [ 7.080688, 59.777831 ] ] } },
{ "type": "Feature", "properties": { "voltage_kv": 300.0, "from_node": 1, "to_node": 41, "length_km": 130.33749272270873, "delaunay_k": 4, "edge_set": "Delaunay4" }, "geometry": { "type": "LineString", "coordinates": [ [ 5.259705, 60.456541 ], [ 7.086182, 59.725947 ] ] } },
{ "type": "Feature", "properties": { "voltage_kv": 300.0, "from_node": 1, "to_node": 47, "length_km": 140.75719089743143, "delaunay_k": 4, "edge_set": "Delaunay4" }, "geometry": { "type": "LineString", "coordinates": [ [ 5.259705, 60.456541 ], [ 7.338867, 61.206798 ] ] } },
{ "type": "Feature", "properties": { "voltage_kv": 300.0, "from_node": 1, "to_node": 48, "length_km": 136.62548201138523, "delaunay_k": 4, "edge_set": "Delaunay4" }, "geometry": { "type": "LineString", "coordinates": [ [ 5.259705, 60.456541 ], [ 7.34024, 59.805469 ] ] } },
{ "type": "Feature", "properties": { "voltage_kv": 300.0, "from_node": 1, "to_node": 52, "length_km": 150.77524235127572, "delaunay_k": 4, "edge_set": "Delaunay4" }, "geometry": { "type": "LineString", "coordinates": [ [ 5.259705, 60.456541 ], [ 7.439117, 61.292669 ] ] } },
{ "type": "Feature", "properties": { "voltage_kv": 300.0, "from_node": 2, "to_node": 6, "length_km": 134.00156960772316, "delaunay_k": 4, "edge_set": "Delaunay4" }, "geometry": { "type": "LineString", "coordinates": [ [ 5.262451, 59.225853 ], [ 5.494537, 60.42131 ] ] } },
{ "type": "Feature", "properties": { "voltage_kv": 300.0, "from_node": 2, "to_node": 18, "length_km": 151.19225355509485, "delaunay_k": 4, "edge_set": "Delaunay4" }, "geometry": { "type": "LineString", "coordinates": [ [ 5.262451, 59.225853 ], [ 6.156464, 60.504583 ] ] } },
{ "type": "Feature", "properties": { "voltage_kv": 300.0, "from_node": 2, "to_node": 19, "length_km": 115.34673090894078, "delaunay_k": 4, "edge_set": "Delaunay4" }, "geometry": { "type": "LineString", "coordinates": [ [ 5.262451, 59.225853 ], [ 6.297913, 60.117566 ] ] } },
{ "type": "Feature", "properties": { "voltage_kv": 300.0, "from_node": 2, "to_node": 23, "length_km": 120.93896869720611, "delaunay_k": 4, "edge_set": "Delaunay4" }, "geometry": { "type": "LineString", "coordinates": [ [ 5.262451, 59.225853 ], [ 6.554718, 58.373638 ] ] } },
{ "type": "Feature", "properties": { "voltage_kv": 300.0, "from_node": 2, "to_node": 28, "length_km": 124.03853022180955, "delaunay_k": 4, "edge_set": "Delaunay4" }, "geometry": { "type": "LineString", "coordinates": [ [ 5.262451, 59.225853 ], [ 6.70166, 60.066211 ] ] } },
{ "type": "Feature", "properties": { "voltage_kv": 300.0, "from_node": 2, "to_node": 31, "length_km": 151.67175910112081, "delaunay_k": 4, "edge_set": "Delaunay4" }, "geometry": { "type": "LineString", "coordinates": [ [ 5.262451, 59.225853 ], [ 6.764832, 58.11344 ] ] } },
{ "type": "Feature", "properties": { "voltage_kv": 300.0, "from_node": 2, "to_node": 33, "length_km": 109.85790877488728, "delaunay_k": 4, "edge_set": "Delaunay4" }, "geometry": { "type": "LineString", "coordinates": [ [ 5.262451, 59.225853 ], [ 6.82251, 58.659799 ] ] } },
{ "type": "Feature", "properties": { "voltage_kv": 300.0, "from_node": 2, "to_node": 38, "length_km": 118.29321664776359, "delaunay_k": 4, "edge_set": "Delaunay4" }, "geometry": { "type": "LineString", "coordinates": [ [ 5.262451, 59.225853 ], [ 6.968079, 59.837916 ] ] } },
{ "type": "Feature", "properties": { "voltage_kv": 300.0, "from_node": 2, "to_node": 40, "length_km": 120.0621941411702, "delaunay_k": 4, "edge_set": "Delaunay4" }, "geometry": { "type": "LineString", "coordinates": [ [ 5.262451, 59.225853 ], [ 7.080688, 59.777831 ] ] } },
{ "type": "Feature", "properties": { "voltage_kv": 300.0, "from_node": 2, "to_node": 41, "length_km": 117.54526555036222, "delaunay_k": 4, "edge_set": "Delaunay4" }, "geometry": { "type": "LineString", "coordinates": [ [ 5.262451, 59.225853 ], [ 7.086182, 59.725947 ] ] } },
{ "type": "Feature", "properties": { "voltage_kv": 300.0, "from_node": 2, "to_node": 42, "length_km": 114.7858260805468, "delaunay_k": 4, "edge_set": "Delaunay4" }, "geometry": { "type": "LineString", "coordinates": [ [ 5.262451, 59.225853 ], [ 7.115021, 58.841464 ] ] } },
{ "type": "Feature", "properties": { "voltage_kv": 300.0, "from_node": 2, "to_node": 44, "length_km": 109.63659700520854, "delaunay_k": 4, "edge_set": "Delaunay4" }, "geometry": { "type": "LineString", "coordinates": [ [ 5.262451, 59.225853 ], [ 7.120514, 58.994604 ] ] } },
{ "type": "Feature", "properties": { "voltage_kv": 300.0, "from_node": 2, "to_node": 57, "length_km": 152.53033946892219, "delaunay_k": 4, "edge_set": "Delaunay4" }, "geometry": { "type": "LineString", "coordinates": [ [ 5.262451, 59.225853 ], [ 7.901917, 59.457639 ] ] } },
{ "type": "Feature", "properties": { "voltage_kv": 300.0, "from_node": 3, "to_node": 14, "length_km": 115.01140511264798, "delaunay_k": 4, "edge_set": "Delaunay4" }, "geometry": { "type": "LineString", "coordinates": [ [ 5.39978, 59.495303 ], [ 6.008148, 58.513066 ] ] } },
{ "type": "Feature", "properties": { "voltage_kv": 300.0, "from_node": 3, "to_node": 30, "length_km": 103.73681366498421, "delaunay_k": 4, "edge_set": "Delaunay4" }, "geometry": { "type": "LineString", "coordinates": [ [ 5.39978, 59.495303 ], [ 6.756592, 58.878393 ] ] } },
{ "type": "Feature", "properties": { "voltage_kv": 300.0, "from_node": 3, "to_node": 32, "length_km": 107.70385940678362, "delaunay_k": 4, "edge_set": "Delaunay4" }, "geometry": { "type": "LineString", "coordinates": [ [ 5.39978, 59.495303 ], [ 6.797791, 60.156543 ] ] } },
{ "type": "Feature", "properties": { "voltage_kv": 300.0, "from_node": 3, "to_node": 36, "length_km": 108.3316750851826, "delaunay_k": 4, "edge_set": "Delaunay4" }, "geometry": { "type": "LineString", "coordinates": [ [ 5.39978, 59.495303 ], [ 6.892548, 58.897552 ] ] } },
{ "type": "Feature", "properties": { "voltage_kv": 300.0, "from_node": 3, "to_node": 44, "length_km": 113.0431407647707, "delaunay_k": 4, "edge_set": "Delaunay4" }, "geometry": { "type": "LineString", "coordinates": [ [ 5.39978, 59.495303 ], [ 7.120514, 58.994604 ] ] } },
{ "type": "Feature", "properties": { "voltage_kv": 300.0, "from_node": 3, "to_node": 48, "length_km": 114.85075733038525, "delaunay_k": 4, "edge_set": "Delaunay4" }, "geometry": { "type": "LineString", "coordinates": [ [ 5.39978, 59.495303 ], [ 7.34024, 59.805469 ] ] } },
{ "type": "Feature", "properties": { "voltage_kv": 300.0, "from_node": 3, "to_node": 49, "length_km": 114.73966030601015, "delaunay_k": 4, "edge_set": "Delaunay4" }, "geometry": { "type": "LineString", "coordinates": [ [ 5.39978, 59.495303 ], [ 7.36908, 59.747402 ] ] } },
{ "type": "Feature", "properties": { "voltage_kv": 300.0, "from_node": 3, "to_node": 57, "length_km": 141.99749207422127, "delaunay_k": 4, "edge_set": "Delaunay4" }, "geometry": { "type": "LineString", "coordinates": [ [ 5.39978, 59.495303 ], [ 7.901917, 59.457639 ] ] } },
{ "type": "Feature", "properties": { "voltage_kv": 300.0, "from_node": 4, "to_node": 8, "length_km": 149.95988417417061, "delaunay_k": 4, "edge_set": "Delaunay4" }, "geometry": { "type": "LineString", "coordinates": [ [ 5.449219, 60.347337 ], [ 5.623627, 59.00592 ] ] } },
{ "type": "Feature", "properties": { "voltage_kv": 300.0, "from_node": 4, "to_node": 22, "length_km": 114.86583474367127, "delaunay_k": 4, "edge_set": "Delaunay4" }, "geometry": { "type": "LineString", "coordinates": [ [ 5.449219, 60.347337 ], [ 6.491547, 59.460431 ] ] } },
{ "type": "Feature", "properties": { "voltage_kv": 300.0, "from_node": 4, "to_node": 25, "length_km": 119.5155707829184, "delaunay_k": 4, "edge_set": "Delaunay4" }, "geometry": { "type": "LineString", "coordinates": [ [ 5.449219, 60.347337 ], [ 6.650848, 59.461826 ] ] } },
{ "type": "Feature", "properties": { "voltage_kv": 300.0, "from_node": 4, "to_node": 26, "length_km": 133.86165840280555, "delaunay_k": 4, "edge_set": "Delaunay4" }, "geometry": { "type": "LineString", "coordinates": [ [ 5.449219, 60.347337 ], [ 6.663208, 59.314272 ] ] } },
{ "type": "Feature", "properties": { "voltage_kv": 300.0, "from_node": 4, "to_node": 40, "length_km": 110.92835617733212, "delaunay_k": 4, "edge_set": "Delaunay4" }, "geometry": { "type": "LineString", "coordinates": [ [ 5.449219, 60.347337 ], [ 7.080688, 59.777831 ] ] } },
{ "type": "Feature", "properties": { "voltage_kv": 300.0, "from_node": 4, "to_node": 41, "length_km": 114.63979911431694, "delaunay_k": 4, "edge_set": "Delaunay4" }, "geometry": { "type": "LineString", "coordinates": [ [ 5.449219, 60.347337 ], [ 7.086182, 59.725947 ] ] } },
{ "type": "Feature", "properties": { "voltage_kv": 300.0, "from_node": 4, "to_node": 46, "length_km": 142.95191828539146, "delaunay_k": 4, "edge_set": "Delaunay4" }, "geometry": { "type": "LineString", "coordinates": [ [ 5.449219, 60.347337 ], [ 7.293549, 61.259009 ] ] } },
{ "type": "Feature", "properties": { "voltage_kv": 300.0, "from_node": 4, "to_node": 49, "length_km": 126.24935131304073, "delaunay_k": 4, "edge_set": "Delaunay4" }, "geometry": { "type": "LineString", "coordinates": [ [ 5.449219, 60.347337 ], [ 7.36908, 59.747402 ] ] } },
{ "type": "Feature", "properties": { "voltage_kv": 300.0, "from_node": 4, "to_node": 52, "length_km": 151.18136054196142, "delaunay_k": 4, "edge_set": "Delaunay4" }, "geometry": { "type": "LineString", "coordinates": [ [ 5.449219, 60.347337 ], [ 7.439117, 61.292669 ] ] } },
{ "type": "Feature", "properties": { "voltage_kv": 300.0, "from_node": 4, "to_node": 54, "length_km": 144.10238197746909, "delaunay_k": 4, "edge_set": "Delaunay4" }, "geometry": { "type": "LineString", "coordinates": [ [ 5.449219, 60.347337 ], [ 7.772827, 59.780596 ] ] } },
{ "type": "Feature", "properties": { "voltage_kv": 300.0, "from_node": 5, "to_node": 9, "length_km": 94.977890406173643, "delaunay_k": 4, "edge_set": "Delaunay4" }, "geometry": { "type": "LineString", "coordinates": [ [ 5.461578, 59.768152 ], [ 5.715637, 58.926626 ] ] } },
{ "type": "Feature", "properties": { "voltage_kv": 300.0, "from_node": 5, "to_node": 10, "length_km": 106.37355917281702, "delaunay_k": 4, "edge_set": "Delaunay4" }, "geometry": { "type": "LineString", "coordinates": [ [ 5.461578, 59.768152 ], [ 5.756836, 58.82654 ] ] } },
{ "type": "Feature", "properties": { "voltage_kv": 300.0, "from_node": 5, "to_node": 27, "length_km": 104.97016515482619, "delaunay_k": 4, "edge_set": "Delaunay4" }, "geometry": { "type": "LineString", "coordinates": [ [ 5.461578, 59.768152 ], [ 6.696167, 59.068096 ] ] } },
{ "type": "Feature", "properties": { "voltage_kv": 300.0, "from_node": 5, "to_node": 35, "length_km": 109.36335100181017, "delaunay_k": 4, "edge_set": "Delaunay4" }, "geometry": { "type": "LineString", "coordinates": [ [ 5.461578, 59.768152 ], [ 6.889801, 59.110423 ] ] } },
{ "type": "Feature", "properties": { "voltage_kv": 300.0, "from_node": 5, "to_node": 43, "length_km": 119.33944928907226, "delaunay_k": 4, "edge_set": "Delaunay4" }, "geometry": { "type": "LineString", "coordinates": [ [ 5.461578, 59.768152 ], [ 7.119141, 59.110423 ] ] } },
{ "type": "Feature", "properties": { "voltage_kv": 300.0, "from_node": 5, "to_node": 48, "length_km": 105.68129058759853, "delaunay_k": 4, "edge_set": "Delaunay4" }, "geometry": { "type": "LineString", "coordinates": [ [ 5.461578, 59.768152 ], [ 7.34024, 59.805469 ] ] } },
{ "type": "Feature", "properties": { "voltage_kv": 300.0, "from_node": 5, "to_node": 49, "length_km": 107.33798119821425, "delaunay_k": 4, "edge_set": "Delaunay4" }, "geometry": { "type": "LineString", "coordinates": [ [ 5.461578, 59.768152 ], [ 7.36908, 59.747402 ] ] } },
{ "type": "Feature", "properties": { "voltage_kv": 300.0, "from_node": 5, "to_node": 57, "length_km": 142.14807212684826, "delaunay_k": 4, "edge_set": "Delaunay4" }, "geometry": { "type": "LineString", "coordinates": [ [ 5.461578, 59.768152 ], [ 7.901917, 59.457639 ] ] } },
{ "type": "Feature", "properties": { "voltage_kv": 300.0, "from_node": 6, "to_node": 7, "length_km": 123.25123945777433, "delaunay_k": 4, "edge_set": "Delaunay4" }, "geometry": { "type": "LineString", "coordinates": [ [ 5.494537, 60.42131 ], [ 5.568695, 59.317075 ] ] } },
{ "type": "Feature", "properties": { "voltage_kv": 300.0, "from_node": 6, "to_node": 21, "length_km": 109.89355109547955, "delaunay_k": 4, "edge_set": "Delaunay4" }, "geometry": { "type": "LineString", "coordinates": [ [ 5.494537, 60.42131 ], [ 6.481934, 59.569114 ] ] } },
{ "type": "Feature", "properties": { "voltage_kv": 300.0, "from_node": 6, "to_node": 29, "length_km": 92.771246499460815, "delaunay_k": 4, "edge_set": "Delaunay4" }, "geometry": { "type": "LineString", "coordinates": [ [ 5.494537, 60.42131 ], [ 6.745605, 59.871019 ] ] } },
{ "type": "Feature", "properties": { "voltage_kv": 300.0, "from_node": 6, "to_node": 37, "length_km": 111.62672383489624, "delaunay_k": 4, "edge_set": "Delaunay4" }, "geometry": { "type": "LineString", "coordinates": [ [ 5.494537, 60.42131 ], [ 6.904907, 59.710712 ] ] } },
{ "type": "Feature", "properties": { "voltage_kv": 300.0, "from_node": 6, "to_node": 40, "length_km": 113.79825691134576, "delaunay_k": 4, "edge_set": "Delaunay4" }, "geometry": { "type": "LineString", "coordinates": [ [ 5.494537, 60.42131 ], [ 7.080688, 59.777831 ] ] } },
{ "type": "Feature", "properties": { "voltage_kv": 300.0, "from_node": 6, "to_node": 46, "length_km": 135.32717991205038, "delaunay_k": 4, "edge_set": "Delaunay4" }, "geometry": { "type": "LineString", "coordinates": [ [ 5.494537, 60.42131 ], [ 7.293549, 61.259009 ] ] } },
{ "type": "Feature", "properties": { "voltage_kv": 300.0, "from_node": 6, "to_node": 49, "length_km": 128.65058732276134, "delaunay_k": 4, "edge_set": "Delaunay4" }, "geometry": { "type": "LineString", "coordinates": [ [ 5.494537, 60.42131 ], [ 7.36908, 59.747402 ] ] } },
{ "type": "Feature", "properties": { "voltage_kv": 300.0, "from_node": 6, "to_node": 52, "length_km": 143.63106124235694, "delaunay_k": 4, "edge_set": "Delaunay4" }, "geometry": { "type": "LineString", "coordinates": [ [ 5.494537, 60.42131 ], [ 7.439117, 61.292669 ] ] } },
{ "type": "Feature", "properties": { "voltage_kv": 300.0, "from_node": 6, "to_node": 54, "length_km": 145.57294403029988, "delaunay_k": 4, "edge_set": "Delaunay4" }, "geometry": { "type": "LineString", "coordinates": [ [ 5.494537, 60.42131 ], [ 7.772827, 59.780596 ] ] } },
{ "type": "Feature", "properties": { "voltage_kv": 300.0, "from_node": 7, "to_node": 16, "length_km": 153.18968488764435, "delaunay_k": 4, "edge_set": "Delaunay4" }, "geometry": { "type": "LineString", "coordinates": [ [ 5.568695, 59.317075 ], [ 6.100159, 60.664433 ] ] } },
{ "type": "Feature", "properties": { "voltage_kv": 300.0, "from_node": 7, "to_node": 18, "length_km": 136.4817041379136, "delaunay_k": 4, "edge_set": "Delaunay4" }, "geometry": { "type": "LineString", "coordinates": [ [ 5.568695, 59.317075 ], [ 6.156464, 60.504583 ] ] } },
{ "type": "Feature", "properties": { "voltage_kv": 300.0, "from_node": 7, "to_node": 19, "length_km": 98.278723317466586, "delaunay_k": 4, "edge_set": "Delaunay4" }, "geometry": { "type": "LineString", "coordinates": [ [ 5.568695, 59.317075 ], [ 6.297913, 60.117566 ] ] } },
{ "type": "Feature", "properties": { "voltage_kv": 300.0, "from_node": 7, "to_node": 23, "length_km": 119.65083706271351, "delaunay_k": 4, "edge_set": "Delaunay4" }, "geometry": { "type": "LineString", "coordinates": [ [ 5.568695, 59.317075 ], [ 6.554718, 58.373638 ] ] } },
{ "type": "Feature", "properties": { "voltage_kv": 300.0, "from_node": 7, "to_node": 28, "length_km": 105.16305379987185, "delaunay_k": 4, "edge_set": "Delaunay4" }, "geometry": { "type": "LineString", "coordinates": [ [ 5.568695, 59.317075 ], [ 6.70166, 60.066211 ] ] } },
{ "type": "Feature", "properties": { "voltage_kv": 300.0, "from_node": 7, "to_node": 31, "length_km": 151.08987204052809, "delaunay_k": 4, "edge_set": "Delaunay4" }, "geometry": { "type": "LineString", "coordinates": [ [ 5.568695, 59.317075 ], [ 6.764832, 58.11344 ] ] } },
{ "type": "Feature", "properties": { "voltage_kv": 300.0, "from_node": 7, "to_node": 32, "length_km": 116.41367019302366, "delaunay_k": 4, "edge_set": "Delaunay4" }, "geometry": { "type": "LineString", "coordinates": [ [ 5.568695, 59.317075 ], [ 6.797791, 60.156543 ] ] } },
{ "type": "Feature", "properties": { "voltage_kv": 300.0, "from_node": 7, "to_node": 33, "length_km": 102.85514668563999, "delaunay_k": 4, "edge_set": "Delaunay4" }, "geometry": { "type": "LineString", "coordinates": [ [ 5.568695, 59.317075 ], [ 6.82251, 58.659799 ] ] } },
{ "type": "Feature", "properties": { "voltage_kv": 300.0, "from_node": 7, "to_node": 42, "length_km": 103.39363776535097, "delaunay_k": 4, "edge_set": "Delaunay4" }, "geometry": { "type": "LineString", "coordinates": [ [ 5.568695, 59.317075 ], [ 7.115021, 58.841464 ] ] } },
{ "type": "Feature", "properties": { "voltage_kv": 300.0, "from_node": 7, "to_node": 48, "length_km": 114.08457091977444, "delaunay_k": 4, "edge_set": "Delaunay4" }, "geometry": { "type": "LineString", "coordinates": [ [ 5.568695, 59.317075 ], [ 7.34024, 59.805469 ] ] } },
{ "type": "Feature", "properties": { "voltage_kv": 300.0, "from_node": 7, "to_node": 49, "length_km": 112.69287173931656, "delaunay_k": 4, "edge_set": "Delaunay4" }, "geometry": { "type": "LineString", "coordinates": [ [ 5.568695, 59.317075 ], [ 7.36908, 59.747402 ] ] } },
{ "type": "Feature", "properties": { "voltage_kv": 300.0, "from_node": 7, "to_node": 55, "length_km": 132.43459497977514, "delaunay_k": 4, "edge_set": "Delaunay4" }, "geometry": { "type": "LineString", "coordinates": [ [ 5.568695, 59.317075 ], [ 7.819519, 59.632352 ] ] } },
{ "type": "Feature", "properties": { "voltage_kv": 300.0, "from_node": 8, "to_node": 12, "length_km": 103.26790492752436, "delaunay_k": 4, "edge_set": "Delaunay4" }, "geometry": { "type": "LineString", "coordinates": [ [ 5.623627, 59.00592 ], [ 5.868073, 59.923367 ] ] } },
{ "type": "Feature", "properties": { "voltage_kv": 300.0, "from_node": 8, "to_node": 17, "length_km": 100.27856918805395, "delaunay_k": 4, "edge_set": "Delaunay4" }, "geometry": { "type": "LineString", "coordinates": [ [ 5.623627, 59.00592 ], [ 6.113892, 59.869641 ] ] } },
{ "type": "Feature", "properties": { "voltage_kv": 300.0, "from_node": 8, "to_node": 29, "length_km": 115.62127719263454, "delaunay_k": 4, "edge_set": "Delaunay4" }, "geometry": { "type": "LineString", "coordinates": [ [ 5.623627, 59.00592 ], [ 6.745605, 59.871019 ] ] } },
{ "type": "Feature", "properties": { "voltage_kv": 300.0, "from_node": 8, "to_node": 38, "length_km": 120.18387481830517, "delaunay_k": 4, "edge_set": "Delaunay4" }, "geometry": { "type": "LineString", "coordinates": [ [ 5.623627, 59.00592 ], [ 6.968079, 59.837916 ] ] } },
{ "type": "Feature", "properties": { "voltage_kv": 300.0, "from_node": 8, "to_node": 39, "length_km": 113.79996331880064, "delaunay_k": 4, "edge_set": "Delaunay4" }, "geometry": { "type": "LineString", "coordinates": [ [ 5.623627, 59.00592 ], [ 7.001038, 58.28062 ] ] } },
{ "type": "Feature", "properties": { "voltage_kv": 300.0, "from_node": 8, "to_node": 40, "length_km": 119.48214732011374, "delaunay_k": 4, "edge_set": "Delaunay4" }, "geometry": { "type": "LineString", "coordinates": [ [ 5.623627, 59.00592 ], [ 7.080688, 59.777831 ] ] } },
{ "type": "Feature", "properties": { "voltage_kv": 300.0, "from_node": 8, "to_node": 49, "length_km": 129.21916114333746, "delaunay_k": 4, "edge_set": "Delaunay4" }, "geometry": { "type": "LineString", "coordinates": [ [ 5.623627, 59.00592 ], [ 7.36908, 59.747402 ] ] } },
{ "type": "Feature", "properties": { "voltage_kv": 300.0, "from_node": 8, "to_node": 55, "length_km": 143.30832495597127, "delaunay_k": 4, "edge_set": "Delaunay4" }, "geometry": { "type": "LineString", "coordinates": [ [ 5.623627, 59.00592 ], [ 7.819519, 59.632352 ] ] } },
{ "type": "Feature", "properties": { "voltage_kv": 300.0, "from_node": 9, "to_node": 20, "length_km": 92.21178756399614, "delaunay_k": 4, "edge_set": "Delaunay4" }, "geometry": { "type": "LineString", "coordinates": [ [ 5.715637, 58.926626 ], [ 6.432495, 59.667741 ] ] } },
{ "type": "Feature", "properties": { "voltage_kv": 300.0, "from_node": 9, "to_node": 37, "length_km": 110.63228632174098, "delaunay_k": 4, "edge_set": "Delaunay4" }, "geometry": { "type": "LineString", "coordinates": [ [ 5.715637, 58.926626 ], [ 6.904907, 59.710712 ] ] } },
{ "type": "Feature", "properties": { "voltage_kv": 300.0, "from_node": 9, "to_node": 39, "length_km": 103.84194900347248, "delaunay_k": 4, "edge_set": "Delaunay4" }, "geometry": { "type": "LineString", "coordinates": [ [ 5.715637, 58.926626 ], [ 7.001038, 58.28062 ] ] } },
{ "type": "Feature", "properties": { "voltage_kv": 300.0, "from_node": 9, "to_node": 41, "length_km": 118.50368347951262, "delaunay_k": 4, "edge_set": "Delaunay4" }, "geometry": { "type": "LineString", "coordinates": [ [ 5.715637, 58.926626 ], [ 7.086182, 59.725947 ] ] } },
{ "type": "Feature", "properties": { "voltage_kv": 300.0, "from_node": 9, "to_node": 57, "length_km": 138.35732903669489, "delaunay_k": 4, "edge_set": "Delaunay4" }, "geometry": { "type": "LineString", "coordinates": [ [ 5.715637, 58.926626 ], [ 7.901917, 59.457639 ] ] } },
{ "type": "Feature", "properties": { "voltage_kv": 300.0, "from_node": 10, "to_node": 20, "length_km": 101.44010061909988, "delaunay_k": 4, "edge_set": "Delaunay4" }, "geometry": { "type": "LineString", "coordinates": [ [ 5.756836, 58.82654 ], [ 6.432495, 59.667741 ] ] } },
{ "type": "Feature", "properties": { "voltage_kv": 300.0, "from_node": 10, "to_node": 37, "length_km": 118.38533106567056, "delaunay_k": 4, "edge_set": "Delaunay4" }, "geometry": { "type": "LineString", "coordinates": [ [ 5.756836, 58.82654 ], [ 6.904907, 59.710712 ] ] } },
{ "type": "Feature", "properties": { "voltage_kv": 300.0, "from_node": 10, "to_node": 41, "length_km": 125.74723119864193, "delaunay_k": 4, "edge_set": "Delaunay4" }, "geometry": { "type": "LineString", "coordinates": [ [ 5.756836, 58.82654 ], [ 7.086182, 59.725947 ] ] } },
{ "type": "Feature", "properties": { "voltage_kv": 300.0, "from_node": 10, "to_node": 57, "length_km": 141.59141845074186, "delaunay_k": 4, "edge_set": "Delaunay4" }, "geometry": { "type": "LineString", "coordinates": [ [ 5.756836, 58.82654 ], [ 7.901917, 59.457639 ] ] } },
{ "type": "Feature", "properties": { "voltage_kv": 300.0, "from_node": 11, "to_node": 22, "length_km": 138.63131265079804, "delaunay_k": 4, "edge_set": "Delaunay4" }, "geometry": { "type": "LineString", "coordinates": [ [ 5.847473, 60.661069 ], [ 6.491547, 59.460431 ] ] } },
{ "type": "Feature", "properties": { "voltage_kv": 300.0, "from_node": 11, "to_node": 25, "length_km": 141.03960924252181, "delaunay_k": 4, "edge_set": "Delaunay4" }, "geometry": { "type": "LineString", "coordinates": [ [ 5.847473, 60.661069 ], [ 6.650848, 59.461826 ] ] } },
{ "type": "Feature", "properties": { "voltage_kv": 300.0, "from_node": 11, "to_node": 29, "length_km": 101.186241277078, "delaunay_k": 4, "edge_set": "Delaunay4" }, "geometry": { "type": "LineString", "coordinates": [ [ 5.847473, 60.661069 ], [ 6.745605, 59.871019 ] ] } },
{ "type": "Feature", "properties": { "voltage_kv": 300.0, "from_node": 11, "to_node": 37, "length_km": 121.16199328973089, "delaunay_k": 4, "edge_set": "Delaunay4" }, "geometry": { "type": "LineString", "coordinates": [ [ 5.847473, 60.661069 ], [ 6.904907, 59.710712 ] ] } },
{ "type": "Feature", "properties": { "voltage_kv": 300.0, "from_node": 11, "to_node": 40, "length_km": 119.92097639579792, "delaunay_k": 4, "edge_set": "Delaunay4" }, "geometry": { "type": "LineString", "coordinates": [ [ 5.847473, 60.661069 ], [ 7.080688, 59.777831 ] ] } },
{ "type": "Feature", "properties": { "voltage_kv": 300.0, "from_node": 11, "to_node": 49, "length_km": 132.32680072785143, "delaunay_k": 4, "edge_set": "Delaunay4" }, "geometry": { "type": "LineString", "coordinates": [ [ 5.847473, 60.661069 ], [ 7.36908, 59.747402 ] ] } },
{ "type": "Feature", "properties": { "voltage_kv": 300.0, "from_node": 11, "to_node": 51, "length_km": 122.7342128417894, "delaunay_k": 4, "edge_set": "Delaunay4" }, "geometry": { "type": "LineString", "coordinates": [ [ 5.847473, 60.661069 ], [ 7.436371, 61.447302 ] ] } },
{ "type": "Feature", "properties": { "voltage_kv": 300.0, "from_node": 11, "to_node": 52, "length_km": 111.35123142370446, "delaunay_k": 4, "edge_set": "Delaunay4" }, "geometry": { "type": "LineString", "coordinates": [ [ 5.847473, 60.661069 ], [ 7.439117, 61.292669 ] ] } },
{ "type": "Feature", "properties": { "voltage_kv": 300.0, "from_node": 11, "to_node": 53, "length_km": 139.79687864590807, "delaunay_k": 4, "edge_set": "Delaunay4" }, "geometry": { "type": "LineString", "coordinates": [ [ 5.847473, 60.661069 ], [ 7.738495, 61.517456 ] ] } },
{ "type": "Feature", "properties": { "voltage_kv": 300.0, "from_node": 11, "to_node": 54, "length_km": 145.05669035823621, "delaunay_k": 4, "edge_set": "Delaunay4" }, "geometry": { "type": "LineString", "coordinates": [ [ 5.847473, 60.661069 ], [ 7.772827, 59.780596 ] ] } },
{ "type": "Feature", "properties": { "voltage_kv": 300.0, "from_node": 11, "to_node": 60, "length_km": 136.43452307937602, "delaunay_k": 4, "edge_set": "Delaunay4" }, "geometry": { "type": "LineString", "coordinates": [ [ 5.847473, 60.661069 ], [ 8.311157, 60.873666 ] ] } },
{ "type": "Feature", "properties": { "voltage_kv": 300.0, "from_node": 12, "to_node": 22, "length_km": 62.455896803702679, "delaunay_k": 4, "edge_set": "Delaunay4" }, "geometry": { "type": "LineString", "coordinates": [ [ 5.868073, 59.923367 ], [ 6.491547, 59.460431 ] ] } },
{ "type": "Feature", "properties": { "voltage_kv": 300.0, "from_node": 12, "to_node": 24, "length_km": 131.43867897726645, "delaunay_k": 4, "edge_set": "Delaunay4" }, "geometry": { "type": "LineString", "coordinates": [ [ 5.868073, 59.923367 ], [ 6.60965, 61.043662 ] ] } },
{ "type": "Feature", "properties": { "voltage_kv": 300.0, "from_node": 12, "to_node": 25, "length_km": 67.795731934111686, "delaunay_k": 4, "edge_set": "Delaunay4" }, "geometry": { "type": "LineString", "coordinates": [ [ 5.868073, 59.923367 ], [ 6.650848, 59.461826 ] ] } },
{ "type": "Feature", "properties": { "voltage_kv": 300.0, "from_node": 12, "to_node": 26, "length_km": 81.43433346907922, "delaunay_k": 4, "edge_set": "Delaunay4" }, "geometry": { "type": "LineString", "coordinates": [ [ 5.868073, 59.923367 ], [ 6.663208, 59.314272 ] ] } },
{ "type": "Feature", "properties": { "voltage_kv": 300.0, "from_node": 12, "to_node": 34, "length_km": 142.6394440092744, "delaunay_k": 4, "edge_set": "Delaunay4" }, "geometry": { "type": "LineString", "coordinates": [ [ 5.868073, 59.923367 ], [ 6.871948, 61.10278 ] ] } },
{ "type": "Feature", "properties": { "voltage_kv": 300.0, "from_node": 12, "to_node": 40, "length_km": 69.938291369732596, "delaunay_k": 4, "edge_set": "Delaunay4" }, "geometry": { "type": "LineString", "coordinates": [ [ 5.868073, 59.923367 ], [ 7.080688, 59.777831 ] ] } },
{ "type": "Feature", "properties": { "voltage_kv": 300.0, "from_node": 12, "to_node": 41, "length_km": 71.846390778800469, "delaunay_k": 4, "edge_set": "Delaunay4" }, "geometry": { "type": "LineString", "coordinates": [ [ 5.868073, 59.923367 ], [ 7.086182, 59.725947 ] ] } },
{ "type": "Feature", "properties": { "voltage_kv": 300.0, "from_node": 12, "to_node": 49, "length_km": 86.496823383917061, "delaunay_k": 4, "edge_set": "Delaunay4" }, "geometry": { "type": "LineString", "coordinates": [ [ 5.868073, 59.923367 ], [ 7.36908, 59.747402 ] ] } },
{ "type": "Feature", "properties": { "voltage_kv": 300.0, "from_node": 12, "to_node": 54, "length_km": 108.01950188038846, "delaunay_k": 4, "edge_set": "Delaunay4" }, "geometry": { "type": "LineString", "coordinates": [ [ 5.868073, 59.923367 ], [ 7.772827, 59.780596 ] ] } },
{ "type": "Feature", "properties": { "voltage_kv": 300.0, "from_node": 12, "to_node": 62, "length_km": 148.66432482938811, "delaunay_k": 4, "edge_set": "Delaunay4" }, "geometry": { "type": "LineString", "coordinates": [ [ 5.868073, 59.923367 ], [ 8.524017, 59.912353 ] ] } },
{ "type": "Feature", "properties": { "voltage_kv": 300.0, "from_node": 13, "to_node": 28, "length_km": 94.966684087804666, "delaunay_k": 4, "edge_set": "Delaunay4" }, "geometry": { "type": "LineString", "coordinates": [ [ 5.968323, 60.836881 ], [ 6.70166, 60.066211 ] ] } },
{ "type": "Feature", "properties": { "voltage_kv": 300.0, "from_node": 13, "to_node": 29, "length_km": 115.95785560858907, "delaunay_k": 4, "edge_set": "Delaunay4" }, "geometry": { "type": "LineString", "coordinates": [ [ 5.968323, 60.836881 ], [ 6.745605, 59.871019 ] ] } },
{ "type": "Feature", "properties": { "voltage_kv": 300.0, "from_node": 13, "to_node": 37, "length_km": 135.87511096412831, "delaunay_k": 4, "edge_set": "Delaunay4" }, "geometry": { "type": "LineString", "coordinates": [ [ 5.968323, 60.836881 ], [ 6.904907, 59.710712 ] ] } },
{ "type": "Feature", "properties": { "voltage_kv": 300.0, "from_node": 13, "to_node": 38, "length_km": 124.35248941425134, "delaunay_k": 4, "edge_set": "Delaunay4" }, "geometry": { "type": "LineString", "coordinates": [ [ 5.968323, 60.836881 ], [ 6.968079, 59.837916 ] ] } },
{ "type": "Feature", "properties": { "voltage_kv": 300.0, "from_node": 13, "to_node": 48, "length_km": 137.77620937891143, "delaunay_k": 4, "edge_set": "Delaunay4" }, "geometry": { "type": "LineString", "coordinates": [ [ 5.968323, 60.836881 ], [ 7.34024, 59.805469 ] ] } },
{ "type": "Feature", "properties": { "voltage_kv": 300.0, "from_node": 13, "to_node": 60, "length_km": 127.48317493392193, "delaunay_k": 4, "edge_set": "Delaunay4" }, "geometry": { "type": "LineString", "coordinates": [ [ 5.968323, 60.836881 ], [ 8.311157, 60.873666 ] ] } },
{ "type": "Feature", "properties": { "voltage_kv": 300.0, "from_node": 13, "to_node": 63, "length_km": 148.25539699186055, "delaunay_k": 4, "edge_set": "Delaunay4" }, "geometry": { "type": "LineString", "coordinates": [ [ 5.968323, 60.836881 ], [ 8.690186, 60.798714 ] ] } },
{ "type": "Feature", "properties": { "voltage_kv": 300.0, "from_node": 14, "to_node": 21, "length_km": 120.8675777108075, "delaunay_k": 4, "edge_set": "Delaunay4" }, "geometry": { "type": "LineString", "coordinates": [ [ 6.008148, 58.513066 ], [ 6.481934, 59.569114 ] ] } },
{ "type": "Feature", "properties": { "voltage_kv": 300.0, "from_node": 14, "to_node": 22, "length_km": 109.2434412565397, "delaunay_k": 4, "edge_set": "Delaunay4" }, "geometry": { "type": "LineString", "coordinates": [ [ 6.008148, 58.513066 ], [ 6.491547, 59.460431 ] ] } },
{ "type": "Feature", "properties": { "voltage_kv": 300.0, "from_node": 14, "to_node": 25, "length_km": 112.07291652991584, "delaunay_k": 4, "edge_set": "Delaunay4" }, "geometry": { "type": "LineString", "coordinates": [ [ 6.008148, 58.513066 ], [ 6.650848, 59.461826 ] ] } },
{ "type": "Feature", "properties": { "voltage_kv": 300.0, "from_node": 14, "to_node": 43, "length_km": 92.548256492379281, "delaunay_k": 4, "edge_set": "Delaunay4" }, "geometry": { "type": "LineString", "coordinates": [ [ 6.008148, 58.513066 ], [ 7.119141, 59.110423 ] ] } },
{ "type": "Feature", "properties": { "voltage_kv": 300.0, "from_node": 14, "to_node": 57, "length_km": 151.53091327291037, "delaunay_k": 4, "edge_set": "Delaunay4" }, "geometry": { "type": "LineString", "coordinates": [ [ 6.008148, 58.513066 ], [ 7.901917, 59.457639 ] ] } },
{ "type": "Feature", "properties": { "voltage_kv": 300.0, "from_node": 15, "to_node": 19, "length_km": 124.93479041595818, "delaunay_k": 4, "edge_set": "Delaunay4" }, "geometry": { "type": "LineString", "coordinates": [ [ 6.093292, 61.233245 ], [ 6.297913, 60.117566 ] ] } },
{ "type": "Feature", "properties": { "voltage_kv": 300.0, "from_node": 15, "to_node": 28, "length_km": 134.34312390633491, "delaunay_k": 4, "edge_set": "Delaunay4" }, "geometry": { "type": "LineString", "coordinates": [ [ 6.093292, 61.233245 ], [ 6.70166, 60.066211 ] ] } },
{ "type": "Feature", "properties": { "voltage_kv": 300.0, "from_node": 15, "to_node": 60, "length_km": 126.39498941953738, "delaunay_k": 4, "edge_set": "Delaunay4" }, "geometry": { "type": "LineString", "coordinates": [ [ 6.093292, 61.233245 ], [ 8.311157, 60.873666 ] ] } },
{ "type": "Feature", "properties": { "voltage_kv": 300.0, "from_node": 15, "to_node": 63, "length_km": 148.62593856886087, "delaunay_k": 4, "edge_set": "Delaunay4" }, "geometry": { "type": "LineString", "coordinates": [ [ 6.093292, 61.233245 ], [ 8.690186, 60.798714 ] ] } },
{ "type": "Feature", "properties": { "voltage_kv": 300.0, "from_node": 16, "to_node": 20, "length_km": 112.67703671271099, "delaunay_k": 4, "edge_set": "Delaunay4" }, "geometry": { "type": "LineString", "coordinates": [ [ 6.100159, 60.664433 ], [ 6.432495, 59.667741 ] ] } },
{ "type": "Feature", "properties": { "voltage_kv": 300.0, "from_node": 16, "to_node": 21, "length_km": 123.98459005847344, "delaunay_k": 4, "edge_set": "Delaunay4" }, "geometry": { "type": "LineString", "coordinates": [ [ 6.100159, 60.664433 ], [ 6.481934, 59.569114 ] ] } },
{ "type": "Feature", "properties": { "voltage_kv": 300.0, "from_node": 16, "to_node": 29, "length_km": 95.429964097193604, "delaunay_k": 4, "edge_set": "Delaunay4" }, "geometry": { "type": "LineString", "coordinates": [ [ 6.100159, 60.664433 ], [ 6.745605, 59.871019 ] ] } },
{ "type": "Feature", "properties": { "voltage_kv": 300.0, "from_node": 16, "to_node": 37, "length_km": 115.35791410599028, "delaunay_k": 4, "edge_set": "Delaunay4" }, "geometry": { "type": "LineString", "coordinates": [ [ 6.100159, 60.664433 ], [ 6.904907, 59.710712 ] ] } },
{ "type": "Feature", "properties": { "voltage_kv": 300.0, "from_node": 16, "to_node": 40, "length_km": 112.83739672732334, "delaunay_k": 4, "edge_set": "Delaunay4" }, "geometry": { "type": "LineString", "coordinates": [ [ 6.100159, 60.664433 ], [ 7.080688, 59.777831 ] ] } },
{ "type": "Feature", "properties": { "voltage_kv": 300.0, "from_node": 16, "to_node": 49, "length_km": 124.1512744046849, "delaunay_k": 4, "edge_set": "Delaunay4" }, "geometry": { "type": "LineString", "coordinates": [ [ 6.100159, 60.664433 ], [ 7.36908, 59.747402 ] ] } },
{ "type": "Feature", "properties": { "voltage_kv": 300.0, "from_node": 16, "to_node": 51, "length_km": 113.30023191075423, "delaunay_k": 4, "edge_set": "Delaunay4" }, "geometry": { "type": "LineString", "coordinates": [ [ 6.100159, 60.664433 ], [ 7.436371, 61.447302 ] ] } },
{ "type": "Feature", "properties": { "voltage_kv": 300.0, "from_node": 16, "to_node": 55, "length_km": 149.57942808240128, "delaunay_k": 4, "edge_set": "Delaunay4" }, "geometry": { "type": "LineString", "coordinates": [ [ 6.100159, 60.664433 ], [ 7.819519, 59.632352 ] ] } },
{ "type": "Feature", "properties": { "voltage_kv": 300.0, "from_node": 17, "to_node": 24, "length_km": 133.7451763625233, "delaunay_k": 4, "edge_set": "Delaunay4" }, "geometry": { "type": "LineString", "coordinates": [ [ 6.113892, 59.869641 ], [ 6.60965, 61.043662 ] ] } },
{ "type": "Feature", "properties": { "voltage_kv": 300.0, "from_node": 17, "to_node": 26, "length_km": 69.280769869869985, "delaunay_k": 4, "edge_set": "Delaunay4" }, "geometry": { "type": "LineString", "coordinates": [ [ 6.113892, 59.869641 ], [ 6.663208, 59.314272 ] ] } },
{ "type": "Feature", "properties": { "voltage_kv": 300.0, "from_node": 17, "to_node": 34, "length_km": 143.70111031737514, "delaunay_k": 4, "edge_set": "Delaunay4" }, "geometry": { "type": "LineString", "coordinates": [ [ 6.113892, 59.869641 ], [ 6.871948, 61.10278 ] ] } },
{ "type": "Feature", "properties": { "voltage_kv": 300.0, "from_node": 17, "to_node": 43, "length_km": 102.0541428949138, "delaunay_k": 4, "edge_set": "Delaunay4" }, "geometry": { "type": "LineString", "coordinates": [ [ 6.113892, 59.869641 ], [ 7.119141, 59.110423 ] ] } },
{ "type": "Feature", "properties": { "voltage_kv": 300.0, "from_node": 17, "to_node": 49, "length_km": 71.805370077557356, "delaunay_k": 4, "edge_set": "Delaunay4" }, "geometry": { "type": "LineString", "coordinates": [ [ 6.113892, 59.869641 ], [ 7.36908, 59.747402 ] ] } },
{ "type": "Feature", "properties": { "voltage_kv": 300.0, "from_node": 17, "to_node": 54, "length_km": 93.651418882208006, "delaunay_k": 4, "edge_set": "Delaunay4" }, "geometry": { "type": "LineString", "coordinates": [ [ 6.113892, 59.869641 ], [ 7.772827, 59.780596 ] ] } },
{ "type": "Feature", "properties": { "voltage_kv": 300.0, "from_node": 17, "to_node": 57, "length_km": 110.81917732129817, "delaunay_k": 4, "edge_set": "Delaunay4" }, "geometry": { "type": "LineString", "coordinates": [ [ 6.113892, 59.869641 ], [ 7.901917, 59.457639 ] ] } },
{ "type": "Feature", "properties": { "voltage_kv": 300.0, "from_node": 17, "to_node": 62, "length_km": 135.08923082942729, "delaunay_k": 4, "edge_set": "Delaunay4" }, "geometry": { "type": "LineString", "coordinates": [ [ 6.113892, 59.869641 ], [ 8.524017, 59.912353 ] ] } },
{ "type": "Feature", "properties": { "voltage_kv": 300.0, "from_node": 18, "to_node": 21, "length_km": 105.89055599032292, "delaunay_k": 4, "edge_set": "Delaunay4" }, "geometry": { "type": "LineString", "coordinates": [ [ 6.156464, 60.504583 ], [ 6.481934, 59.569114 ] ] } },
{ "type": "Feature", "properties": { "voltage_kv": 300.0, "from_node": 18, "to_node": 25, "length_km": 119.51839939149014, "delaunay_k": 4, "edge_set": "Delaunay4" }, "geometry": { "type": "LineString", "coordinates": [ [ 6.156464, 60.504583 ], [ 6.650848, 59.461826 ] ] } },
{ "type": "Feature", "properties": { "voltage_kv": 300.0, "from_node": 18, "to_node": 41, "length_km": 101.06939049574268, "delaunay_k": 4, "edge_set": "Delaunay4" }, "geometry": { "type": "LineString", "coordinates": [ [ 6.156464, 60.504583 ], [ 7.086182, 59.725947 ] ] } },
{ "type": "Feature", "properties": { "voltage_kv": 300.0, "from_node": 18, "to_node": 50, "length_km": 136.77349956505685, "delaunay_k": 4, "edge_set": "Delaunay4" }, "geometry": { "type": "LineString", "coordinates": [ [ 6.156464, 60.504583 ], [ 7.410278, 61.569805 ] ] } },
{ "type": "Feature", "properties": { "voltage_kv": 300.0, "from_node": 18, "to_node": 51, "length_km": 125.93687061954117, "delaunay_k": 4, "edge_set": "Delaunay4" }, "geometry": { "type": "LineString", "coordinates": [ [ 6.156464, 60.504583 ], [ 7.436371, 61.447302 ] ] } },
{ "type": "Feature", "properties": { "voltage_kv": 300.0, "from_node": 18, "to_node": 55, "length_km": 134.32554857424623, "delaunay_k": 4, "edge_set": "Delaunay4" }, "geometry": { "type": "LineString", "coordinates": [ [ 6.156464, 60.504583 ], [ 7.819519, 59.632352 ] ] } },
{ "type": "Feature", "properties": { "voltage_kv": 300.0, "from_node": 18, "to_node": 57, "length_km": 152.09119417328827, "delaunay_k": 4, "edge_set": "Delaunay4" }, "geometry": { "type": "LineString", "coordinates": [ [ 6.156464, 60.504583 ], [ 7.901917, 59.457639 ] ] } },
{ "type": "Feature", "properties": { "voltage_kv": 300.0, "from_node": 19, "to_node": 22, "length_km": 74.08285867216766, "delaunay_k": 4, "edge_set": "Delaunay4" }, "geometry": { "type": "LineString", "coordinates": [ [ 6.297913, 60.117566 ], [ 6.491547, 59.460431 ] ] } },
{ "type": "Feature", "properties": { "voltage_kv": 300.0, "from_node": 19, "to_node": 25, "length_km": 75.76398148072127, "delaunay_k": 4, "edge_set": "Delaunay4" }, "geometry": { "type": "LineString", "coordinates": [ [ 6.297913, 60.117566 ], [ 6.650848, 59.461826 ] ] } },
{ "type": "Feature", "properties": { "voltage_kv": 300.0, "from_node": 19, "to_node": 41, "length_km": 62.078363638095851, "delaunay_k": 4, "edge_set": "Delaunay4" }, "geometry": { "type": "LineString", "coordinates": [ [ 6.297913, 60.117566 ], [ 7.086182, 59.725947 ] ] } },
{ "type": "Feature", "properties": { "voltage_kv": 300.0, "from_node": 19, "to_node": 46, "length_km": 138.42983390950326, "delaunay_k": 4, "edge_set": "Delaunay4" }, "geometry": { "type": "LineString", "coordinates": [ [ 6.297913, 60.117566 ], [ 7.293549, 61.259009 ] ] } },
{ "type": "Feature", "properties": { "voltage_kv": 300.0, "from_node": 19, "to_node": 52, "length_km": 145.11007782861049, "delaunay_k": 4, "edge_set": "Delaunay4" }, "geometry": { "type": "LineString", "coordinates": [ [ 6.297913, 60.117566 ], [ 7.439117, 61.292669 ] ] } },
{ "type": "Feature", "properties": { "voltage_kv": 300.0, "from_node": 19, "to_node": 55, "length_km": 100.99143940869153, "delaunay_k": 4, "edge_set": "Delaunay4" }, "geometry": { "type": "LineString", "coordinates": [ [ 6.297913, 60.117566 ], [ 7.819519, 59.632352 ] ] } },
{ "type": "Feature", "properties": { "voltage_kv": 300.0, "from_node": 19, "to_node": 57, "length_km": 116.34725996128959, "delaunay_k": 4, "edge_set": "Delaunay4" }, "geometry": { "type": "LineString", "coordinates": [ [ 6.297913, 60.117566 ], [ 7.901917, 59.457639 ] ] } },
{ "type": "Feature", "properties": { "voltage_kv": 300.0, "from_node": 19, "to_node": 65, "length_km": 139.19830549472772, "delaunay_k": 4, "edge_set": "Delaunay4" }, "geometry": { "type": "LineString", "coordinates": [ [ 6.297913, 60.117566 ], [ 8.760223, 59.917172 ] ] } },
{ "type": "Feature", "properties": { "voltage_kv": 300.0, "from_node": 20, "to_node": 27, "length_km": 68.524274683225443, "delaunay_k": 4, "edge_set": "Delaunay4" }, "geometry": { "type": "LineString", "coordinates": [ [ 6.432495, 59.667741 ], [ 6.696167, 59.068096 ] ] } },
{ "type": "Feature", "properties": { "voltage_kv": 300.0, "from_node": 20, "to_node": 35, "length_km": 67.362731159346993, "delaunay_k": 4, "edge_set": "Delaunay4" }, "geometry": { "type": "LineString", "coordinates": [ [ 6.432495, 59.667741 ], [ 6.889801, 59.110423 ] ] } },
{ "type": "Feature", "properties": { "voltage_kv": 300.0, "from_node": 20, "to_node": 44, "length_km": 84.66732841545641, "delaunay_k": 4, "edge_set": "Delaunay4" }, "geometry": { "type": "LineString", "coordinates": [ [ 6.432495, 59.667741 ], [ 7.120514, 58.994604 ] ] } },
{ "type": "Feature", "properties": { "voltage_kv": 300.0, "from_node": 20, "to_node": 45, "length_km": 149.45554973684537, "delaunay_k": 4, "edge_set": "Delaunay4" }, "geometry": { "type": "LineString", "coordinates": [ [ 6.432495, 59.667741 ], [ 7.216644, 60.950443 ] ] } },
{ "type": "Feature", "properties": { "voltage_kv": 300.0, "from_node": 20, "to_node": 54, "length_km": 76.505037853762772, "delaunay_k": 4, "edge_set": "Delaunay4" }, "geometry": { "type": "LineString", "coordinates": [ [ 6.432495, 59.667741 ], [ 7.772827, 59.780596 ] ] } },
{ "type": "Feature", "properties": { "voltage_kv": 300.0, "from_node": 20, "to_node": 55, "length_km": 78.363951790046144, "delaunay_k": 4, "edge_set": "Delaunay4" }, "geometry": { "type": "LineString", "coordinates": [ [ 6.432495, 59.667741 ], [ 7.819519, 59.632352 ] ] } },
{ "type": "Feature", "properties": { "voltage_kv": 300.0, "from_node": 20, "to_node": 58, "length_km": 131.71395014204114, "delaunay_k": 4, "edge_set": "Delaunay4" }, "geometry": { "type": "LineString", "coordinates": [ [ 6.432495, 59.667741 ], [ 8.088684, 60.511343 ] ] } },
{ "type": "Feature", "properties": { "voltage_kv": 300.0, "from_node": 20, "to_node": 67, "length_km": 140.70033848493182, "delaunay_k": 4, "edge_set": "Delaunay4" }, "geometry": { "type": "LineString", "coordinates": [ [ 6.432495, 59.667741 ], [ 8.87146, 59.422728 ] ] } },
{ "type": "Feature", "properties": { "voltage_kv": 300.0, "from_node": 20, "to_node": 68, "length_km": 138.94809365683787, "delaunay_k": 4, "edge_set": "Delaunay4" }, "geometry": { "type": "LineString", "coordinates": [ [ 6.432495, 59.667741 ], [ 8.87558, 59.525961 ] ] } },
{ "type": "Feature", "properties": { "voltage_kv": 300.0, "from_node": 21, "to_node": 30, "length_km": 78.59681413125827, "delaunay_k": 4, "edge_set": "Delaunay4" }, "geometry": { "type": "LineString", "coordinates": [ [ 6.481934, 59.569114 ], [ 6.756592, 58.878393 ] ] } },
{ "type": "Feature", "properties": { "voltage_kv": 300.0, "from_node": 21, "to_node": 36, "length_km": 78.464462591140062, "delaunay_k": 4, "edge_set": "Delaunay4" }, "geometry": { "type": "LineString", "coordinates": [ [ 6.481934, 59.569114 ], [ 6.892548, 58.897552 ] ] } },
{ "type": "Feature", "properties": { "voltage_kv": 300.0, "from_node": 21, "to_node": 42, "length_km": 88.834595396874363, "delaunay_k": 4, "edge_set": "Delaunay4" }, "geometry": { "type": "LineString", "coordinates": [ [ 6.481934, 59.569114 ], [ 7.115021, 58.841464 ] ] } },
{ "type": "Feature", "properties": { "voltage_kv": 300.0, "from_node": 21, "to_node": 54, "length_km": 76.509429895834387, "delaunay_k": 4, "edge_set": "Delaunay4" }, "geometry": { "type": "LineString", "coordinates": [ [ 6.481934, 59.569114 ], [ 7.772827, 59.780596 ] ] } },
{ "type": "Feature", "properties": { "voltage_kv": 300.0, "from_node": 21, "to_node": 55, "length_km": 75.91332158234782, "delaunay_k": 4, "edge_set": "Delaunay4" }, "geometry": { "type": "LineString", "coordinates": [ [ 6.481934, 59.569114 ], [ 7.819519, 59.632352 ] ] } },
{ "type": "Feature", "properties": { "voltage_kv": 300.0, "from_node": 21, "to_node": 58, "length_km": 138.06083005561197, "delaunay_k": 4, "edge_set": "Delaunay4" }, "geometry": { "type": "LineString", "coordinates": [ [ 6.481934, 59.569114 ], [ 8.088684, 60.511343 ] ] } },
{ "type": "Feature", "properties": { "voltage_kv": 300.0, "from_node": 21, "to_node": 67, "length_km": 136.40372413430575, "delaunay_k": 4, "edge_set": "Delaunay4" }, "geometry": { "type": "LineString", "coordinates": [ [ 6.481934, 59.569114 ], [ 8.87146, 59.422728 ] ] } },
{ "type": "Feature", "properties": { "voltage_kv": 300.0, "from_node": 21, "to_node": 68, "length_km": 135.53612620882265, "delaunay_k": 4, "edge_set": "Delaunay4" }, "geometry": { "type": "LineString", "coordinates": [ [ 6.481934, 59.569114 ], [ 8.87558, 59.525961 ] ] } },
{ "type": "Feature", "properties": { "voltage_kv": 300.0, "from_node": 22, "to_node": 28, "length_km": 68.573168075749749, "delaunay_k": 4, "edge_set": "Delaunay4" }, "geometry": { "type": "LineString", "coordinates": [ [ 6.491547, 59.460431 ], [ 6.70166, 60.066211 ] ] } },
{ "type": "Feature", "properties": { "voltage_kv": 300.0, "from_node": 22, "to_node": 32, "length_km": 79.501673293685187, "delaunay_k": 4, "edge_set": "Delaunay4" }, "geometry": { "type": "LineString", "coordinates": [ [ 6.491547, 59.460431 ], [ 6.797791, 60.156543 ] ] } },
{ "type": "Feature", "properties": { "voltage_kv": 300.0, "from_node": 22, "to_node": 33, "length_km": 91.266031779523857, "delaunay_k": 4, "edge_set": "Delaunay4" }, "geometry": { "type": "LineString", "coordinates": [ [ 6.491547, 59.460431 ], [ 6.82251, 58.659799 ] ] } },
{ "type": "Feature", "properties": { "voltage_kv": 300.0, "from_node": 22, "to_node": 42, "length_km": 77.697718636535399, "delaunay_k": 4, "edge_set": "Delaunay4" }, "geometry": { "type": "LineString", "coordinates": [ [ 6.491547, 59.460431 ], [ 7.115021, 58.841464 ] ] } },
{ "type": "Feature", "properties": { "voltage_kv": 300.0, "from_node": 22, "to_node": 48, "length_km": 61.447334971701871, "delaunay_k": 4, "edge_set": "Delaunay4" }, "geometry": { "type": "LineString", "coordinates": [ [ 6.491547, 59.460431 ], [ 7.34024, 59.805469 ] ] } },
{ "type": "Feature", "properties": { "voltage_kv": 300.0, "from_node": 22, "to_node": 54, "length_km": 80.684856841915817, "delaunay_k": 4, "edge_set": "Delaunay4" }, "geometry": { "type": "LineString", "coordinates": [ [ 6.491547, 59.460431 ], [ 7.772827, 59.780596 ] ] } },
{ "type": "Feature", "properties": { "voltage_kv": 300.0, "from_node": 22, "to_node": 55, "length_km": 77.568071411671468, "delaunay_k": 4, "edge_set": "Delaunay4" }, "geometry": { "type": "LineString", "coordinates": [ [ 6.491547, 59.460431 ], [ 7.819519, 59.632352 ] ] } },
{ "type": "Feature", "properties": { "voltage_kv": 300.0, "from_node": 22, "to_node": 67, "length_km": 135.16205818015447, "delaunay_k": 4, "edge_set": "Delaunay4" }, "geometry": { "type": "LineString", "coordinates": [ [ 6.491547, 59.460431 ], [ 8.87146, 59.422728 ] ] } },
{ "type": "Feature", "properties": { "voltage_kv": 300.0, "from_node": 22, "to_node": 68, "length_km": 135.3213902304708, "delaunay_k": 4, "edge_set": "Delaunay4" }, "geometry": { "type": "LineString", "coordinates": [ [ 6.491547, 59.460431 ], [ 8.87558, 59.525961 ] ] } },
{ "type": "Feature", "properties": { "voltage_kv": 300.0, "from_node": 23, "to_node": 26, "length_km": 105.06168322187726, "delaunay_k": 4, "edge_set": "Delaunay4" }, "geometry": { "type": "LineString", "coordinates": [ [ 6.554718, 58.373638 ], [ 6.663208, 59.314272 ] ] } },
{ "type": "Feature", "properties": { "voltage_kv": 300.0, "from_node": 23, "to_node": 43, "length_km": 88.411511053752363, "delaunay_k": 4, "edge_set": "Delaunay4" }, "geometry": { "type": "LineString", "coordinates": [ [ 6.554718, 58.373638 ], [ 7.119141, 59.110423 ] ] } },
{ "type": "Feature", "properties": { "voltage_kv": 300.0, "from_node": 23, "to_node": 57, "length_km": 143.63950950113929, "delaunay_k": 4, "edge_set": "Delaunay4" }, "geometry": { "type": "LineString", "coordinates": [ [ 6.554718, 58.373638 ], [ 7.901917, 59.457639 ] ] } },
{ "type": "Feature", "properties": { "voltage_kv": 300.0, "from_node": 24, "to_node": 29, "length_km": 130.97443719405581, "delaunay_k": 4, "edge_set": "Delaunay4" }, "geometry": { "type": "LineString", "coordinates": [ [ 6.60965, 61.043662 ], [ 6.745605, 59.871019 ] ] } },
{ "type": "Feature", "properties": { "voltage_kv": 300.0, "from_node": 24, "to_node": 37, "length_km": 149.52137679315777, "delaunay_k": 4, "edge_set": "Delaunay4" }, "geometry": { "type": "LineString", "coordinates": [ [ 6.60965, 61.043662 ], [ 6.904907, 59.710712 ] ] } },
{ "type": "Feature", "properties": { "voltage_kv": 300.0, "from_node": 24, "to_node": 40, "length_km": 143.51241772984554, "delaunay_k": 4, "edge_set": "Delaunay4" }, "geometry": { "type": "LineString", "coordinates": [ [ 6.60965, 61.043662 ], [ 7.080688, 59.777831 ] ] } },
{ "type": "Feature", "properties": { "voltage_kv": 300.0, "from_node": 24, "to_node": 49, "length_km": 150.47673753296303, "delaunay_k": 4, "edge_set": "Delaunay4" }, "geometry": { "type": "LineString", "coordinates": [ [ 6.60965, 61.043662 ], [ 7.36908, 59.747402 ] ] } },
{ "type": "Feature", "properties": { "voltage_kv": 300.0, "from_node": 25, "to_node": 33, "length_km": 89.960010043756157, "delaunay_k": 4, "edge_set": "Delaunay4" }, "geometry": { "type": "LineString", "coordinates": [ [ 6.650848, 59.461826 ], [ 6.82251, 58.659799 ] ] } },
{ "type": "Feature", "properties": { "voltage_kv": 300.0, "from_node": 25, "to_node": 39, "length_km": 133.22885850567525, "delaunay_k": 4, "edge_set": "Delaunay4" }, "geometry": { "type": "LineString", "coordinates": [ [ 6.650848, 59.461826 ], [ 7.001038, 58.28062 ] ] } },
{ "type": "Feature", "properties": { "voltage_kv": 300.0, "from_node": 25, "to_node": 58, "length_km": 141.90502296732808, "delaunay_k": 4, "edge_set": "Delaunay4" }, "geometry": { "type": "LineString", "coordinates": [ [ 6.650848, 59.461826 ], [ 8.088684, 60.511343 ] ] } },
{ "type": "Feature", "properties": { "voltage_kv": 300.0, "from_node": 25, "to_node": 62, "length_km": 116.8979359243414, "delaunay_k": 4, "edge_set": "Delaunay4" }, "geometry": { "type": "LineString", "coordinates": [ [ 6.650848, 59.461826 ], [ 8.524017, 59.912353 ] ] } },
{ "type": "Feature", "properties": { "voltage_kv": 300.0, "from_node": 25, "to_node": 65, "length_km": 129.24214247186762, "delaunay_k": 4, "edge_set": "Delaunay4" }, "geometry": { "type": "LineString", "coordinates": [ [ 6.650848, 59.461826 ], [ 8.760223, 59.917172 ] ] } },
{ "type": "Feature", "properties": { "voltage_kv": 300.0, "from_node": 26, "to_node": 28, "length_km": 83.869319460066919, "delaunay_k": 4, "edge_set": "Delaunay4" }, "geometry": { "type": "LineString", "coordinates": [ [ 6.663208, 59.314272 ], [ 6.70166, 60.066211 ] ] } },
{ "type": "Feature", "properties": { "voltage_kv": 300.0, "from_node": 26, "to_node": 31, "length_km": 134.00722568792568, "delaunay_k": 4, "edge_set": "Delaunay4" }, "geometry": { "type": "LineString", "coordinates": [ [ 6.663208, 59.314272 ], [ 6.764832, 58.11344 ] ] } },
{ "type": "Feature", "properties": { "voltage_kv": 300.0, "from_node": 26, "to_node": 32, "length_km": 94.217226399545567, "delaunay_k": 4, "edge_set": "Delaunay4" }, "geometry": { "type": "LineString", "coordinates": [ [ 6.663208, 59.314272 ], [ 6.797791, 60.156543 ] ] } },
{ "type": "Feature", "properties": { "voltage_kv": 300.0, "from_node": 26, "to_node": 39, "length_km": 116.88072085818864, "delaunay_k": 4, "edge_set": "Delaunay4" }, "geometry": { "type": "LineString", "coordinates": [ [ 6.663208, 59.314272 ], [ 7.001038, 58.28062 ] ] } },
{ "type": "Feature", "properties": { "voltage_kv": 300.0, "from_node": 26, "to_node": 48, "length_km": 66.829600029717085, "delaunay_k": 4, "edge_set": "Delaunay4" }, "geometry": { "type": "LineString", "coordinates": [ [ 6.663208, 59.314272 ], [ 7.34024, 59.805469 ] ] } },
{ "type": "Feature", "properties": { "voltage_kv": 300.0, "from_node": 26, "to_node": 54, "length_km": 81.524741962573557, "delaunay_k": 4, "edge_set": "Delaunay4" }, "geometry": { "type": "LineString", "coordinates": [ [ 6.663208, 59.314272 ], [ 7.772827, 59.780596 ] ] } },
{ "type": "Feature", "properties": { "voltage_kv": 300.0, "from_node": 26, "to_node": 59, "length_km": 145.44731494752938, "delaunay_k": 4, "edge_set": "Delaunay4" }, "geometry": { "type": "LineString", "coordinates": [ [ 6.663208, 59.314272 ], [ 8.102417, 58.2445 ] ] } },
{ "type": "Feature", "properties": { "voltage_kv": 300.0, "from_node": 26, "to_node": 62, "length_km": 124.45482440603945, "delaunay_k": 4, "edge_set": "Delaunay4" }, "geometry": { "type": "LineString", "coordinates": [ [ 6.663208, 59.314272 ], [ 8.524017, 59.912353 ] ] } },
{ "type": "Feature", "properties": { "voltage_kv": 300.0, "from_node": 26, "to_node": 65, "length_km": 136.15947769564664, "delaunay_k": 4, "edge_set": "Delaunay4" }, "geometry": { "type": "LineString", "coordinates": [ [ 6.663208, 59.314272 ], [ 8.760223, 59.917172 ] ] } },
{ "type": "Feature", "properties": { "voltage_kv": 300.0, "from_node": 27, "to_node": 29, "length_km": 89.566665071059745, "delaunay_k": 4, "edge_set": "Delaunay4" }, "geometry": { "type": "LineString", "coordinates": [ [ 6.696167, 59.068096 ], [ 6.745605, 59.871019 ] ] } },
{ "type": "Feature", "properties": { "voltage_kv": 300.0, "from_node": 27, "to_node": 38, "length_km": 87.204993459373014, "delaunay_k": 4, "edge_set": "Delaunay4" }, "geometry": { "type": "LineString", "coordinates": [ [ 6.696167, 59.068096 ], [ 6.968079, 59.837916 ] ] } },
{ "type": "Feature", "properties": { "voltage_kv": 300.0, "from_node": 27, "to_node": 40, "length_km": 82.087541434779936, "delaunay_k": 4, "edge_set": "Delaunay4" }, "geometry": { "type": "LineString", "coordinates": [ [ 6.696167, 59.068096 ], [ 7.080688, 59.777831 ] ] } },
{ "type": "Feature", "properties": { "voltage_kv": 300.0, "from_node": 27, "to_node": 49, "length_km": 84.839794467759731, "delaunay_k": 4, "edge_set": "Delaunay4" }, "geometry": { "type": "LineString", "coordinates": [ [ 6.696167, 59.068096 ], [ 7.36908, 59.747402 ] ] } },
{ "type": "Feature", "properties": { "voltage_kv": 300.0, "from_node": 27, "to_node": 55, "length_km": 89.69780993618599, "delaunay_k": 4, "edge_set": "Delaunay4" }, "geometry": { "type": "LineString", "coordinates": [ [ 6.696167, 59.068096 ], [ 7.819519, 59.632352 ] ] } },
{ "type": "Feature", "properties": { "voltage_kv": 300.0, "from_node": 27, "to_node": 67, "length_km": 130.33005053935443, "delaunay_k": 4, "edge_set": "Delaunay4" }, "geometry": { "type": "LineString", "coordinates": [ [ 6.696167, 59.068096 ], [ 8.87146, 59.422728 ] ] } },
{ "type": "Feature", "properties": { "voltage_kv": 300.0, "from_node": 27, "to_node": 68, "length_km": 134.31034359352105, "delaunay_k": 4, "edge_set": "Delaunay4" }, "geometry": { "type": "LineString", "coordinates": [ [ 6.696167, 59.068096 ], [ 8.87558, 59.525961 ] ] } },
{ "type": "Feature", "properties": { "voltage_kv": 300.0, "from_node": 28, "to_node": 43, "length_km": 109.14268257219851, "delaunay_k": 4, "edge_set": "Delaunay4" }, "geometry": { "type": "LineString", "coordinates": [ [ 6.70166, 60.066211 ], [ 7.119141, 59.110423 ] ] } },
{ "type": "Feature", "properties": { "voltage_kv": 300.0, "from_node": 28, "to_node": 46, "length_km": 136.88231515262413, "delaunay_k": 4, "edge_set": "Delaunay4" }, "geometry": { "type": "LineString", "coordinates": [ [ 6.70166, 60.066211 ], [ 7.293549, 61.259009 ] ] } },
{ "type": "Feature", "properties": { "voltage_kv": 300.0, "from_node": 28, "to_node": 52, "length_km": 142.56845835055393, "delaunay_k": 4, "edge_set": "Delaunay4" }, "geometry": { "type": "LineString", "coordinates": [ [ 6.70166, 60.066211 ], [ 7.439117, 61.292669 ] ] } },
{ "type": "Feature", "properties": { "voltage_kv": 300.0, "from_node": 28, "to_node": 55, "length_km": 79.185692726841665, "delaunay_k": 4, "edge_set": "Delaunay4" }, "geometry": { "type": "LineString", "coordinates": [ [ 6.70166, 60.066211 ], [ 7.819519, 59.632352 ] ] } },
{ "type": "Feature", "properties": { "voltage_kv": 300.0, "from_node": 28, "to_node": 57, "length_km": 95.697202830384256, "delaunay_k": 4, "edge_set": "Delaunay4" }, "geometry": { "type": "LineString", "coordinates": [ [ 6.70166, 60.066211 ], [ 7.901917, 59.457639 ] ] } },
{ "type": "Feature", "properties": { "voltage_kv": 300.0, "from_node": 28, "to_node": 65, "length_km": 116.14410645646225, "delaunay_k": 4, "edge_set": "Delaunay4" }, "geometry": { "type": "LineString", "coordinates": [ [ 6.70166, 60.066211 ], [ 8.760223, 59.917172 ] ] } },
{ "type": "Feature", "properties": { "voltage_kv": 300.0, "from_node": 28, "to_node": 68, "length_km": 136.14298335983128, "delaunay_k": 4, "edge_set": "Delaunay4" }, "geometry": { "type": "LineString", "coordinates": [ [ 6.70166, 60.066211 ], [ 8.87558, 59.525961 ] ] } },
{ "type": "Feature", "properties": { "voltage_kv": 300.0, "from_node": 29, "to_node": 34, "length_km": 137.52273914453244, "delaunay_k": 4, "edge_set": "Delaunay4" }, "geometry": { "type": "LineString", "coordinates": [ [ 6.745605, 59.871019 ], [ 6.871948, 61.10278 ] ] } },
{ "type": "Feature", "properties": { "voltage_kv": 300.0, "from_node": 29, "to_node": 35, "length_km": 85.193846260356068, "delaunay_k": 4, "edge_set": "Delaunay4" }, "geometry": { "type": "LineString", "coordinates": [ [ 6.745605, 59.871019 ], [ 6.889801, 59.110423 ] ] } },
{ "type": "Feature", "properties": { "voltage_kv": 300.0, "from_node": 29, "to_node": 44, "length_km": 100.00183510804752, "delaunay_k": 4, "edge_set": "Delaunay4" }, "geometry": { "type": "LineString", "coordinates": [ [ 6.745605, 59.871019 ], [ 7.120514, 58.994604 ] ] } },
{ "type": "Feature", "properties": { "voltage_kv": 300.0, "from_node": 29, "to_node": 47, "length_km": 152.4570596359799, "delaunay_k": 4, "edge_set": "Delaunay4" }, "geometry": { "type": "LineString", "coordinates": [ [ 6.745605, 59.871019 ], [ 7.338867, 61.206798 ] ] } },
{ "type": "Feature", "properties": { "voltage_kv": 300.0, "from_node": 29, "to_node": 55, "length_km": 66.009725603781988, "delaunay_k": 4, "edge_set": "Delaunay4" }, "geometry": { "type": "LineString", "coordinates": [ [ 6.745605, 59.871019 ], [ 7.819519, 59.632352 ] ] } },
{ "type": "Feature", "properties": { "voltage_kv": 300.0, "from_node": 29, "to_node": 56, "length_km": 145.31039685848839, "delaunay_k": 4, "edge_set": "Delaunay4" }, "geometry": { "type": "LineString", "coordinates": [ [ 6.745605, 59.871019 ], [ 7.892303, 61.044991 ] ] } },
{ "type": "Feature", "properties": { "voltage_kv": 300.0, "from_node": 29, "to_node": 60, "length_km": 141.28004071346615, "delaunay_k": 4, "edge_set": "Delaunay4" }, "geometry": { "type": "LineString", "coordinates": [ [ 6.745605, 59.871019 ], [ 8.311157, 60.873666 ] ] } },
{ "type": "Feature", "properties": { "voltage_kv": 300.0, "from_node": 29, "to_node": 62, "length_km": 99.716192492466462, "delaunay_k": 4, "edge_set": "Delaunay4" }, "geometry": { "type": "LineString", "coordinates": [ [ 6.745605, 59.871019 ], [ 8.524017, 59.912353 ] ] } },
{ "type": "Feature", "properties": { "voltage_kv": 300.0, "from_node": 29, "to_node": 63, "length_km": 149.12868554330171, "delaunay_k": 4, "edge_set": "Delaunay4" }, "geometry": { "type": "LineString", "coordinates": [ [ 6.745605, 59.871019 ], [ 8.690186, 60.798714 ] ] } },
{ "type": "Feature", "properties": { "voltage_kv": 300.0, "from_node": 29, "to_node": 64, "length_km": 137.50477589429133, "delaunay_k": 4, "edge_set": "Delaunay4" }, "geometry": { "type": "LineString", "coordinates": [ [ 6.745605, 59.871019 ], [ 8.75885, 60.591688 ] ] } },
{ "type": "Feature", "properties": { "voltage_kv": 300.0, "from_node": 29, "to_node": 67, "length_km": 129.928039323148, "delaunay_k": 4, "edge_set": "Delaunay4" }, "geometry": { "type": "LineString", "coordinates": [ [ 6.745605, 59.871019 ], [ 8.87146, 59.422728 ] ] } },
{ "type": "Feature", "properties": { "voltage_kv": 300.0, "from_node": 29, "to_node": 68, "length_km": 125.99819044726968, "delaunay_k": 4, "edge_set": "Delaunay4" }, "geometry": { "type": "LineString", "coordinates": [ [ 6.745605, 59.871019 ], [ 8.87558, 59.525961 ] ] } },
{ "type": "Feature", "properties": { "voltage_kv": 300.0, "from_node": 30, "to_node": 37, "length_km": 93.179561567647838, "delaunay_k": 4, "edge_set": "Delaunay4" }, "geometry": { "type": "LineString", "coordinates": [ [ 6.756592, 58.878393 ], [ 6.904907, 59.710712 ] ] } },
{ "type": "Feature", "properties": { "voltage_kv": 300.0, "from_node": 30, "to_node": 41, "length_km": 96.340733373316809, "delaunay_k": 4, "edge_set": "Delaunay4" }, "geometry": { "type": "LineString", "coordinates": [ [ 6.756592, 58.878393 ], [ 7.086182, 59.725947 ] ] } },
{ "type": "Feature", "properties": { "voltage_kv": 300.0, "from_node": 30, "to_node": 49, "length_km": 102.97442297234501, "delaunay_k": 4, "edge_set": "Delaunay4" }, "geometry": { "type": "LineString", "coordinates": [ [ 6.756592, 58.878393 ], [ 7.36908, 59.747402 ] ] } },
{ "type": "Feature", "properties": { "voltage_kv": 300.0, "from_node": 30, "to_node": 55, "length_km": 103.65821122335797, "delaunay_k": 4, "edge_set": "Delaunay4" }, "geometry": { "type": "LineString", "coordinates": [ [ 6.756592, 58.878393 ], [ 7.819519, 59.632352 ] ] } },
{ "type": "Feature", "properties": { "voltage_kv": 300.0, "from_node": 30, "to_node": 67, "length_km": 135.42413298412936, "delaunay_k": 4, "edge_set": "Delaunay4" }, "geometry": { "type": "LineString", "coordinates": [ [ 6.756592, 58.878393 ], [ 8.87146, 59.422728 ] ] } },
{ "type": "Feature", "properties": { "voltage_kv": 300.0, "from_node": 30, "to_node": 68, "length_km": 140.9986840490663, "delaunay_k": 4, "edge_set": "Delaunay4" }, "geometry": { "type": "LineString", "coordinates": [ [ 6.756592, 58.878393 ], [ 8.87558, 59.525961 ] ] } },
{ "type": "Feature", "properties": { "voltage_kv": 300.0, "from_node": 31, "to_node": 35, "length_km": 111.38258519088258, "delaunay_k": 4, "edge_set": "Delaunay4" }, "geometry": { "type": "LineString", "coordinates": [ [ 6.764832, 58.11344 ], [ 6.889801, 59.110423 ] ] } },
{ "type": "Feature", "properties": { "voltage_kv": 300.0, "from_node": 31, "to_node": 43, "length_km": 113.03485261546247, "delaunay_k": 4, "edge_set": "Delaunay4" }, "geometry": { "type": "LineString", "coordinates": [ [ 6.764832, 58.11344 ], [ 7.119141, 59.110423 ] ] } },
{ "type": "Feature", "properties": { "voltage_kv": 300.0, "from_node": 32, "to_node": 43, "length_km": 118.03280782135239, "delaunay_k": 4, "edge_set": "Delaunay4" }, "geometry": { "type": "LineString", "coordinates": [ [ 6.797791, 60.156543 ], [ 7.119141, 59.110423 ] ] } },
{ "type": "Feature", "properties": { "voltage_kv": 300.0, "from_node": 32, "to_node": 44, "length_km": 130.82116133596165, "delaunay_k": 4, "edge_set": "Delaunay4" }, "geometry": { "type": "LineString", "coordinates": [ [ 6.797791, 60.156543 ], [ 7.120514, 58.994604 ] ] } },
{ "type": "Feature", "properties": { "voltage_kv": 300.0, "from_node": 32, "to_node": 51, "length_km": 148.06010049860231, "delaunay_k": 4, "edge_set": "Delaunay4" }, "geometry": { "type": "LineString", "coordinates": [ [ 6.797791, 60.156543 ], [ 7.436371, 61.447302 ] ] } },
{ "type": "Feature", "properties": { "voltage_kv": 300.0, "from_node": 32, "to_node": 67, "length_km": 142.33582442111464, "delaunay_k": 4, "edge_set": "Delaunay4" }, "geometry": { "type": "LineString", "coordinates": [ [ 6.797791, 60.156543 ], [ 8.87146, 59.422728 ] ] } },
{ "type": "Feature", "properties": { "voltage_kv": 300.0, "from_node": 33, "to_node": 41, "length_km": 119.81075130206436, "delaunay_k": 4, "edge_set": "Delaunay4" }, "geometry": { "type": "LineString", "coordinates": [ [ 6.82251, 58.659799 ], [ 7.086182, 59.725947 ] ] } },
{ "type": "Feature", "properties": { "voltage_kv": 300.0, "from_node": 33, "to_node": 49, "length_km": 125.20603506243837, "delaunay_k": 4, "edge_set": "Delaunay4" }, "geometry": { "type": "LineString", "coordinates": [ [ 6.82251, 58.659799 ], [ 7.36908, 59.747402 ] ] } },
{ "type": "Feature", "properties": { "voltage_kv": 300.0, "from_node": 33, "to_node": 55, "length_km": 122.52410780232877, "delaunay_k": 4, "edge_set": "Delaunay4" }, "geometry": { "type": "LineString", "coordinates": [ [ 6.82251, 58.659799 ], [ 7.819519, 59.632352 ] ] } },
{ "type": "Feature", "properties": { "voltage_kv": 300.0, "from_node": 33, "to_node": 68, "length_km": 152.24644057436879, "delaunay_k": 4, "edge_set": "Delaunay4" }, "geometry": { "type": "LineString", "coordinates": [ [ 6.82251, 58.659799 ], [ 8.87558, 59.525961 ] ] } },
{ "type": "Feature", "properties": { "voltage_kv": 300.0, "from_node": 34, "to_node": 40, "length_km": 148.17566213092942, "delaunay_k": 4, "edge_set": "Delaunay4" }, "geometry": { "type": "LineString", "coordinates": [ [ 6.871948, 61.10278 ], [ 7.080688, 59.777831 ] ] } },
{ "type": "Feature", "properties": { "voltage_kv": 300.0, "from_node": 35, "to_node": 38, "length_km": 81.228143086481026, "delaunay_k": 4, "edge_set": "Delaunay4" }, "geometry": { "type": "LineString", "coordinates": [ [ 6.889801, 59.110423 ], [ 6.968079, 59.837916 ] ] } },
{ "type": "Feature", "properties": { "voltage_kv": 300.0, "from_node": 35, "to_node": 48, "length_km": 81.59156267507251, "delaunay_k": 4, "edge_set": "Delaunay4" }, "geometry": { "type": "LineString", "coordinates": [ [ 6.889801, 59.110423 ], [ 7.34024, 59.805469 ] ] } },
{ "type": "Feature", "properties": { "voltage_kv": 300.0, "from_node": 35, "to_node": 54, "length_km": 89.963464855297076, "delaunay_k": 4, "edge_set": "Delaunay4" }, "geometry": { "type": "LineString", "coordinates": [ [ 6.889801, 59.110423 ], [ 7.772827, 59.780596 ] ] } },
{ "type": "Feature", "properties": { "voltage_kv": 300.0, "from_node": 35, "to_node": 62, "length_km": 128.68123802093524, "delaunay_k": 4, "edge_set": "Delaunay4" }, "geometry": { "type": "LineString", "coordinates": [ [ 6.889801, 59.110423 ], [ 8.524017, 59.912353 ] ] } },
{ "type": "Feature", "properties": { "voltage_kv": 300.0, "from_node": 35, "to_node": 65, "length_km": 138.95460726553048, "delaunay_k": 4, "edge_set": "Delaunay4" }, "geometry": { "type": "LineString", "coordinates": [ [ 6.889801, 59.110423 ], [ 8.760223, 59.917172 ] ] } },
{ "type": "Feature", "properties": { "voltage_kv": 300.0, "from_node": 36, "to_node": 37, "length_km": 90.659521380674988, "delaunay_k": 4, "edge_set": "Delaunay4" }, "geometry": { "type": "LineString", "coordinates": [ [ 6.892548, 58.897552 ], [ 6.904907, 59.710712 ] ] } },
{ "type": "Feature", "properties": { "voltage_kv": 300.0, "from_node": 36, "to_node": 40, "length_km": 98.720267577572855, "delaunay_k": 4, "edge_set": "Delaunay4" }, "geometry": { "type": "LineString", "coordinates": [ [ 6.892548, 58.897552 ], [ 7.080688, 59.777831 ] ] } },
{ "type": "Feature", "properties": { "voltage_kv": 300.0, "from_node": 36, "to_node": 48, "length_km": 104.37305937042244, "delaunay_k": 4, "edge_set": "Delaunay4" }, "geometry": { "type": "LineString", "coordinates": [ [ 6.892548, 58.897552 ], [ 7.34024, 59.805469 ] ] } },
{ "type": "Feature", "properties": { "voltage_kv": 300.0, "from_node": 36, "to_node": 54, "length_km": 110.46116770468988, "delaunay_k": 4, "edge_set": "Delaunay4" }, "geometry": { "type": "LineString", "coordinates": [ [ 6.892548, 58.897552 ], [ 7.772827, 59.780596 ] ] } },
{ "type": "Feature", "properties": { "voltage_kv": 300.0, "from_node": 36, "to_node": 62, "length_km": 146.24489477066172, "delaunay_k": 4, "edge_set": "Delaunay4" }, "geometry": { "type": "LineString", "coordinates": [ [ 6.892548, 58.897552 ], [ 8.524017, 59.912353 ] ] } },
{ "type": "Feature", "properties": { "voltage_kv": 300.0, "from_node": 37, "to_node": 42, "length_km": 97.644398499788025, "delaunay_k": 4, "edge_set": "Delaunay4" }, "geometry": { "type": "LineString", "coordinates": [ [ 6.904907, 59.710712 ], [ 7.115021, 58.841464 ] ] } },
{ "type": "Feature", "properties": { "voltage_kv": 300.0, "from_node": 37, "to_node": 60, "length_km": 151.19546624932968, "delaunay_k": 4, "edge_set": "Delaunay4" }, "geometry": { "type": "LineString", "coordinates": [ [ 6.904907, 59.710712 ], [ 8.311157, 60.873666 ] ] } },
{ "type": "Feature", "properties": { "voltage_kv": 300.0, "from_node": 37, "to_node": 62, "length_km": 93.640999834054711, "delaunay_k": 4, "edge_set": "Delaunay4" }, "geometry": { "type": "LineString", "coordinates": [ [ 6.904907, 59.710712 ], [ 8.524017, 59.912353 ] ] } },
{ "type": "Feature", "properties": { "voltage_kv": 300.0, "from_node": 37, "to_node": 64, "length_km": 142.32026043872511, "delaunay_k": 4, "edge_set": "Delaunay4" }, "geometry": { "type": "LineString", "coordinates": [ [ 6.904907, 59.710712 ], [ 8.75885, 60.591688 ] ] } },
{ "type": "Feature", "properties": { "voltage_kv": 300.0, "from_node": 37, "to_node": 65, "length_km": 106.66575059170582, "delaunay_k": 4, "edge_set": "Delaunay4" }, "geometry": { "type": "LineString", "coordinates": [ [ 6.904907, 59.710712 ], [ 8.760223, 59.917172 ] ] } },
{ "type": "Feature", "properties": { "voltage_kv": 300.0, "from_node": 38, "to_node": 44, "length_km": 94.412855829288958, "delaunay_k": 4, "edge_set": "Delaunay4" }, "geometry": { "type": "LineString", "coordinates": [ [ 6.968079, 59.837916 ], [ 7.120514, 58.994604 ] ] } },
{ "type": "Feature", "properties": { "voltage_kv": 300.0, "from_node": 38, "to_node": 65, "length_km": 100.80300933661195, "delaunay_k": 4, "edge_set": "Delaunay4" }, "geometry": { "type": "LineString", "coordinates": [ [ 6.968079, 59.837916 ], [ 8.760223, 59.917172 ] ] } },
{ "type": "Feature", "properties": { "voltage_kv": 300.0, "from_node": 38, "to_node": 67, "length_km": 116.97752790658828, "delaunay_k": 4, "edge_set": "Delaunay4" }, "geometry": { "type": "LineString", "coordinates": [ [ 6.968079, 59.837916 ], [ 8.87146, 59.422728 ] ] } },
{ "type": "Feature", "properties": { "voltage_kv": 300.0, "from_node": 38, "to_node": 68, "length_km": 112.98617303683582, "delaunay_k": 4, "edge_set": "Delaunay4" }, "geometry": { "type": "LineString", "coordinates": [ [ 6.968079, 59.837916 ], [ 8.87558, 59.525961 ] ] } },
{ "type": "Feature", "properties": { "voltage_kv": 300.0, "from_node": 40, "to_node": 42, "length_km": 104.40404687233553, "delaunay_k": 4, "edge_set": "Delaunay4" }, "geometry": { "type": "LineString", "coordinates": [ [ 7.080688, 59.777831 ], [ 7.115021, 58.841464 ] ] } },
{ "type": "Feature", "properties": { "voltage_kv": 300.0, "from_node": 40, "to_node": 65, "length_km": 95.461156990646344, "delaunay_k": 4, "edge_set": "Delaunay4" }, "geometry": { "type": "LineString", "coordinates": [ [ 7.080688, 59.777831 ], [ 8.760223, 59.917172 ] ] } },
{ "type": "Feature", "properties": { "voltage_kv": 300.0, "from_node": 40, "to_node": 71, "length_km": 152.61116655954564, "delaunay_k": 4, "edge_set": "Delaunay4" }, "geometry": { "type": "LineString", "coordinates": [ [ 7.080688, 59.777831 ], [ 9.593811, 59.282019 ] ] } },
{ "type": "Feature", "properties": { "voltage_kv": 300.0, "from_node": 41, "to_node": 45, "length_km": 136.70989810564788, "delaunay_k": 4, "edge_set": "Delaunay4" }, "geometry": { "type": "LineString", "coordinates": [ [ 7.086182, 59.725947 ], [ 7.216644, 60.950443 ] ] } },
{ "type": "Feature", "properties": { "voltage_kv": 300.0, "from_node": 41, "to_node": 60, "length_km": 144.77380881084173, "delaunay_k": 4, "edge_set": "Delaunay4" }, "geometry": { "type": "LineString", "coordinates": [ [ 7.086182, 59.725947 ], [ 8.311157, 60.873666 ] ] } },
{ "type": "Feature", "properties": { "voltage_kv": 300.0, "from_node": 41, "to_node": 63, "length_km": 148.9560402540219, "delaunay_k": 4, "edge_set": "Delaunay4" }, "geometry": { "type": "LineString", "coordinates": [ [ 7.086182, 59.725947 ], [ 8.690186, 60.798714 ] ] } },
{ "type": "Feature", "properties": { "voltage_kv": 300.0, "from_node": 41, "to_node": 64, "length_km": 133.96241204708684, "delaunay_k": 4, "edge_set": "Delaunay4" }, "geometry": { "type": "LineString", "coordinates": [ [ 7.086182, 59.725947 ], [ 8.75885, 60.591688 ] ] } },
{ "type": "Feature", "properties": { "voltage_kv": 300.0, "from_node": 42, "to_node": 48, "length_km": 108.22565110499616, "delaunay_k": 4, "edge_set": "Delaunay4" }, "geometry": { "type": "LineString", "coordinates": [ [ 7.115021, 58.841464 ], [ 7.34024, 59.805469 ] ] } },
{ "type": "Feature", "properties": { "voltage_kv": 300.0, "from_node": 42, "to_node": 54, "length_km": 111.19153456710747, "delaunay_k": 4, "edge_set": "Delaunay4" }, "geometry": { "type": "LineString", "coordinates": [ [ 7.115021, 58.841464 ], [ 7.772827, 59.780596 ] ] } },
{ "type": "Feature", "properties": { "voltage_kv": 300.0, "from_node": 42, "to_node": 62, "length_km": 143.75687504156869, "delaunay_k": 4, "edge_set": "Delaunay4" }, "geometry": { "type": "LineString", "coordinates": [ [ 7.115021, 58.841464 ], [ 8.524017, 59.912353 ] ] } },
{ "type": "Feature", "properties": { "voltage_kv": 300.0, "from_node": 42, "to_node": 65, "length_km": 152.0678998232793, "delaunay_k": 4, "edge_set": "Delaunay4" }, "geometry": { "type": "LineString", "coordinates": [ [ 7.115021, 58.841464 ], [ 8.760223, 59.917172 ] ] } },
{ "type": "Feature", "properties": { "voltage_kv": 300.0, "from_node": 46, "to_node": 63, "length_km": 91.307851902927098, "delaunay_k": 4, "edge_set": "Delaunay4" }, "geometry": { "type": "LineString", "coordinates": [ [ 7.293549, 61.259009 ], [ 8.690186, 60.798714 ] ] } },
{ "type": "Feature", "properties": { "voltage_kv": 300.0, "from_node": 46, "to_node": 64, "length_km": 108.87129924182226, "delaunay_k": 4, "edge_set": "Delaunay4" }, "geometry": { "type": "LineString", "coordinates": [ [ 7.293549, 61.259009 ], [ 8.75885, 60.591688 ] ] } },
{ "type": "Feature", "properties": { "voltage_kv": 300.0, "from_node": 48, "to_node": 71, "length_km": 140.21931786021844, "delaunay_k": 4, "edge_set": "Delaunay4" }, "geometry": { "type": "LineString", "coordinates": [ [ 7.34024, 59.805469 ], [ 9.593811, 59.282019 ] ] } },
{ "type": "Feature", "properties": { "voltage_kv": 300.0, "from_node": 48, "to_node": 72, "length_km": 148.06608091823281, "delaunay_k": 4, "edge_set": "Delaunay4" }, "geometry": { "type": "LineString", "coordinates": [ [ 7.34024, 59.805469 ], [ 9.61441, 59.151995 ] ] } },
{ "type": "Feature", "properties": { "voltage_kv": 300.0, "from_node": 48, "to_node": 74, "length_km": 145.50125192701719, "delaunay_k": 4, "edge_set": "Delaunay4" }, "geometry": { "type": "LineString", "coordinates": [ [ 7.34024, 59.805469 ], [ 9.923401, 59.721792 ] ] } },
{ "type": "Feature", "properties": { "voltage_kv": 300.0, "from_node": 50, "to_node": 64, "length_km": 131.10289165096876, "delaunay_k": 4, "edge_set": "Delaunay4" }, "geometry": { "type": "LineString", "coordinates": [ [ 7.410278, 61.569805 ], [ 8.75885, 60.591688 ] ] } },
{ "type": "Feature", "properties": { "voltage_kv": 300.0, "from_node": 51, "to_node": 64, "length_km": 119.21964006955888, "delaunay_k": 4, "edge_set": "Delaunay4" }, "geometry": { "type": "LineString", "coordinates": [ [ 7.436371, 61.447302 ], [ 8.75885, 60.591688 ] ] } },
{ "type": "Feature", "properties": { "voltage_kv": 300.0, "from_node": 54, "to_node": 72, "length_km": 125.74892793046328, "delaunay_k": 4, "edge_set": "Delaunay4" }, "geometry": { "type": "LineString", "coordinates": [ [ 7.772827, 59.780596 ], [ 9.61441, 59.151995 ] ] } },
{ "type": "Feature", "properties": { "voltage_kv": 300.0, "from_node": 54, "to_node": 76, "length_km": 134.84120446165264, "delaunay_k": 4, "edge_set": "Delaunay4" }, "geometry": { "type": "LineString", "coordinates": [ [ 7.772827, 59.780596 ], [ 10.122528, 59.553808 ] ] } },
{ "type": "Feature", "properties": { "voltage_kv": 300.0, "from_node": 54, "to_node": 81, "length_km": 150.92751299009157, "delaunay_k": 4, "edge_set": "Delaunay4" }, "geometry": { "type": "LineString", "coordinates": [ [ 7.772827, 59.780596 ], [ 10.434265, 59.620547 ] ] } },
{ "type": "Feature", "properties": { "voltage_kv": 300.0, "from_node": 62, "to_node": 85, "length_km": 134.17819038329151, "delaunay_k": 4, "edge_set": "Delaunay4" }, "geometry": { "type": "LineString", "coordinates": [ [ 8.524017, 59.912353 ], [ 10.770721, 59.509939 ] ] } },
{ "type": "Feature", "properties": { "voltage_kv": 300.0, "from_node": 76, "to_node": 89, "length_km": 152.05140977620587, "delaunay_k": 4, "edge_set": "Delaunay4" }, "geometry": { "type": "LineString", "coordinates": [ [ 10.122528, 59.553808 ], [ 11.160736, 60.816799 ] ] } }
]
}
