{
"type": "FeatureCollection",
"name": "n490_132kv_delaunay4",
"crs": { "type": "name", "properties": { "name": "urn:ogc:def:crs:OGC:1.3:CRS84" } },
"features": [
{ "type": "Feature", "properties": { "voltage_kv": 132.0, "from_node": 10, "to_node": 17, "length_km": 108.34434692535852, "delaunay_k": 4, "edge_set": "Delaunay4" }, "geometry": { "type": "LineString", "coordinates": [ [ 11.089325, 55.66132 ], [ 11.504059, 54.717482 ] ] } },
{ "type": "Feature", "properties": { "voltage_kv": 132.0, "from_node": 10, "to_node": 22, "length_km": 105.90652777868669, "delaunay_k": 4, "edge_set": "Delaunay4" }, "geometry": { "type": "LineString", "coordinates": [ [ 11.089325, 55.66132 ], [ 11.712799, 54.779306 ] ] } },
{ "type": "Feature", "properties": { "voltage_kv": 132.0, "from_node": 10, "to_node": 34, "length_km": 103.79466977084371, "delaunay_k": 4, "edge_set": "Delaunay4" }, "geometry": { "type": "LineString", "coordinates": [ [ 11.089325, 55.66132 ], [ 11.921539, 54.859221 ] ] } },
{ "type": "Feature", "properties": { "voltage_kv": 132.0, "from_node": 10, "to_node": 38, "length_km": 60.05721022652672, "delaunay_k": 4, "edge_set": "Delaunay4" }, "geometry": { "type": "LineString", "coordinates": [ [ 11.089325, 55.66132 ], [ 11.961365, 55.445374 ] ] } },
{ "type": "Feature", "properties": { "voltage_kv": 132.0, "from_node": 10, "to_node": 39, "length_km": 115.1586094288666, "delaunay_k": 4, "edge_set": "Delaunay4" }, "geometry": { "type": "LineString", "coordinates": [ [ 11.089325, 55.66132 ], [ 11.965485, 54.756331 ] ] } },
{ "type": "Feature", "properties": { "voltage_kv": 132.0, "from_node": 10, "to_node": 40, "length_km": 59.64517300753576, "delaunay_k": 4, "edge_set": "Delaunay4" }, "geometry": { "type": "LineString", "coordinates": [ [ 11.089325, 55.66132 ], [ 11.990204, 55.498305 ] ] } },
{ "type": "Feature", "properties": { "voltage_kv": 132.0, "from_node": 10, "to_node": 41, "length_km": 68.450164762531131, "delaunay_k": 4, "edge_set": "Delaunay4" }, "geometry": { "type": "LineString", "coordinates": [ [ 11.089325, 55.66132 ], [ 12.024536, 55.351012 ] ] } },
{ "type": "Feature", "properties": { "voltage_kv": 132.0, "from_node": 10, "to_node": 45, "length_km": 70.514896262928772, "delaunay_k": 4, "edge_set": "Delaunay4" }, "geometry": { "type": "LineString", "coordinates": [ [ 11.089325, 55.66132 ], [ 12.170105, 55.499083 ] ] } },
{ "type": "Feature", "properties": { "voltage_kv": 132.0, "from_node": 10, "to_node": 48, "length_km": 73.236260734534014, "delaunay_k": 4, "edge_set": "Delaunay4" }, "geometry": { "type": "LineString", "coordinates": [ [ 11.089325, 55.66132 ], [ 12.240143, 55.764213 ] ] } },
{ "type": "Feature", "properties": { "voltage_kv": 132.0, "from_node": 10, "to_node": 49, "length_km": 75.196832426849568, "delaunay_k": 4, "edge_set": "Delaunay4" }, "geometry": { "type": "LineString", "coordinates": [ [ 11.089325, 55.66132 ], [ 12.268982, 55.559709 ] ] } },
{ "type": "Feature", "properties": { "voltage_kv": 132.0, "from_node": 10, "to_node": 50, "length_km": 76.922148407860703, "delaunay_k": 4, "edge_set": "Delaunay4" }, "geometry": { "type": "LineString", "coordinates": [ [ 11.089325, 55.66132 ], [ 12.311554, 55.670615 ] ] } },
{ "type": "Feature", "properties": { "voltage_kv": 132.0, "from_node": 10, "to_node": 52, "length_km": 82.498525710775084, "delaunay_k": 4, "edge_set": "Delaunay4" }, "geometry": { "type": "LineString", "coordinates": [ [ 11.089325, 55.66132 ], [ 12.389832, 55.761123 ] ] } },
{ "type": "Feature", "properties": { "voltage_kv": 132.0, "from_node": 10, "to_node": 53, "length_km": 92.104853421757454, "delaunay_k": 4, "edge_set": "Delaunay4" }, "geometry": { "type": "LineString", "coordinates": [ [ 11.089325, 55.66132 ], [ 12.474976, 55.935356 ] ] } },
{ "type": "Feature", "properties": { "voltage_kv": 132.0, "from_node": 10, "to_node": 55, "length_km": 94.738025665398879, "delaunay_k": 4, "edge_set": "Delaunay4" }, "geometry": { "type": "LineString", "coordinates": [ [ 11.089325, 55.66132 ], [ 12.520294, 55.933818 ] ] } },
{ "type": "Feature", "properties": { "voltage_kv": 132.0, "from_node": 10, "to_node": 60, "length_km": 94.037186990575862, "delaunay_k": 4, "edge_set": "Delaunay4" }, "geometry": { "type": "LineString", "coordinates": [ [ 11.089325, 55.66132 ], [ 12.583466, 55.662095 ] ] } },
{ "type": "Feature", "properties": { "voltage_kv": 132.0, "from_node": 10, "to_node": 61, "length_km": 124.13376899271357, "delaunay_k": 4, "edge_set": "Delaunay4" }, "geometry": { "type": "LineString", "coordinates": [ [ 11.089325, 55.66132 ], [ 12.933655, 56.070502 ] ] } },
{ "type": "Feature", "properties": { "voltage_kv": 132.0, "from_node": 12, "to_node": 21, "length_km": 81.635208070892659, "delaunay_k": 4, "edge_set": "Delaunay4" }, "geometry": { "type": "LineString", "coordinates": [ [ 11.190948, 54.867915 ], [ 11.670227, 55.548058 ] ] } },
{ "type": "Feature", "properties": { "voltage_kv": 132.0, "from_node": 12, "to_node": 24, "length_km": 66.647102177662276, "delaunay_k": 4, "edge_set": "Delaunay4" }, "geometry": { "type": "LineString", "coordinates": [ [ 11.190948, 54.867915 ], [ 11.727905, 55.381451 ] ] } },
{ "type": "Feature", "properties": { "voltage_kv": 132.0, "from_node": 12, "to_node": 26, "length_km": 74.227377164479108, "delaunay_k": 4, "edge_set": "Delaunay4" }, "geometry": { "type": "LineString", "coordinates": [ [ 11.190948, 54.867915 ], [ 11.786957, 55.4407 ] ] } },
{ "type": "Feature", "properties": { "voltage_kv": 132.0, "from_node": 12, "to_node": 38, "length_km": 80.898171554609007, "delaunay_k": 4, "edge_set": "Delaunay4" }, "geometry": { "type": "LineString", "coordinates": [ [ 11.190948, 54.867915 ], [ 11.961365, 55.445374 ] ] } },
{ "type": "Feature", "properties": { "voltage_kv": 132.0, "from_node": 12, "to_node": 45, "length_km": 93.956227981376671, "delaunay_k": 4, "edge_set": "Delaunay4" }, "geometry": { "type": "LineString", "coordinates": [ [ 11.190948, 54.867915 ], [ 12.170105, 55.499083 ] ] } },
{ "type": "Feature", "properties": { "voltage_kv": 132.0, "from_node": 12, "to_node": 49, "length_km": 103.15083258353044, "delaunay_k": 4, "edge_set": "Delaunay4" }, "geometry": { "type": "LineString", "coordinates": [ [ 11.190948, 54.867915 ], [ 12.268982, 55.559709 ] ] } },
{ "type": "Feature", "properties": { "voltage_kv": 132.0, "from_node": 12, "to_node": 51, "length_km": 111.52413028205378, "delaunay_k": 4, "edge_set": "Delaunay4" }, "geometry": { "type": "LineString", "coordinates": [ [ 11.190948, 54.867915 ], [ 12.362366, 55.613262 ] ] } },
{ "type": "Feature", "properties": { "voltage_kv": 132.0, "from_node": 12, "to_node": 54, "length_km": 121.77375806560046, "delaunay_k": 4, "edge_set": "Delaunay4" }, "geometry": { "type": "LineString", "coordinates": [ [ 11.190948, 54.867915 ], [ 12.490645134825497, 55.671527244775099 ] ] } },
{ "type": "Feature", "properties": { "voltage_kv": 132.0, "from_node": 13, "to_node": 38, "length_km": 49.222477397961192, "delaunay_k": 4, "edge_set": "Delaunay4" }, "geometry": { "type": "LineString", "coordinates": [ [ 11.295319, 55.21884 ], [ 11.961365, 55.445374 ] ] } },
{ "type": "Feature", "properties": { "voltage_kv": 132.0, "from_node": 13, "to_node": 40, "length_km": 53.947273051797396, "delaunay_k": 4, "edge_set": "Delaunay4" }, "geometry": { "type": "LineString", "coordinates": [ [ 11.295319, 55.21884 ], [ 11.990204, 55.498305 ] ] } },
{ "type": "Feature", "properties": { "voltage_kv": 132.0, "from_node": 13, "to_node": 43, "length_km": 67.55820633843399, "delaunay_k": 4, "edge_set": "Delaunay4" }, "geometry": { "type": "LineString", "coordinates": [ [ 11.295319, 55.21884 ], [ 12.108307, 55.611711 ] ] } },
{ "type": "Feature", "properties": { "voltage_kv": 132.0, "from_node": 13, "to_node": 44, "length_km": 79.339429254403825, "delaunay_k": 4, "edge_set": "Delaunay4" }, "geometry": { "type": "LineString", "coordinates": [ [ 11.295319, 55.21884 ], [ 12.154999, 55.737935 ] ] } },
{ "type": "Feature", "properties": { "voltage_kv": 132.0, "from_node": 13, "to_node": 45, "length_km": 63.651633740774649, "delaunay_k": 4, "edge_set": "Delaunay4" }, "geometry": { "type": "LineString", "coordinates": [ [ 11.295319, 55.21884 ], [ 12.170105, 55.499083 ] ] } },
{ "type": "Feature", "properties": { "voltage_kv": 132.0, "from_node": 13, "to_node": 46, "length_km": 97.146149735246141, "delaunay_k": 4, "edge_set": "Delaunay4" }, "geometry": { "type": "LineString", "coordinates": [ [ 11.295319, 55.21884 ], [ 12.22641, 55.913812 ] ] } },
{ "type": "Feature", "properties": { "voltage_kv": 132.0, "from_node": 13, "to_node": 47, "length_km": 89.617386132123059, "delaunay_k": 4, "edge_set": "Delaunay4" }, "geometry": { "type": "LineString", "coordinates": [ [ 11.295319, 55.21884 ], [ 12.23465, 55.822116 ] ] } },
{ "type": "Feature", "properties": { "voltage_kv": 132.0, "from_node": 13, "to_node": 49, "length_km": 72.440331841106726, "delaunay_k": 4, "edge_set": "Delaunay4" }, "geometry": { "type": "LineString", "coordinates": [ [ 11.295319, 55.21884 ], [ 12.268982, 55.559709 ] ] } },
{ "type": "Feature", "properties": { "voltage_kv": 132.0, "from_node": 13, "to_node": 51, "length_km": 80.590751232606721, "delaunay_k": 4, "edge_set": "Delaunay4" }, "geometry": { "type": "LineString", "coordinates": [ [ 11.295319, 55.21884 ], [ 12.362366, 55.613262 ] ] } },
{ "type": "Feature", "properties": { "voltage_kv": 132.0, "from_node": 13, "to_node": 54, "length_km": 90.896742491933239, "delaunay_k": 4, "edge_set": "Delaunay4" }, "geometry": { "type": "LineString", "coordinates": [ [ 11.295319, 55.21884 ], [ 12.490645134825497, 55.671527244775099 ] ] } },
{ "type": "Feature", "properties": { "voltage_kv": 132.0, "from_node": 13, "to_node": 56, "length_km": 96.786725564743534, "delaunay_k": 4, "edge_set": "Delaunay4" }, "geometry": { "type": "LineString", "coordinates": [ [ 11.295319, 55.21884 ], [ 12.527161, 55.734843 ] ] } },
{ "type": "Feature", "properties": { "voltage_kv": 132.0, "from_node": 13, "to_node": 58, "length_km": 121.96132823061768, "delaunay_k": 4, "edge_set": "Delaunay4" }, "geometry": { "type": "LineString", "coordinates": [ [ 11.295319, 55.21884 ], [ 12.571106, 56.042897 ] ] } },
{ "type": "Feature", "properties": { "voltage_kv": 132.0, "from_node": 13, "to_node": 59, "length_km": 99.483649803900519, "delaunay_k": 4, "edge_set": "Delaunay4" }, "geometry": { "type": "LineString", "coordinates": [ [ 11.295319, 55.21884 ], [ 12.580719, 55.73407 ] ] } },
{ "type": "Feature", "properties": { "voltage_kv": 132.0, "from_node": 14, "to_node": 17, "length_km": 82.755765948990444, "delaunay_k": 4, "edge_set": "Delaunay4" }, "geometry": { "type": "LineString", "coordinates": [ [ 11.348877, 55.455499 ], [ 11.504059, 54.717482 ] ] } },
{ "type": "Feature", "properties": { "voltage_kv": 132.0, "from_node": 14, "to_node": 22, "length_km": 78.778157244937503, "delaunay_k": 4, "edge_set": "Delaunay4" }, "geometry": { "type": "LineString", "coordinates": [ [ 11.348877, 55.455499 ], [ 11.712799, 54.779306 ] ] } },
{ "type": "Feature", "properties": { "voltage_kv": 132.0, "from_node": 14, "to_node": 34, "length_km": 75.756568850600189, "delaunay_k": 4, "edge_set": "Delaunay4" }, "geometry": { "type": "LineString", "coordinates": [ [ 11.348877, 55.455499 ], [ 11.921539, 54.859221 ] ] } },
{ "type": "Feature", "properties": { "voltage_kv": 132.0, "from_node": 14, "to_node": 39, "length_km": 87.219383368901688, "delaunay_k": 4, "edge_set": "Delaunay4" }, "geometry": { "type": "LineString", "coordinates": [ [ 11.348877, 55.455499 ], [ 11.965485, 54.756331 ] ] } },
{ "type": "Feature", "properties": { "voltage_kv": 132.0, "from_node": 14, "to_node": 45, "length_km": 52.154975587569432, "delaunay_k": 4, "edge_set": "Delaunay4" }, "geometry": { "type": "LineString", "coordinates": [ [ 11.348877, 55.455499 ], [ 12.170105, 55.499083 ] ] } },
{ "type": "Feature", "properties": { "voltage_kv": 132.0, "from_node": 14, "to_node": 46, "length_km": 75.169629397872669, "delaunay_k": 4, "edge_set": "Delaunay4" }, "geometry": { "type": "LineString", "coordinates": [ [ 11.348877, 55.455499 ], [ 12.22641, 55.913812 ] ] } },
{ "type": "Feature", "properties": { "voltage_kv": 132.0, "from_node": 14, "to_node": 48, "length_km": 65.849821211739084, "delaunay_k": 4, "edge_set": "Delaunay4" }, "geometry": { "type": "LineString", "coordinates": [ [ 11.348877, 55.455499 ], [ 12.240143, 55.764213 ] ] } },
{ "type": "Feature", "properties": { "voltage_kv": 132.0, "from_node": 14, "to_node": 49, "length_km": 59.282850752210344, "delaunay_k": 4, "edge_set": "Delaunay4" }, "geometry": { "type": "LineString", "coordinates": [ [ 11.348877, 55.455499 ], [ 12.268982, 55.559709 ] ] } },
{ "type": "Feature", "properties": { "voltage_kv": 132.0, "from_node": 14, "to_node": 50, "length_km": 65.291948263161743, "delaunay_k": 4, "edge_set": "Delaunay4" }, "geometry": { "type": "LineString", "coordinates": [ [ 11.348877, 55.455499 ], [ 12.311554, 55.670615 ] ] } },
{ "type": "Feature", "properties": { "voltage_kv": 132.0, "from_node": 14, "to_node": 52, "length_km": 73.903566189721133, "delaunay_k": 4, "edge_set": "Delaunay4" }, "geometry": { "type": "LineString", "coordinates": [ [ 11.348877, 55.455499 ], [ 12.389832, 55.761123 ] ] } },
{ "type": "Feature", "properties": { "voltage_kv": 132.0, "from_node": 14, "to_node": 53, "length_km": 88.705934713020525, "delaunay_k": 4, "edge_set": "Delaunay4" }, "geometry": { "type": "LineString", "coordinates": [ [ 11.348877, 55.455499 ], [ 12.474976, 55.935356 ] ] } },
{ "type": "Feature", "properties": { "voltage_kv": 132.0, "from_node": 14, "to_node": 58, "length_km": 100.8362822190591, "delaunay_k": 4, "edge_set": "Delaunay4" }, "geometry": { "type": "LineString", "coordinates": [ [ 11.348877, 55.455499 ], [ 12.571106, 56.042897 ] ] } },
{ "type": "Feature", "properties": { "voltage_kv": 132.0, "from_node": 14, "to_node": 60, "length_km": 81.230649465233753, "delaunay_k": 4, "edge_set": "Delaunay4" }, "geometry": { "type": "LineString", "coordinates": [ [ 11.348877, 55.455499 ], [ 12.583466, 55.662095 ] ] } },
{ "type": "Feature", "properties": { "voltage_kv": 132.0, "from_node": 15, "to_node": 40, "length_km": 46.063804260053779, "delaunay_k": 4, "edge_set": "Delaunay4" }, "geometry": { "type": "LineString", "coordinates": [ [ 11.416168, 55.244684 ], [ 11.990204, 55.498305 ] ] } },
{ "type": "Feature", "properties": { "voltage_kv": 132.0, "from_node": 15, "to_node": 42, "length_km": 90.33981679658973, "delaunay_k": 4, "edge_set": "Delaunay4" }, "geometry": { "type": "LineString", "coordinates": [ [ 11.416168, 55.244684 ], [ 12.061615, 55.969187 ] ] } },
{ "type": "Feature", "properties": { "voltage_kv": 132.0, "from_node": 15, "to_node": 43, "length_km": 59.91594827678832, "delaunay_k": 4, "edge_set": "Delaunay4" }, "geometry": { "type": "LineString", "coordinates": [ [ 11.416168, 55.244684 ], [ 12.108307, 55.611711 ] ] } },
{ "type": "Feature", "properties": { "voltage_kv": 132.0, "from_node": 15, "to_node": 44, "length_km": 72.088442893100336, "delaunay_k": 4, "edge_set": "Delaunay4" }, "geometry": { "type": "LineString", "coordinates": [ [ 11.416168, 55.244684 ], [ 12.154999, 55.737935 ] ] } },
{ "type": "Feature", "properties": { "voltage_kv": 132.0, "from_node": 15, "to_node": 45, "length_km": 55.561625195708004, "delaunay_k": 4, "edge_set": "Delaunay4" }, "geometry": { "type": "LineString", "coordinates": [ [ 11.416168, 55.244684 ], [ 12.170105, 55.499083 ] ] } },
{ "type": "Feature", "properties": { "voltage_kv": 132.0, "from_node": 15, "to_node": 47, "length_km": 82.485672683520491, "delaunay_k": 4, "edge_set": "Delaunay4" }, "geometry": { "type": "LineString", "coordinates": [ [ 11.416168, 55.244684 ], [ 12.23465, 55.822116 ] ] } },
{ "type": "Feature", "properties": { "voltage_kv": 132.0, "from_node": 15, "to_node": 49, "length_km": 64.413920481200918, "delaunay_k": 4, "edge_set": "Delaunay4" }, "geometry": { "type": "LineString", "coordinates": [ [ 11.416168, 55.244684 ], [ 12.268982, 55.559709 ] ] } },
{ "type": "Feature", "properties": { "voltage_kv": 132.0, "from_node": 15, "to_node": 51, "length_km": 72.611027878096507, "delaunay_k": 4, "edge_set": "Delaunay4" }, "geometry": { "type": "LineString", "coordinates": [ [ 11.416168, 55.244684 ], [ 12.362366, 55.613262 ] ] } },
{ "type": "Feature", "properties": { "voltage_kv": 132.0, "from_node": 15, "to_node": 54, "length_km": 82.939718850311621, "delaunay_k": 4, "edge_set": "Delaunay4" }, "geometry": { "type": "LineString", "coordinates": [ [ 11.416168, 55.244684 ], [ 12.490645134825497, 55.671527244775099 ] ] } },
{ "type": "Feature", "properties": { "voltage_kv": 132.0, "from_node": 15, "to_node": 56, "length_km": 88.939129628966981, "delaunay_k": 4, "edge_set": "Delaunay4" }, "geometry": { "type": "LineString", "coordinates": [ [ 11.416168, 55.244684 ], [ 12.527161, 55.734843 ] ] } },
{ "type": "Feature", "properties": { "voltage_kv": 132.0, "from_node": 15, "to_node": 59, "length_km": 91.585460785038194, "delaunay_k": 4, "edge_set": "Delaunay4" }, "geometry": { "type": "LineString", "coordinates": [ [ 11.416168, 55.244684 ], [ 12.580719, 55.73407 ] ] } },
{ "type": "Feature", "properties": { "voltage_kv": 132.0, "from_node": 17, "to_node": 23, "length_km": 68.315299851709611, "delaunay_k": 4, "edge_set": "Delaunay4" }, "geometry": { "type": "LineString", "coordinates": [ [ 11.504059, 54.717482 ], [ 11.715546, 55.318987 ] ] } },
{ "type": "Feature", "properties": { "voltage_kv": 132.0, "from_node": 17, "to_node": 32, "length_km": 69.019457678769825, "delaunay_k": 4, "edge_set": "Delaunay4" }, "geometry": { "type": "LineString", "coordinates": [ [ 11.504059, 54.717482 ], [ 11.90094, 55.293974 ] ] } },
{ "type": "Feature", "properties": { "voltage_kv": 132.0, "from_node": 17, "to_node": 41, "length_km": 77.98532336148935, "delaunay_k": 4, "edge_set": "Delaunay4" }, "geometry": { "type": "LineString", "coordinates": [ [ 11.504059, 54.717482 ], [ 12.024536, 55.351012 ] ] } },
{ "type": "Feature", "properties": { "voltage_kv": 132.0, "from_node": 17, "to_node": 45, "length_km": 96.841355950202626, "delaunay_k": 4, "edge_set": "Delaunay4" }, "geometry": { "type": "LineString", "coordinates": [ [ 11.504059, 54.717482 ], [ 12.170105, 55.499083 ] ] } },
{ "type": "Feature", "properties": { "voltage_kv": 132.0, "from_node": 17, "to_node": 49, "length_km": 105.6937044043207, "delaunay_k": 4, "edge_set": "Delaunay4" }, "geometry": { "type": "LineString", "coordinates": [ [ 11.504059, 54.717482 ], [ 12.268982, 55.559709 ] ] } },
{ "type": "Feature", "properties": { "voltage_kv": 132.0, "from_node": 17, "to_node": 51, "length_km": 113.74222215253297, "delaunay_k": 4, "edge_set": "Delaunay4" }, "geometry": { "type": "LineString", "coordinates": [ [ 11.504059, 54.717482 ], [ 12.362366, 55.613262 ] ] } },
{ "type": "Feature", "properties": { "voltage_kv": 132.0, "from_node": 17, "to_node": 54, "length_km": 123.40455685757549, "delaunay_k": 4, "edge_set": "Delaunay4" }, "geometry": { "type": "LineString", "coordinates": [ [ 11.504059, 54.717482 ], [ 12.490645134825497, 55.671527244775099 ] ] } },
{ "type": "Feature", "properties": { "voltage_kv": 132.0, "from_node": 18, "to_node": 29, "length_km": 90.489723224661105, "delaunay_k": 4, "edge_set": "Delaunay4" }, "geometry": { "type": "LineString", "coordinates": [ [ 11.550751, 55.724017 ], [ 11.851501, 54.929509 ] ] } },
{ "type": "Feature", "properties": { "voltage_kv": 132.0, "from_node": 18, "to_node": 33, "length_km": 84.42886846474174, "delaunay_k": 4, "edge_set": "Delaunay4" }, "geometry": { "type": "LineString", "coordinates": [ [ 11.550751, 55.724017 ], [ 11.902313, 54.992585 ] ] } },
{ "type": "Feature", "properties": { "voltage_kv": 132.0, "from_node": 18, "to_node": 35, "length_km": 70.635998810552124, "delaunay_k": 4, "edge_set": "Delaunay4" }, "geometry": { "type": "LineString", "coordinates": [ [ 11.550751, 55.724017 ], [ 11.932526, 55.127864 ] ] } },
{ "type": "Feature", "properties": { "voltage_kv": 132.0, "from_node": 18, "to_node": 36, "length_km": 61.00037670150202, "delaunay_k": 4, "edge_set": "Delaunay4" }, "geometry": { "type": "LineString", "coordinates": [ [ 11.550751, 55.724017 ], [ 11.933899, 55.22119 ] ] } },
{ "type": "Feature", "properties": { "voltage_kv": 132.0, "from_node": 18, "to_node": 41, "length_km": 51.180190086125414, "delaunay_k": 4, "edge_set": "Delaunay4" }, "geometry": { "type": "LineString", "coordinates": [ [ 11.550751, 55.724017 ], [ 12.024536, 55.351012 ] ] } },
{ "type": "Feature", "properties": { "voltage_kv": 132.0, "from_node": 18, "to_node": 51, "length_km": 52.540070973952105, "delaunay_k": 4, "edge_set": "Delaunay4" }, "geometry": { "type": "LineString", "coordinates": [ [ 11.550751, 55.724017 ], [ 12.362366, 55.613262 ] ] } },
{ "type": "Feature", "properties": { "voltage_kv": 132.0, "from_node": 18, "to_node": 54, "length_km": 59.389224344260967, "delaunay_k": 4, "edge_set": "Delaunay4" }, "geometry": { "type": "LineString", "coordinates": [ [ 11.550751, 55.724017 ], [ 12.490645134825497, 55.671527244775099 ] ] } },
{ "type": "Feature", "properties": { "voltage_kv": 132.0, "from_node": 18, "to_node": 55, "length_km": 65.096524077723686, "delaunay_k": 4, "edge_set": "Delaunay4" }, "geometry": { "type": "LineString", "coordinates": [ [ 11.550751, 55.724017 ], [ 12.520294, 55.933818 ] ] } },
{ "type": "Feature", "properties": { "voltage_kv": 132.0, "from_node": 18, "to_node": 56, "length_km": 61.359387382934798, "delaunay_k": 4, "edge_set": "Delaunay4" }, "geometry": { "type": "LineString", "coordinates": [ [ 11.550751, 55.724017 ], [ 12.527161, 55.734843 ] ] } },
{ "type": "Feature", "properties": { "voltage_kv": 132.0, "from_node": 18, "to_node": 57, "length_km": 64.128639310127596, "delaunay_k": 4, "edge_set": "Delaunay4" }, "geometry": { "type": "LineString", "coordinates": [ [ 11.550751, 55.724017 ], [ 12.56424, 55.795877 ] ] } },
{ "type": "Feature", "properties": { "voltage_kv": 132.0, "from_node": 18, "to_node": 60, "length_km": 65.310486230335414, "delaunay_k": 4, "edge_set": "Delaunay4" }, "geometry": { "type": "LineString", "coordinates": [ [ 11.550751, 55.724017 ], [ 12.583466, 55.662095 ] ] } },
{ "type": "Feature", "properties": { "voltage_kv": 132.0, "from_node": 18, "to_node": 61, "length_km": 94.726582452117569, "delaunay_k": 4, "edge_set": "Delaunay4" }, "geometry": { "type": "LineString", "coordinates": [ [ 11.550751, 55.724017 ], [ 12.933655, 56.070502 ] ] } },
{ "type": "Feature", "properties": { "voltage_kv": 132.0, "from_node": 19, "to_node": 25, "length_km": 71.766210125174595, "delaunay_k": 4, "edge_set": "Delaunay4" }, "geometry": { "type": "LineString", "coordinates": [ [ 11.641388, 55.866835 ], [ 11.762238, 55.22589 ] ] } },
{ "type": "Feature", "properties": { "voltage_kv": 132.0, "from_node": 19, "to_node": 28, "length_km": 69.328604237976464, "delaunay_k": 4, "edge_set": "Delaunay4" }, "geometry": { "type": "LineString", "coordinates": [ [ 11.641388, 55.866835 ], [ 11.8480685, 55.255251001923504 ] ] } },
{ "type": "Feature", "properties": { "voltage_kv": 132.0, "from_node": 19, "to_node": 29, "length_km": 105.20053302344944, "delaunay_k": 4, "edge_set": "Delaunay4" }, "geometry": { "type": "LineString", "coordinates": [ [ 11.641388, 55.866835 ], [ 11.851501, 54.929509 ] ] } },
{ "type": "Feature", "properties": { "voltage_kv": 132.0, "from_node": 19, "to_node": 32, "length_km": 65.847106513595648, "delaunay_k": 4, "edge_set": "Delaunay4" }, "geometry": { "type": "LineString", "coordinates": [ [ 11.641388, 55.866835 ], [ 11.90094, 55.293974 ] ] } },
{ "type": "Feature", "properties": { "voltage_kv": 132.0, "from_node": 19, "to_node": 33, "length_km": 98.724770880809672, "delaunay_k": 4, "edge_set": "Delaunay4" }, "geometry": { "type": "LineString", "coordinates": [ [ 11.641388, 55.866835 ], [ 11.902313, 54.992585 ] ] } },
{ "type": "Feature", "properties": { "voltage_kv": 132.0, "from_node": 19, "to_node": 35, "length_km": 84.305352813545184, "delaunay_k": 4, "edge_set": "Delaunay4" }, "geometry": { "type": "LineString", "coordinates": [ [ 11.641388, 55.866835 ], [ 11.932526, 55.127864 ] ] } },
{ "type": "Feature", "properties": { "voltage_kv": 132.0, "from_node": 19, "to_node": 36, "length_km": 74.216782403505164, "delaunay_k": 4, "edge_set": "Delaunay4" }, "geometry": { "type": "LineString", "coordinates": [ [ 11.641388, 55.866835 ], [ 11.933899, 55.22119 ] ] } },
{ "type": "Feature", "properties": { "voltage_kv": 132.0, "from_node": 19, "to_node": 38, "length_km": 51.064390787009714, "delaunay_k": 4, "edge_set": "Delaunay4" }, "geometry": { "type": "LineString", "coordinates": [ [ 11.641388, 55.866835 ], [ 11.961365, 55.445374 ] ] } },
{ "type": "Feature", "properties": { "voltage_kv": 132.0, "from_node": 19, "to_node": 40, "length_km": 46.529788618729278, "delaunay_k": 4, "edge_set": "Delaunay4" }, "geometry": { "type": "LineString", "coordinates": [ [ 11.641388, 55.866835 ], [ 11.990204, 55.498305 ] ] } },
{ "type": "Feature", "properties": { "voltage_kv": 132.0, "from_node": 19, "to_node": 45, "length_km": 52.750272129828801, "delaunay_k": 4, "edge_set": "Delaunay4" }, "geometry": { "type": "LineString", "coordinates": [ [ 11.641388, 55.866835 ], [ 12.170105, 55.499083 ] ] } },
{ "type": "Feature", "properties": { "voltage_kv": 132.0, "from_node": 19, "to_node": 49, "length_km": 52.205503263047824, "delaunay_k": 4, "edge_set": "Delaunay4" }, "geometry": { "type": "LineString", "coordinates": [ [ 11.641388, 55.866835 ], [ 12.268982, 55.559709 ] ] } },
{ "type": "Feature", "properties": { "voltage_kv": 132.0, "from_node": 19, "to_node": 51, "length_km": 53.366134141630653, "delaunay_k": 4, "edge_set": "Delaunay4" }, "geometry": { "type": "LineString", "coordinates": [ [ 11.641388, 55.866835 ], [ 12.362366, 55.613262 ] ] } },
{ "type": "Feature", "properties": { "voltage_kv": 132.0, "from_node": 19, "to_node": 54, "length_km": 57.569387837855928, "delaunay_k": 4, "edge_set": "Delaunay4" }, "geometry": { "type": "LineString", "coordinates": [ [ 11.641388, 55.866835 ], [ 12.490645134825497, 55.671527244775099 ] ] } },
{ "type": "Feature", "properties": { "voltage_kv": 132.0, "from_node": 19, "to_node": 56, "length_km": 57.462474182051963, "delaunay_k": 4, "edge_set": "Delaunay4" }, "geometry": { "type": "LineString", "coordinates": [ [ 11.641388, 55.866835 ], [ 12.527161, 55.734843 ] ] } },
{ "type": "Feature", "properties": { "voltage_kv": 132.0, "from_node": 19, "to_node": 57, "length_km": 58.368816086720344, "delaunay_k": 4, "edge_set": "Delaunay4" }, "geometry": { "type": "LineString", "coordinates": [ [ 11.641388, 55.866835 ], [ 12.56424, 55.795877 ] ] } },
{ "type": "Feature", "properties": { "voltage_kv": 132.0, "from_node": 19, "to_node": 59, "length_km": 60.737291897235252, "delaunay_k": 4, "edge_set": "Delaunay4" }, "geometry": { "type": "LineString", "coordinates": [ [ 11.641388, 55.866835 ], [ 12.580719, 55.73407 ] ] } },
{ "type": "Feature", "properties": { "voltage_kv": 132.0, "from_node": 19, "to_node": 60, "length_km": 63.379165823794509, "delaunay_k": 4, "edge_set": "Delaunay4" }, "geometry": { "type": "LineString", "coordinates": [ [ 11.641388, 55.866835 ], [ 12.583466, 55.662095 ] ] } },
{ "type": "Feature", "properties": { "voltage_kv": 132.0, "from_node": 21, "to_node": 29, "length_km": 69.821697422723318, "delaunay_k": 4, "edge_set": "Delaunay4" }, "geometry": { "type": "LineString", "coordinates": [ [ 11.670227, 55.548058 ], [ 11.851501, 54.929509 ] ] } },
{ "type": "Feature", "properties": { "voltage_kv": 132.0, "from_node": 21, "to_node": 33, "length_km": 63.57623736483211, "delaunay_k": 4, "edge_set": "Delaunay4" }, "geometry": { "type": "LineString", "coordinates": [ [ 11.670227, 55.548058 ], [ 11.902313, 54.992585 ] ] } },
{ "type": "Feature", "properties": { "voltage_kv": 132.0, "from_node": 21, "to_node": 35, "length_km": 49.653680774889779, "delaunay_k": 4, "edge_set": "Delaunay4" }, "geometry": { "type": "LineString", "coordinates": [ [ 11.670227, 55.548058 ], [ 11.932526, 55.127864 ] ] } },
{ "type": "Feature", "properties": { "voltage_kv": 132.0, "from_node": 21, "to_node": 46, "length_km": 53.659783328916191, "delaunay_k": 4, "edge_set": "Delaunay4" }, "geometry": { "type": "LineString", "coordinates": [ [ 11.670227, 55.548058 ], [ 12.22641, 55.913812 ] ] } },
{ "type": "Feature", "properties": { "voltage_kv": 132.0, "from_node": 21, "to_node": 51, "length_km": 44.251662860229494, "delaunay_k": 4, "edge_set": "Delaunay4" }, "geometry": { "type": "LineString", "coordinates": [ [ 11.670227, 55.548058 ], [ 12.362366, 55.613262 ] ] } },
{ "type": "Feature", "properties": { "voltage_kv": 132.0, "from_node": 21, "to_node": 52, "length_km": 51.134583772712965, "delaunay_k": 4, "edge_set": "Delaunay4" }, "geometry": { "type": "LineString", "coordinates": [ [ 11.670227, 55.548058 ], [ 12.389832, 55.761123 ] ] } },
{ "type": "Feature", "properties": { "voltage_kv": 132.0, "from_node": 21, "to_node": 53, "length_km": 66.440939043767969, "delaunay_k": 4, "edge_set": "Delaunay4" }, "geometry": { "type": "LineString", "coordinates": [ [ 11.670227, 55.548058 ], [ 12.474976, 55.935356 ] ] } },
{ "type": "Feature", "properties": { "voltage_kv": 132.0, "from_node": 21, "to_node": 54, "length_km": 53.500577439786021, "delaunay_k": 4, "edge_set": "Delaunay4" }, "geometry": { "type": "LineString", "coordinates": [ [ 11.670227, 55.548058 ], [ 12.490645134825497, 55.671527244775099 ] ] } },
{ "type": "Feature", "properties": { "voltage_kv": 132.0, "from_node": 21, "to_node": 58, "length_km": 78.920889058806111, "delaunay_k": 4, "edge_set": "Delaunay4" }, "geometry": { "type": "LineString", "coordinates": [ [ 11.670227, 55.548058 ], [ 12.571106, 56.042897 ] ] } },
{ "type": "Feature", "properties": { "voltage_kv": 132.0, "from_node": 21, "to_node": 60, "length_km": 58.944814462257462, "delaunay_k": 4, "edge_set": "Delaunay4" }, "geometry": { "type": "LineString", "coordinates": [ [ 11.670227, 55.548058 ], [ 12.583466, 55.662095 ] ] } },
{ "type": "Feature", "properties": { "voltage_kv": 132.0, "from_node": 22, "to_node": 23, "length_km": 60.080798718541509, "delaunay_k": 4, "edge_set": "Delaunay4" }, "geometry": { "type": "LineString", "coordinates": [ [ 11.712799, 54.779306 ], [ 11.715546, 55.318987 ] ] } },
{ "type": "Feature", "properties": { "voltage_kv": 132.0, "from_node": 22, "to_node": 32, "length_km": 58.545145100096228, "delaunay_k": 4, "edge_set": "Delaunay4" }, "geometry": { "type": "LineString", "coordinates": [ [ 11.712799, 54.779306 ], [ 11.90094, 55.293974 ] ] } },
{ "type": "Feature", "properties": { "voltage_kv": 132.0, "from_node": 22, "to_node": 38, "length_km": 75.829471026933049, "delaunay_k": 4, "edge_set": "Delaunay4" }, "geometry": { "type": "LineString", "coordinates": [ [ 11.712799, 54.779306 ], [ 11.961365, 55.445374 ] ] } },
{ "type": "Feature", "properties": { "voltage_kv": 132.0, "from_node": 22, "to_node": 40, "length_km": 81.976576694089871, "delaunay_k": 4, "edge_set": "Delaunay4" }, "geometry": { "type": "LineString", "coordinates": [ [ 11.712799, 54.779306 ], [ 11.990204, 55.498305 ] ] } },
{ "type": "Feature", "properties": { "voltage_kv": 132.0, "from_node": 22, "to_node": 43, "length_km": 96.033045843453763, "delaunay_k": 4, "edge_set": "Delaunay4" }, "geometry": { "type": "LineString", "coordinates": [ [ 11.712799, 54.779306 ], [ 12.108307, 55.611711 ] ] } },
{ "type": "Feature", "properties": { "voltage_kv": 132.0, "from_node": 22, "to_node": 50, "length_km": 106.29364274680532, "delaunay_k": 4, "edge_set": "Delaunay4" }, "geometry": { "type": "LineString", "coordinates": [ [ 11.712799, 54.779306 ], [ 12.311554, 55.670615 ] ] } },
{ "type": "Feature", "properties": { "voltage_kv": 132.0, "from_node": 22, "to_node": 52, "length_km": 117.47339028745017, "delaunay_k": 4, "edge_set": "Delaunay4" }, "geometry": { "type": "LineString", "coordinates": [ [ 11.712799, 54.779306 ], [ 12.389832, 55.761123 ] ] } },
{ "type": "Feature", "properties": { "voltage_kv": 132.0, "from_node": 22, "to_node": 57, "length_km": 125.44116388427405, "delaunay_k": 4, "edge_set": "Delaunay4" }, "geometry": { "type": "LineString", "coordinates": [ [ 11.712799, 54.779306 ], [ 12.56424, 55.795877 ] ] } },
{ "type": "Feature", "properties": { "voltage_kv": 132.0, "from_node": 23, "to_node": 34, "length_km": 52.847507895861561, "delaunay_k": 4, "edge_set": "Delaunay4" }, "geometry": { "type": "LineString", "coordinates": [ [ 11.715546, 55.318987 ], [ 11.921539, 54.859221 ] ] } },
{ "type": "Feature", "properties": { "voltage_kv": 132.0, "from_node": 23, "to_node": 39, "length_km": 64.644647418999782, "delaunay_k": 4, "edge_set": "Delaunay4" }, "geometry": { "type": "LineString", "coordinates": [ [ 11.715546, 55.318987 ], [ 11.965485, 54.756331 ] ] } },
{ "type": "Feature", "properties": { "voltage_kv": 132.0, "from_node": 23, "to_node": 42, "length_km": 75.600148411442333, "delaunay_k": 4, "edge_set": "Delaunay4" }, "geometry": { "type": "LineString", "coordinates": [ [ 11.715546, 55.318987 ], [ 12.061615, 55.969187 ] ] } },
{ "type": "Feature", "properties": { "voltage_kv": 132.0, "from_node": 23, "to_node": 43, "length_km": 40.979375962896526, "delaunay_k": 4, "edge_set": "Delaunay4" }, "geometry": { "type": "LineString", "coordinates": [ [ 11.715546, 55.318987 ], [ 12.108307, 55.611711 ] ] } },
{ "type": "Feature", "properties": { "voltage_kv": 132.0, "from_node": 23, "to_node": 44, "length_km": 54.275501829418324, "delaunay_k": 4, "edge_set": "Delaunay4" }, "geometry": { "type": "LineString", "coordinates": [ [ 11.715546, 55.318987 ], [ 12.154999, 55.737935 ] ] } },
{ "type": "Feature", "properties": { "voltage_kv": 132.0, "from_node": 23, "to_node": 47, "length_km": 64.886397752786806, "delaunay_k": 4, "edge_set": "Delaunay4" }, "geometry": { "type": "LineString", "coordinates": [ [ 11.715546, 55.318987 ], [ 12.23465, 55.822116 ] ] } },
{ "type": "Feature", "properties": { "voltage_kv": 132.0, "from_node": 23, "to_node": 49, "length_km": 44.106007237406402, "delaunay_k": 4, "edge_set": "Delaunay4" }, "geometry": { "type": "LineString", "coordinates": [ [ 11.715546, 55.318987 ], [ 12.268982, 55.559709 ] ] } },
{ "type": "Feature", "properties": { "voltage_kv": 132.0, "from_node": 23, "to_node": 51, "length_km": 52.414297081324648, "delaunay_k": 4, "edge_set": "Delaunay4" }, "geometry": { "type": "LineString", "coordinates": [ [ 11.715546, 55.318987 ], [ 12.362366, 55.613262 ] ] } },
{ "type": "Feature", "properties": { "voltage_kv": 132.0, "from_node": 23, "to_node": 54, "length_km": 62.774597788701982, "delaunay_k": 4, "edge_set": "Delaunay4" }, "geometry": { "type": "LineString", "coordinates": [ [ 11.715546, 55.318987 ], [ 12.490645134825497, 55.671527244775099 ] ] } },
{ "type": "Feature", "properties": { "voltage_kv": 132.0, "from_node": 23, "to_node": 56, "length_km": 69.072318117842059, "delaunay_k": 4, "edge_set": "Delaunay4" }, "geometry": { "type": "LineString", "coordinates": [ [ 11.715546, 55.318987 ], [ 12.527161, 55.734843 ] ] } },
{ "type": "Feature", "properties": { "voltage_kv": 132.0, "from_node": 23, "to_node": 59, "length_km": 71.563152840263214, "delaunay_k": 4, "edge_set": "Delaunay4" }, "geometry": { "type": "LineString", "coordinates": [ [ 11.715546, 55.318987 ], [ 12.580719, 55.73407 ] ] } },
{ "type": "Feature", "properties": { "voltage_kv": 132.0, "from_node": 23, "to_node": 61, "length_km": 113.44183046237241, "delaunay_k": 4, "edge_set": "Delaunay4" }, "geometry": { "type": "LineString", "coordinates": [ [ 11.715546, 55.318987 ], [ 12.933655, 56.070502 ] ] } },
{ "type": "Feature", "properties": { "voltage_kv": 132.0, "from_node": 24, "to_node": 29, "length_km": 50.927107631474932, "delaunay_k": 4, "edge_set": "Delaunay4" }, "geometry": { "type": "LineString", "coordinates": [ [ 11.727905, 55.381451 ], [ 11.851501, 54.929509 ] ] } },
{ "type": "Feature", "properties": { "voltage_kv": 132.0, "from_node": 24, "to_node": 33, "length_km": 44.694734915137623, "delaunay_k": 4, "edge_set": "Delaunay4" }, "geometry": { "type": "LineString", "coordinates": [ [ 11.727905, 55.381451 ], [ 11.902313, 54.992585 ] ] } },
{ "type": "Feature", "properties": { "voltage_kv": 132.0, "from_node": 24, "to_node": 34, "length_km": 59.436905504270719, "delaunay_k": 4, "edge_set": "Delaunay4" }, "geometry": { "type": "LineString", "coordinates": [ [ 11.727905, 55.381451 ], [ 11.921539, 54.859221 ] ] } },
{ "type": "Feature", "properties": { "voltage_kv": 132.0, "from_node": 24, "to_node": 39, "length_km": 71.228603499212738, "delaunay_k": 4, "edge_set": "Delaunay4" }, "geometry": { "type": "LineString", "coordinates": [ [ 11.727905, 55.381451 ], [ 11.965485, 54.756331 ] ] } },
{ "type": "Feature", "properties": { "voltage_kv": 132.0, "from_node": 24, "to_node": 42, "length_km": 68.723200607772199, "delaunay_k": 4, "edge_set": "Delaunay4" }, "geometry": { "type": "LineString", "coordinates": [ [ 11.727905, 55.381451 ], [ 12.061615, 55.969187 ] ] } },
{ "type": "Feature", "properties": { "voltage_kv": 132.0, "from_node": 24, "to_node": 47, "length_km": 58.544226700528597, "delaunay_k": 4, "edge_set": "Delaunay4" }, "geometry": { "type": "LineString", "coordinates": [ [ 11.727905, 55.381451 ], [ 12.23465, 55.822116 ] ] } },
{ "type": "Feature", "properties": { "voltage_kv": 132.0, "from_node": 24, "to_node": 48, "length_km": 53.480484057892014, "delaunay_k": 4, "edge_set": "Delaunay4" }, "geometry": { "type": "LineString", "coordinates": [ [ 11.727905, 55.381451 ], [ 12.240143, 55.764213 ] ] } },
{ "type": "Feature", "properties": { "voltage_kv": 132.0, "from_node": 24, "to_node": 49, "length_km": 39.558856286536809, "delaunay_k": 4, "edge_set": "Delaunay4" }, "geometry": { "type": "LineString", "coordinates": [ [ 11.727905, 55.381451 ], [ 12.268982, 55.559709 ] ] } },
{ "type": "Feature", "properties": { "voltage_kv": 132.0, "from_node": 24, "to_node": 50, "length_km": 48.940782709198892, "delaunay_k": 4, "edge_set": "Delaunay4" }, "geometry": { "type": "LineString", "coordinates": [ [ 11.727905, 55.381451 ], [ 12.311554, 55.670615 ] ] } },
{ "type": "Feature", "properties": { "voltage_kv": 132.0, "from_node": 24, "to_node": 51, "length_km": 47.686883765887615, "delaunay_k": 4, "edge_set": "Delaunay4" }, "geometry": { "type": "LineString", "coordinates": [ [ 11.727905, 55.381451 ], [ 12.362366, 55.613262 ] ] } },
{ "type": "Feature", "properties": { "voltage_kv": 132.0, "from_node": 24, "to_node": 54, "length_km": 57.995688120693323, "delaunay_k": 4, "edge_set": "Delaunay4" }, "geometry": { "type": "LineString", "coordinates": [ [ 11.727905, 55.381451 ], [ 12.490645134825497, 55.671527244775099 ] ] } },
{ "type": "Feature", "properties": { "voltage_kv": 132.0, "from_node": 24, "to_node": 56, "length_km": 63.968359235622529, "delaunay_k": 4, "edge_set": "Delaunay4" }, "geometry": { "type": "LineString", "coordinates": [ [ 11.727905, 55.381451 ], [ 12.527161, 55.734843 ] ] } },
{ "type": "Feature", "properties": { "voltage_kv": 132.0, "from_node": 24, "to_node": 59, "length_km": 66.615368648889785, "delaunay_k": 4, "edge_set": "Delaunay4" }, "geometry": { "type": "LineString", "coordinates": [ [ 11.727905, 55.381451 ], [ 12.580719, 55.73407 ] ] } },
{ "type": "Feature", "properties": { "voltage_kv": 132.0, "from_node": 24, "to_node": 61, "length_km": 107.82414553804456, "delaunay_k": 4, "edge_set": "Delaunay4" }, "geometry": { "type": "LineString", "coordinates": [ [ 11.727905, 55.381451 ], [ 12.933655, 56.070502 ] ] } },
{ "type": "Feature", "properties": { "voltage_kv": 132.0, "from_node": 25, "to_node": 30, "length_km": 48.598380953266734, "delaunay_k": 4, "edge_set": "Delaunay4" }, "geometry": { "type": "LineString", "coordinates": [ [ 11.762238, 55.22589 ], [ 11.877594, 55.657447 ] ] } },
{ "type": "Feature", "properties": { "voltage_kv": 132.0, "from_node": 25, "to_node": 31, "length_km": 66.241232503234798, "delaunay_k": 4, "edge_set": "Delaunay4" }, "geometry": { "type": "LineString", "coordinates": [ [ 11.762238, 55.22589 ], [ 11.885834, 55.816715 ] ] } },
{ "type": "Feature", "properties": { "voltage_kv": 132.0, "from_node": 25, "to_node": 37, "length_km": 39.086419993543814, "delaunay_k": 4, "edge_set": "Delaunay4" }, "geometry": { "type": "LineString", "coordinates": [ [ 11.762238, 55.22589 ], [ 11.949005, 55.560486 ] ] } },
{ "type": "Feature", "properties": { "voltage_kv": 132.0, "from_node": 25, "to_node": 40, "length_km": 33.598137125229911, "delaunay_k": 4, "edge_set": "Delaunay4" }, "geometry": { "type": "LineString", "coordinates": [ [ 11.762238, 55.22589 ], [ 11.990204, 55.498305 ] ] } },
{ "type": "Feature", "properties": { "voltage_kv": 132.0, "from_node": 25, "to_node": 45, "length_km": 39.926677684279262, "delaunay_k": 4, "edge_set": "Delaunay4" }, "geometry": { "type": "LineString", "coordinates": [ [ 11.762238, 55.22589 ], [ 12.170105, 55.499083 ] ] } },
{ "type": "Feature", "properties": { "voltage_kv": 132.0, "from_node": 25, "to_node": 49, "length_km": 49.116540813593765, "delaunay_k": 4, "edge_set": "Delaunay4" }, "geometry": { "type": "LineString", "coordinates": [ [ 11.762238, 55.22589 ], [ 12.268982, 55.559709 ] ] } },
{ "type": "Feature", "properties": { "voltage_kv": 132.0, "from_node": 25, "to_node": 51, "length_km": 57.483102794031161, "delaunay_k": 4, "edge_set": "Delaunay4" }, "geometry": { "type": "LineString", "coordinates": [ [ 11.762238, 55.22589 ], [ 12.362366, 55.613262 ] ] } },
{ "type": "Feature", "properties": { "voltage_kv": 132.0, "from_node": 25, "to_node": 54, "length_km": 67.722013428190905, "delaunay_k": 4, "edge_set": "Delaunay4" }, "geometry": { "type": "LineString", "coordinates": [ [ 11.762238, 55.22589 ], [ 12.490645134825497, 55.671527244775099 ] ] } },
{ "type": "Feature", "properties": { "voltage_kv": 132.0, "from_node": 25, "to_node": 56, "length_km": 74.499016187606202, "delaunay_k": 4, "edge_set": "Delaunay4" }, "geometry": { "type": "LineString", "coordinates": [ [ 11.762238, 55.22589 ], [ 12.527161, 55.734843 ] ] } },
{ "type": "Feature", "properties": { "voltage_kv": 132.0, "from_node": 25, "to_node": 59, "length_km": 76.677669765627911, "delaunay_k": 4, "edge_set": "Delaunay4" }, "geometry": { "type": "LineString", "coordinates": [ [ 11.762238, 55.22589 ], [ 12.580719, 55.73407 ] ] } },
{ "type": "Feature", "properties": { "voltage_kv": 132.0, "from_node": 25, "to_node": 61, "length_km": 119.51028466242666, "delaunay_k": 4, "edge_set": "Delaunay4" }, "geometry": { "type": "LineString", "coordinates": [ [ 11.762238, 55.22589 ], [ 12.933655, 56.070502 ] ] } },
{ "type": "Feature", "properties": { "voltage_kv": 132.0, "from_node": 26, "to_node": 29, "length_km": 57.058730383432881, "delaunay_k": 4, "edge_set": "Delaunay4" }, "geometry": { "type": "LineString", "coordinates": [ [ 11.786957, 55.4407 ], [ 11.851501, 54.929509 ] ] } },
{ "type": "Feature", "properties": { "voltage_kv": 132.0, "from_node": 26, "to_node": 33, "length_km": 50.425952322443315, "delaunay_k": 4, "edge_set": "Delaunay4" }, "geometry": { "type": "LineString", "coordinates": [ [ 11.786957, 55.4407 ], [ 11.902313, 54.992585 ] ] } },
{ "type": "Feature", "properties": { "voltage_kv": 132.0, "from_node": 26, "to_node": 34, "length_km": 65.301411513261186, "delaunay_k": 4, "edge_set": "Delaunay4" }, "geometry": { "type": "LineString", "coordinates": [ [ 11.786957, 55.4407 ], [ 11.921539, 54.859221 ] ] } },
{ "type": "Feature", "properties": { "voltage_kv": 132.0, "from_node": 26, "to_node": 39, "length_km": 77.036956145546597, "delaunay_k": 4, "edge_set": "Delaunay4" }, "geometry": { "type": "LineString", "coordinates": [ [ 11.786957, 55.4407 ], [ 11.965485, 54.756331 ] ] } },
{ "type": "Feature", "properties": { "voltage_kv": 132.0, "from_node": 26, "to_node": 42, "length_km": 61.322502123253258, "delaunay_k": 4, "edge_set": "Delaunay4" }, "geometry": { "type": "LineString", "coordinates": [ [ 11.786957, 55.4407 ], [ 12.061615, 55.969187 ] ] } },
{ "type": "Feature", "properties": { "voltage_kv": 132.0, "from_node": 26, "to_node": 47, "length_km": 50.975901647610812, "delaunay_k": 4, "edge_set": "Delaunay4" }, "geometry": { "type": "LineString", "coordinates": [ [ 11.786957, 55.4407 ], [ 12.23465, 55.822116 ] ] } },
{ "type": "Feature", "properties": { "voltage_kv": 132.0, "from_node": 26, "to_node": 48, "length_km": 45.971583389946595, "delaunay_k": 4, "edge_set": "Delaunay4" }, "geometry": { "type": "LineString", "coordinates": [ [ 11.786957, 55.4407 ], [ 12.240143, 55.764213 ] ] } },
{ "type": "Feature", "properties": { "voltage_kv": 132.0, "from_node": 26, "to_node": 51, "length_km": 41.105943172146233, "delaunay_k": 4, "edge_set": "Delaunay4" }, "geometry": { "type": "LineString", "coordinates": [ [ 11.786957, 55.4407 ], [ 12.362366, 55.613262 ] ] } },
{ "type": "Feature", "properties": { "voltage_kv": 132.0, "from_node": 26, "to_node": 52, "length_km": 52.124293250784348, "delaunay_k": 4, "edge_set": "Delaunay4" }, "geometry": { "type": "LineString", "coordinates": [ [ 11.786957, 55.4407 ], [ 12.389832, 55.761123 ] ] } },
{ "type": "Feature", "properties": { "voltage_kv": 132.0, "from_node": 26, "to_node": 54, "length_km": 51.308779835047197, "delaunay_k": 4, "edge_set": "Delaunay4" }, "geometry": { "type": "LineString", "coordinates": [ [ 11.786957, 55.4407 ], [ 12.490645134825497, 55.671527244775099 ] ] } },
{ "type": "Feature", "properties": { "voltage_kv": 132.0, "from_node": 26, "to_node": 56, "length_km": 57.018506876157019, "delaunay_k": 4, "edge_set": "Delaunay4" }, "geometry": { "type": "LineString", "coordinates": [ [ 11.786957, 55.4407 ], [ 12.527161, 55.734843 ] ] } },
{ "type": "Feature", "properties": { "voltage_kv": 132.0, "from_node": 26, "to_node": 59, "length_km": 59.768004749636397, "delaunay_k": 4, "edge_set": "Delaunay4" }, "geometry": { "type": "LineString", "coordinates": [ [ 11.786957, 55.4407 ], [ 12.580719, 55.73407 ] ] } },
{ "type": "Feature", "properties": { "voltage_kv": 132.0, "from_node": 26, "to_node": 61, "length_km": 100.50459173154456, "delaunay_k": 4, "edge_set": "Delaunay4" }, "geometry": { "type": "LineString", "coordinates": [ [ 11.786957, 55.4407 ], [ 12.933655, 56.070502 ] ] } },
{ "type": "Feature", "properties": { "voltage_kv": 132.0, "from_node": 27, "to_node": 30, "length_km": 56.041932983158375, "delaunay_k": 4, "edge_set": "Delaunay4" }, "geometry": { "type": "LineString", "coordinates": [ [ 11.797943, 55.15612 ], [ 11.877594, 55.657447 ] ] } },
{ "type": "Feature", "properties": { "voltage_kv": 132.0, "from_node": 27, "to_node": 31, "length_km": 73.756711684643733, "delaunay_k": 4, "edge_set": "Delaunay4" }, "geometry": { "type": "LineString", "coordinates": [ [ 11.797943, 55.15612 ], [ 11.885834, 55.816715 ] ] } },
{ "type": "Feature", "properties": { "voltage_kv": 132.0, "from_node": 27, "to_node": 37, "length_km": 46.027287699479885, "delaunay_k": 4, "edge_set": "Delaunay4" }, "geometry": { "type": "LineString", "coordinates": [ [ 11.797943, 55.15612 ], [ 11.949005, 55.560486 ] ] } },
{ "type": "Feature", "properties": { "voltage_kv": 132.0, "from_node": 27, "to_node": 40, "length_km": 40.003024461852441, "delaunay_k": 4, "edge_set": "Delaunay4" }, "geometry": { "type": "LineString", "coordinates": [ [ 11.797943, 55.15612 ], [ 11.990204, 55.498305 ] ] } },
{ "type": "Feature", "properties": { "voltage_kv": 132.0, "from_node": 27, "to_node": 42, "length_km": 92.04007660016498, "delaunay_k": 4, "edge_set": "Delaunay4" }, "geometry": { "type": "LineString", "coordinates": [ [ 11.797943, 55.15612 ], [ 12.061615, 55.969187 ] ] } },
{ "type": "Feature", "properties": { "voltage_kv": 132.0, "from_node": 27, "to_node": 43, "length_km": 54.403569502329852, "delaunay_k": 4, "edge_set": "Delaunay4" }, "geometry": { "type": "LineString", "coordinates": [ [ 11.797943, 55.15612 ], [ 12.108307, 55.611711 ] ] } },
{ "type": "Feature", "properties": { "voltage_kv": 132.0, "from_node": 27, "to_node": 50, "length_km": 65.873496762152087, "delaunay_k": 4, "edge_set": "Delaunay4" }, "geometry": { "type": "LineString", "coordinates": [ [ 11.797943, 55.15612 ], [ 12.311554, 55.670615 ] ] } },
{ "type": "Feature", "properties": { "voltage_kv": 132.0, "from_node": 27, "to_node": 52, "length_km": 77.066598966684026, "delaunay_k": 4, "edge_set": "Delaunay4" }, "geometry": { "type": "LineString", "coordinates": [ [ 11.797943, 55.15612 ], [ 12.389832, 55.761123 ] ] } },
{ "type": "Feature", "properties": { "voltage_kv": 132.0, "from_node": 27, "to_node": 55, "length_km": 97.85948163390681, "delaunay_k": 4, "edge_set": "Delaunay4" }, "geometry": { "type": "LineString", "coordinates": [ [ 11.797943, 55.15612 ], [ 12.520294, 55.933818 ] ] } },
{ "type": "Feature", "properties": { "voltage_kv": 132.0, "from_node": 27, "to_node": 57, "length_km": 86.148525518883034, "delaunay_k": 4, "edge_set": "Delaunay4" }, "geometry": { "type": "LineString", "coordinates": [ [ 11.797943, 55.15612 ], [ 12.56424, 55.795877 ] ] } },
{ "type": "Feature", "properties": { "voltage_kv": 132.0, "from_node": 27, "to_node": 58, "length_km": 110.10658417653705, "delaunay_k": 4, "edge_set": "Delaunay4" }, "geometry": { "type": "LineString", "coordinates": [ [ 11.797943, 55.15612 ], [ 12.571106, 56.042897 ] ] } },
{ "type": "Feature", "properties": { "voltage_kv": 132.0, "from_node": 28, "to_node": 30, "length_km": 44.81714251114569, "delaunay_k": 4, "edge_set": "Delaunay4" }, "geometry": { "type": "LineString", "coordinates": [ [ 11.8480685, 55.255251001923504 ], [ 11.877594, 55.657447 ] ] } },
{ "type": "Feature", "properties": { "voltage_kv": 132.0, "from_node": 28, "to_node": 31, "length_km": 62.556470758504609, "delaunay_k": 4, "edge_set": "Delaunay4" }, "geometry": { "type": "LineString", "coordinates": [ [ 11.8480685, 55.255251001923504 ], [ 11.885834, 55.816715 ] ] } },
{ "type": "Feature", "properties": { "voltage_kv": 132.0, "from_node": 28, "to_node": 43, "length_km": 42.969736712659625, "delaunay_k": 4, "edge_set": "Delaunay4" }, "geometry": { "type": "LineString", "coordinates": [ [ 11.8480685, 55.255251001923504 ], [ 12.108307, 55.611711 ] ] } },
{ "type": "Feature", "properties": { "voltage_kv": 132.0, "from_node": 28, "to_node": 49, "length_km": 43.126633528673963, "delaunay_k": 4, "edge_set": "Delaunay4" }, "geometry": { "type": "LineString", "coordinates": [ [ 11.8480685, 55.255251001923504 ], [ 12.268982, 55.559709 ] ] } },
{ "type": "Feature", "properties": { "voltage_kv": 132.0, "from_node": 28, "to_node": 51, "length_km": 51.465454558159024, "delaunay_k": 4, "edge_set": "Delaunay4" }, "geometry": { "type": "LineString", "coordinates": [ [ 11.8480685, 55.255251001923504 ], [ 12.362366, 55.613262 ] ] } },
{ "type": "Feature", "properties": { "voltage_kv": 132.0, "from_node": 28, "to_node": 54, "length_km": 61.645793878972299, "delaunay_k": 4, "edge_set": "Delaunay4" }, "geometry": { "type": "LineString", "coordinates": [ [ 11.8480685, 55.255251001923504 ], [ 12.490645134825497, 55.671527244775099 ] ] } },
{ "type": "Feature", "properties": { "voltage_kv": 132.0, "from_node": 28, "to_node": 56, "length_km": 68.509208726453849, "delaunay_k": 4, "edge_set": "Delaunay4" }, "geometry": { "type": "LineString", "coordinates": [ [ 11.8480685, 55.255251001923504 ], [ 12.527161, 55.734843 ] ] } },
{ "type": "Feature", "properties": { "voltage_kv": 132.0, "from_node": 28, "to_node": 59, "length_km": 70.61477954364598, "delaunay_k": 4, "edge_set": "Delaunay4" }, "geometry": { "type": "LineString", "coordinates": [ [ 11.8480685, 55.255251001923504 ], [ 12.580719, 55.73407 ] ] } },
{ "type": "Feature", "properties": { "voltage_kv": 132.0, "from_node": 28, "to_node": 61, "length_km": 113.61071626421774, "delaunay_k": 4, "edge_set": "Delaunay4" }, "geometry": { "type": "LineString", "coordinates": [ [ 11.8480685, 55.255251001923504 ], [ 12.933655, 56.070502 ] ] } },
{ "type": "Feature", "properties": { "voltage_kv": 132.0, "from_node": 29, "to_node": 38, "length_km": 57.855828857009087, "delaunay_k": 4, "edge_set": "Delaunay4" }, "geometry": { "type": "LineString", "coordinates": [ [ 11.851501, 54.929509 ], [ 11.961365, 55.445374 ] ] } },
{ "type": "Feature", "properties": { "voltage_kv": 132.0, "from_node": 29, "to_node": 45, "length_km": 66.575201164165875, "delaunay_k": 4, "edge_set": "Delaunay4" }, "geometry": { "type": "LineString", "coordinates": [ [ 11.851501, 54.929509 ], [ 12.170105, 55.499083 ] ] } },
{ "type": "Feature", "properties": { "voltage_kv": 132.0, "from_node": 29, "to_node": 49, "length_km": 75.018018408543284, "delaunay_k": 4, "edge_set": "Delaunay4" }, "geometry": { "type": "LineString", "coordinates": [ [ 11.851501, 54.929509 ], [ 12.268982, 55.559709 ] ] } },
{ "type": "Feature", "properties": { "voltage_kv": 132.0, "from_node": 29, "to_node": 51, "length_km": 82.760248286230521, "delaunay_k": 4, "edge_set": "Delaunay4" }, "geometry": { "type": "LineString", "coordinates": [ [ 11.851501, 54.929509 ], [ 12.362366, 55.613262 ] ] } },
{ "type": "Feature", "properties": { "voltage_kv": 132.0, "from_node": 29, "to_node": 54, "length_km": 92.047026590977666, "delaunay_k": 4, "edge_set": "Delaunay4" }, "geometry": { "type": "LineString", "coordinates": [ [ 11.851501, 54.929509 ], [ 12.490645134825497, 55.671527244775099 ] ] } },
{ "type": "Feature", "properties": { "voltage_kv": 132.0, "from_node": 29, "to_node": 56, "length_km": 99.387473431083436, "delaunay_k": 4, "edge_set": "Delaunay4" }, "geometry": { "type": "LineString", "coordinates": [ [ 11.851501, 54.929509 ], [ 12.527161, 55.734843 ] ] } },
{ "type": "Feature", "properties": { "voltage_kv": 132.0, "from_node": 29, "to_node": 59, "length_km": 100.8245083805065, "delaunay_k": 4, "edge_set": "Delaunay4" }, "geometry": { "type": "LineString", "coordinates": [ [ 11.851501, 54.929509 ], [ 12.580719, 55.73407 ] ] } },
{ "type": "Feature", "properties": { "voltage_kv": 132.0, "from_node": 30, "to_node": 35, "length_km": 59.062927679653392, "delaunay_k": 4, "edge_set": "Delaunay4" }, "geometry": { "type": "LineString", "coordinates": [ [ 11.877594, 55.657447 ], [ 11.932526, 55.127864 ] ] } },
{ "type": "Feature", "properties": { "voltage_kv": 132.0, "from_node": 30, "to_node": 36, "length_km": 48.700903239212231, "delaunay_k": 4, "edge_set": "Delaunay4" }, "geometry": { "type": "LineString", "coordinates": [ [ 11.877594, 55.657447 ], [ 11.933899, 55.22119 ] ] } },
{ "type": "Feature", "properties": { "voltage_kv": 132.0, "from_node": 30, "to_node": 39, "length_km": 100.47724452723243, "delaunay_k": 4, "edge_set": "Delaunay4" }, "geometry": { "type": "LineString", "coordinates": [ [ 11.877594, 55.657447 ], [ 11.965485, 54.756331 ] ] } },
{ "type": "Feature", "properties": { "voltage_kv": 132.0, "from_node": 30, "to_node": 55, "length_km": 50.715124928330638, "delaunay_k": 4, "edge_set": "Delaunay4" }, "geometry": { "type": "LineString", "coordinates": [ [ 11.877594, 55.657447 ], [ 12.520294, 55.933818 ] ] } },
{ "type": "Feature", "properties": { "voltage_kv": 132.0, "from_node": 30, "to_node": 56, "length_km": 41.746508016806423, "delaunay_k": 4, "edge_set": "Delaunay4" }, "geometry": { "type": "LineString", "coordinates": [ [ 11.877594, 55.657447 ], [ 12.527161, 55.734843 ] ] } },
{ "type": "Feature", "properties": { "voltage_kv": 132.0, "from_node": 30, "to_node": 57, "length_km": 45.815872243078182, "delaunay_k": 4, "edge_set": "Delaunay4" }, "geometry": { "type": "LineString", "coordinates": [ [ 11.877594, 55.657447 ], [ 12.56424, 55.795877 ] ] } },
{ "type": "Feature", "properties": { "voltage_kv": 132.0, "from_node": 30, "to_node": 59, "length_km": 45.031418934511173, "delaunay_k": 4, "edge_set": "Delaunay4" }, "geometry": { "type": "LineString", "coordinates": [ [ 11.877594, 55.657447 ], [ 12.580719, 55.73407 ] ] } },
{ "type": "Feature", "properties": { "voltage_kv": 132.0, "from_node": 30, "to_node": 61, "length_km": 80.54666095723212, "delaunay_k": 4, "edge_set": "Delaunay4" }, "geometry": { "type": "LineString", "coordinates": [ [ 11.877594, 55.657447 ], [ 12.933655, 56.070502 ] ] } },
{ "type": "Feature", "properties": { "voltage_kv": 132.0, "from_node": 31, "to_node": 32, "length_km": 58.207835535398871, "delaunay_k": 4, "edge_set": "Delaunay4" }, "geometry": { "type": "LineString", "coordinates": [ [ 11.885834, 55.816715 ], [ 11.90094, 55.293974 ] ] } },
{ "type": "Feature", "properties": { "voltage_kv": 132.0, "from_node": 31, "to_node": 38, "length_km": 41.617121267082638, "delaunay_k": 4, "edge_set": "Delaunay4" }, "geometry": { "type": "LineString", "coordinates": [ [ 11.885834, 55.816715 ], [ 11.961365, 55.445374 ] ] } },
{ "type": "Feature", "properties": { "voltage_kv": 132.0, "from_node": 31, "to_node": 41, "length_km": 52.582664885320149, "delaunay_k": 4, "edge_set": "Delaunay4" }, "geometry": { "type": "LineString", "coordinates": [ [ 11.885834, 55.816715 ], [ 12.024536, 55.351012 ] ] } },
{ "type": "Feature", "properties": { "voltage_kv": 132.0, "from_node": 31, "to_node": 59, "length_km": 44.569143500379731, "delaunay_k": 4, "edge_set": "Delaunay4" }, "geometry": { "type": "LineString", "coordinates": [ [ 11.885834, 55.816715 ], [ 12.580719, 55.73407 ] ] } },
{ "type": "Feature", "properties": { "voltage_kv": 132.0, "from_node": 31, "to_node": 60, "length_km": 47.08194288358925, "delaunay_k": 4, "edge_set": "Delaunay4" }, "geometry": { "type": "LineString", "coordinates": [ [ 11.885834, 55.816715 ], [ 12.583466, 55.662095 ] ] } },
{ "type": "Feature", "properties": { "voltage_kv": 132.0, "from_node": 32, "to_node": 44, "length_km": 51.969319637618575, "delaunay_k": 4, "edge_set": "Delaunay4" }, "geometry": { "type": "LineString", "coordinates": [ [ 11.90094, 55.293974 ], [ 12.154999, 55.737935 ] ] } },
{ "type": "Feature", "properties": { "voltage_kv": 132.0, "from_node": 32, "to_node": 50, "length_km": 49.319842232436073, "delaunay_k": 4, "edge_set": "Delaunay4" }, "geometry": { "type": "LineString", "coordinates": [ [ 11.90094, 55.293974 ], [ 12.311554, 55.670615 ] ] } },
{ "type": "Feature", "properties": { "voltage_kv": 132.0, "from_node": 32, "to_node": 52, "length_km": 60.485069448232551, "delaunay_k": 4, "edge_set": "Delaunay4" }, "geometry": { "type": "LineString", "coordinates": [ [ 11.90094, 55.293974 ], [ 12.389832, 55.761123 ] ] } },
{ "type": "Feature", "properties": { "voltage_kv": 132.0, "from_node": 32, "to_node": 55, "length_km": 81.230173962470786, "delaunay_k": 4, "edge_set": "Delaunay4" }, "geometry": { "type": "LineString", "coordinates": [ [ 11.90094, 55.293974 ], [ 12.520294, 55.933818 ] ] } },
{ "type": "Feature", "properties": { "voltage_kv": 132.0, "from_node": 32, "to_node": 57, "length_km": 69.827736382919639, "delaunay_k": 4, "edge_set": "Delaunay4" }, "geometry": { "type": "LineString", "coordinates": [ [ 11.90094, 55.293974 ], [ 12.56424, 55.795877 ] ] } },
{ "type": "Feature", "properties": { "voltage_kv": 132.0, "from_node": 32, "to_node": 58, "length_km": 93.442931139663585, "delaunay_k": 4, "edge_set": "Delaunay4" }, "geometry": { "type": "LineString", "coordinates": [ [ 11.90094, 55.293974 ], [ 12.571106, 56.042897 ] ] } },
{ "type": "Feature", "properties": { "voltage_kv": 132.0, "from_node": 33, "to_node": 40, "length_km": 56.579134976179027, "delaunay_k": 4, "edge_set": "Delaunay4" }, "geometry": { "type": "LineString", "coordinates": [ [ 11.902313, 54.992585 ], [ 11.990204, 55.498305 ] ] } },
{ "type": "Feature", "properties": { "voltage_kv": 132.0, "from_node": 33, "to_node": 43, "length_km": 70.159452174313671, "delaunay_k": 4, "edge_set": "Delaunay4" }, "geometry": { "type": "LineString", "coordinates": [ [ 11.902313, 54.992585 ], [ 12.108307, 55.611711 ] ] } },
{ "type": "Feature", "properties": { "voltage_kv": 132.0, "from_node": 33, "to_node": 50, "length_km": 79.830828741999412, "delaunay_k": 4, "edge_set": "Delaunay4" }, "geometry": { "type": "LineString", "coordinates": [ [ 11.902313, 54.992585 ], [ 12.311554, 55.670615 ] ] } },
{ "type": "Feature", "properties": { "voltage_kv": 132.0, "from_node": 33, "to_node": 52, "length_km": 90.975349534297877, "delaunay_k": 4, "edge_set": "Delaunay4" }, "geometry": { "type": "LineString", "coordinates": [ [ 11.902313, 54.992585 ], [ 12.389832, 55.761123 ] ] } },
{ "type": "Feature", "properties": { "voltage_kv": 132.0, "from_node": 33, "to_node": 55, "length_km": 111.847143821153, "delaunay_k": 4, "edge_set": "Delaunay4" }, "geometry": { "type": "LineString", "coordinates": [ [ 11.902313, 54.992585 ], [ 12.520294, 55.933818 ] ] } },
{ "type": "Feature", "properties": { "voltage_kv": 132.0, "from_node": 33, "to_node": 57, "length_km": 98.78205279688072, "delaunay_k": 4, "edge_set": "Delaunay4" }, "geometry": { "type": "LineString", "coordinates": [ [ 11.902313, 54.992585 ], [ 12.56424, 55.795877 ] ] } },
{ "type": "Feature", "properties": { "voltage_kv": 132.0, "from_node": 33, "to_node": 58, "length_km": 124.33635853892885, "delaunay_k": 4, "edge_set": "Delaunay4" }, "geometry": { "type": "LineString", "coordinates": [ [ 11.902313, 54.992585 ], [ 12.571106, 56.042897 ] ] } },
{ "type": "Feature", "properties": { "voltage_kv": 132.0, "from_node": 34, "to_node": 40, "length_km": 71.283463328976737, "delaunay_k": 4, "edge_set": "Delaunay4" }, "geometry": { "type": "LineString", "coordinates": [ [ 11.921539, 54.859221 ], [ 11.990204, 55.498305 ] ] } },
{ "type": "Feature", "properties": { "voltage_kv": 132.0, "from_node": 34, "to_node": 43, "length_km": 84.614075145730794, "delaunay_k": 4, "edge_set": "Delaunay4" }, "geometry": { "type": "LineString", "coordinates": [ [ 11.921539, 54.859221 ], [ 12.108307, 55.611711 ] ] } },
{ "type": "Feature", "properties": { "voltage_kv": 132.0, "from_node": 34, "to_node": 50, "length_km": 93.675353352647889, "delaunay_k": 4, "edge_set": "Delaunay4" }, "geometry": { "type": "LineString", "coordinates": [ [ 11.921539, 54.859221 ], [ 12.311554, 55.670615 ] ] } },
{ "type": "Feature", "properties": { "voltage_kv": 132.0, "from_node": 34, "to_node": 52, "length_km": 104.7225850611832, "delaunay_k": 4, "edge_set": "Delaunay4" }, "geometry": { "type": "LineString", "coordinates": [ [ 11.921539, 54.859221 ], [ 12.389832, 55.761123 ] ] } },
{ "type": "Feature", "properties": { "voltage_kv": 132.0, "from_node": 34, "to_node": 55, "length_km": 125.51177031815354, "delaunay_k": 4, "edge_set": "Delaunay4" }, "geometry": { "type": "LineString", "coordinates": [ [ 11.921539, 54.859221 ], [ 12.520294, 55.933818 ] ] } },
{ "type": "Feature", "properties": { "voltage_kv": 132.0, "from_node": 34, "to_node": 57, "length_km": 111.97713171403947, "delaunay_k": 4, "edge_set": "Delaunay4" }, "geometry": { "type": "LineString", "coordinates": [ [ 11.921539, 54.859221 ], [ 12.56424, 55.795877 ] ] } },
{ "type": "Feature", "properties": { "voltage_kv": 132.0, "from_node": 35, "to_node": 37, "length_km": 48.176335955550087, "delaunay_k": 4, "edge_set": "Delaunay4" }, "geometry": { "type": "LineString", "coordinates": [ [ 11.932526, 55.127864 ], [ 11.949005, 55.560486 ] ] } },
{ "type": "Feature", "properties": { "voltage_kv": 132.0, "from_node": 35, "to_node": 42, "length_km": 94.023930599676916, "delaunay_k": 4, "edge_set": "Delaunay4" }, "geometry": { "type": "LineString", "coordinates": [ [ 11.932526, 55.127864 ], [ 12.061615, 55.969187 ] ] } },
{ "type": "Feature", "properties": { "voltage_kv": 132.0, "from_node": 35, "to_node": 44, "length_km": 69.367005971779491, "delaunay_k": 4, "edge_set": "Delaunay4" }, "geometry": { "type": "LineString", "coordinates": [ [ 11.932526, 55.127864 ], [ 12.154999, 55.737935 ] ] } },
{ "type": "Feature", "properties": { "voltage_kv": 132.0, "from_node": 35, "to_node": 46, "length_km": 89.452189269613299, "delaunay_k": 4, "edge_set": "Delaunay4" }, "geometry": { "type": "LineString", "coordinates": [ [ 11.932526, 55.127864 ], [ 12.22641, 55.913812 ] ] } },
{ "type": "Feature", "properties": { "voltage_kv": 132.0, "from_node": 35, "to_node": 47, "length_km": 79.621462322227345, "delaunay_k": 4, "edge_set": "Delaunay4" }, "geometry": { "type": "LineString", "coordinates": [ [ 11.932526, 55.127864 ], [ 12.23465, 55.822116 ] ] } },
{ "type": "Feature", "properties": { "voltage_kv": 132.0, "from_node": 35, "to_node": 48, "length_km": 73.47410893525317, "delaunay_k": 4, "edge_set": "Delaunay4" }, "geometry": { "type": "LineString", "coordinates": [ [ 11.932526, 55.127864 ], [ 12.240143, 55.764213 ] ] } },
{ "type": "Feature", "properties": { "voltage_kv": 132.0, "from_node": 35, "to_node": 53, "length_km": 96.208766522086961, "delaunay_k": 4, "edge_set": "Delaunay4" }, "geometry": { "type": "LineString", "coordinates": [ [ 11.932526, 55.127864 ], [ 12.474976, 55.935356 ] ] } },
{ "type": "Feature", "properties": { "voltage_kv": 132.0, "from_node": 36, "to_node": 44, "length_km": 59.206472204258702, "delaunay_k": 4, "edge_set": "Delaunay4" }, "geometry": { "type": "LineString", "coordinates": [ [ 11.933899, 55.22119 ], [ 12.154999, 55.737935 ] ] } },
{ "type": "Feature", "properties": { "voltage_kv": 132.0, "from_node": 36, "to_node": 50, "length_km": 55.451824193921155, "delaunay_k": 4, "edge_set": "Delaunay4" }, "geometry": { "type": "LineString", "coordinates": [ [ 11.933899, 55.22119 ], [ 12.311554, 55.670615 ] ] } },
{ "type": "Feature", "properties": { "voltage_kv": 132.0, "from_node": 36, "to_node": 52, "length_km": 66.666051621011746, "delaunay_k": 4, "edge_set": "Delaunay4" }, "geometry": { "type": "LineString", "coordinates": [ [ 11.933899, 55.22119 ], [ 12.389832, 55.761123 ] ] } },
{ "type": "Feature", "properties": { "voltage_kv": 132.0, "from_node": 36, "to_node": 55, "length_km": 87.540248660953736, "delaunay_k": 4, "edge_set": "Delaunay4" }, "geometry": { "type": "LineString", "coordinates": [ [ 11.933899, 55.22119 ], [ 12.520294, 55.933818 ] ] } },
{ "type": "Feature", "properties": { "voltage_kv": 132.0, "from_node": 36, "to_node": 57, "length_km": 75.367399395607748, "delaunay_k": 4, "edge_set": "Delaunay4" }, "geometry": { "type": "LineString", "coordinates": [ [ 11.933899, 55.22119 ], [ 12.56424, 55.795877 ] ] } },
{ "type": "Feature", "properties": { "voltage_kv": 132.0, "from_node": 36, "to_node": 58, "length_km": 99.905021149464005, "delaunay_k": 4, "edge_set": "Delaunay4" }, "geometry": { "type": "LineString", "coordinates": [ [ 11.933899, 55.22119 ], [ 12.571106, 56.042897 ] ] } },
{ "type": "Feature", "properties": { "voltage_kv": 132.0, "from_node": 37, "to_node": 39, "length_km": 89.53230240418479, "delaunay_k": 4, "edge_set": "Delaunay4" }, "geometry": { "type": "LineString", "coordinates": [ [ 11.949005, 55.560486 ], [ 11.965485, 54.756331 ] ] } },
{ "type": "Feature", "properties": { "voltage_kv": 132.0, "from_node": 37, "to_node": 46, "length_km": 43.026357713517328, "delaunay_k": 4, "edge_set": "Delaunay4" }, "geometry": { "type": "LineString", "coordinates": [ [ 11.949005, 55.560486 ], [ 12.22641, 55.913812 ] ] } },
{ "type": "Feature", "properties": { "voltage_kv": 132.0, "from_node": 37, "to_node": 53, "length_km": 53.227734566743493, "delaunay_k": 4, "edge_set": "Delaunay4" }, "geometry": { "type": "LineString", "coordinates": [ [ 11.949005, 55.560486 ], [ 12.474976, 55.935356 ] ] } },
{ "type": "Feature", "properties": { "voltage_kv": 132.0, "from_node": 37, "to_node": 56, "length_km": 41.254826639769476, "delaunay_k": 4, "edge_set": "Delaunay4" }, "geometry": { "type": "LineString", "coordinates": [ [ 11.949005, 55.560486 ], [ 12.527161, 55.734843 ] ] } },
{ "type": "Feature", "properties": { "voltage_kv": 132.0, "from_node": 37, "to_node": 57, "length_km": 46.744788643403176, "delaunay_k": 4, "edge_set": "Delaunay4" }, "geometry": { "type": "LineString", "coordinates": [ [ 11.949005, 55.560486 ], [ 12.56424, 55.795877 ] ] } },
{ "type": "Feature", "properties": { "voltage_kv": 132.0, "from_node": 37, "to_node": 58, "length_km": 66.387084775860615, "delaunay_k": 4, "edge_set": "Delaunay4" }, "geometry": { "type": "LineString", "coordinates": [ [ 11.949005, 55.560486 ], [ 12.571106, 56.042897 ] ] } },
{ "type": "Feature", "properties": { "voltage_kv": 132.0, "from_node": 37, "to_node": 59, "length_km": 44.221489725972063, "delaunay_k": 4, "edge_set": "Delaunay4" }, "geometry": { "type": "LineString", "coordinates": [ [ 11.949005, 55.560486 ], [ 12.580719, 55.73407 ] ] } },
{ "type": "Feature", "properties": { "voltage_kv": 132.0, "from_node": 37, "to_node": 61, "length_km": 83.87784832460008, "delaunay_k": 4, "edge_set": "Delaunay4" }, "geometry": { "type": "LineString", "coordinates": [ [ 11.949005, 55.560486 ], [ 12.933655, 56.070502 ] ] } },
{ "type": "Feature", "properties": { "voltage_kv": 132.0, "from_node": 38, "to_node": 47, "length_km": 45.340316582424364, "delaunay_k": 4, "edge_set": "Delaunay4" }, "geometry": { "type": "LineString", "coordinates": [ [ 11.961365, 55.445374 ], [ 12.23465, 55.822116 ] ] } },
{ "type": "Feature", "properties": { "voltage_kv": 132.0, "from_node": 38, "to_node": 48, "length_km": 39.609826882169443, "delaunay_k": 4, "edge_set": "Delaunay4" }, "geometry": { "type": "LineString", "coordinates": [ [ 11.961365, 55.445374 ], [ 12.240143, 55.764213 ] ] } },
{ "type": "Feature", "properties": { "voltage_kv": 132.0, "from_node": 38, "to_node": 52, "length_km": 44.331621774217972, "delaunay_k": 4, "edge_set": "Delaunay4" }, "geometry": { "type": "LineString", "coordinates": [ [ 11.961365, 55.445374 ], [ 12.389832, 55.761123 ] ] } },
{ "type": "Feature", "properties": { "voltage_kv": 132.0, "from_node": 38, "to_node": 55, "length_km": 64.756229210424465, "delaunay_k": 4, "edge_set": "Delaunay4" }, "geometry": { "type": "LineString", "coordinates": [ [ 11.961365, 55.445374 ], [ 12.520294, 55.933818 ] ] } },
{ "type": "Feature", "properties": { "voltage_kv": 132.0, "from_node": 38, "to_node": 57, "length_km": 54.458797381225914, "delaunay_k": 4, "edge_set": "Delaunay4" }, "geometry": { "type": "LineString", "coordinates": [ [ 11.961365, 55.445374 ], [ 12.56424, 55.795877 ] ] } },
{ "type": "Feature", "properties": { "voltage_kv": 132.0, "from_node": 38, "to_node": 58, "length_km": 76.764177812191093, "delaunay_k": 4, "edge_set": "Delaunay4" }, "geometry": { "type": "LineString", "coordinates": [ [ 11.961365, 55.445374 ], [ 12.571106, 56.042897 ] ] } },
{ "type": "Feature", "properties": { "voltage_kv": 132.0, "from_node": 39, "to_node": 44, "length_km": 109.94641476585414, "delaunay_k": 4, "edge_set": "Delaunay4" }, "geometry": { "type": "LineString", "coordinates": [ [ 11.965485, 54.756331 ], [ 12.154999, 55.737935 ] ] } },
{ "type": "Feature", "properties": { "voltage_kv": 132.0, "from_node": 39, "to_node": 47, "length_km": 119.88281760489846, "delaunay_k": 4, "edge_set": "Delaunay4" }, "geometry": { "type": "LineString", "coordinates": [ [ 11.965485, 54.756331 ], [ 12.23465, 55.822116 ] ] } },
{ "type": "Feature", "properties": { "voltage_kv": 132.0, "from_node": 39, "to_node": 48, "length_km": 113.56052415862028, "delaunay_k": 4, "edge_set": "Delaunay4" }, "geometry": { "type": "LineString", "coordinates": [ [ 11.965485, 54.756331 ], [ 12.240143, 55.764213 ] ] } },
{ "type": "Feature", "properties": { "voltage_kv": 132.0, "from_node": 40, "to_node": 42, "length_km": 52.619792111740729, "delaunay_k": 4, "edge_set": "Delaunay4" }, "geometry": { "type": "LineString", "coordinates": [ [ 11.990204, 55.498305 ], [ 12.061615, 55.969187 ] ] } },
{ "type": "Feature", "properties": { "voltage_kv": 132.0, "from_node": 40, "to_node": 46, "length_km": 48.587608097197609, "delaunay_k": 4, "edge_set": "Delaunay4" }, "geometry": { "type": "LineString", "coordinates": [ [ 11.990204, 55.498305 ], [ 12.22641, 55.913812 ] ] } },
{ "type": "Feature", "properties": { "voltage_kv": 132.0, "from_node": 40, "to_node": 53, "length_km": 57.413401587978512, "delaunay_k": 4, "edge_set": "Delaunay4" }, "geometry": { "type": "LineString", "coordinates": [ [ 11.990204, 55.498305 ], [ 12.474976, 55.935356 ] ] } },
{ "type": "Feature", "properties": { "voltage_kv": 132.0, "from_node": 40, "to_node": 55, "length_km": 58.833592346969063, "delaunay_k": 4, "edge_set": "Delaunay4" }, "geometry": { "type": "LineString", "coordinates": [ [ 11.990204, 55.498305 ], [ 12.520294, 55.933818 ] ] } },
{ "type": "Feature", "properties": { "voltage_kv": 132.0, "from_node": 40, "to_node": 57, "length_km": 49.031025387309505, "delaunay_k": 4, "edge_set": "Delaunay4" }, "geometry": { "type": "LineString", "coordinates": [ [ 11.990204, 55.498305 ], [ 12.56424, 55.795877 ] ] } },
{ "type": "Feature", "properties": { "voltage_kv": 132.0, "from_node": 40, "to_node": 58, "length_km": 70.753802725512671, "delaunay_k": 4, "edge_set": "Delaunay4" }, "geometry": { "type": "LineString", "coordinates": [ [ 11.990204, 55.498305 ], [ 12.571106, 56.042897 ] ] } },
{ "type": "Feature", "properties": { "voltage_kv": 132.0, "from_node": 41, "to_node": 42, "length_km": 68.866684761344317, "delaunay_k": 4, "edge_set": "Delaunay4" }, "geometry": { "type": "LineString", "coordinates": [ [ 12.024536, 55.351012 ], [ 12.061615, 55.969187 ] ] } },
{ "type": "Feature", "properties": { "voltage_kv": 132.0, "from_node": 41, "to_node": 46, "length_km": 63.938828265195895, "delaunay_k": 4, "edge_set": "Delaunay4" }, "geometry": { "type": "LineString", "coordinates": [ [ 12.024536, 55.351012 ], [ 12.22641, 55.913812 ] ] } },
{ "type": "Feature", "properties": { "voltage_kv": 132.0, "from_node": 41, "to_node": 47, "length_km": 54.0996174589717, "delaunay_k": 4, "edge_set": "Delaunay4" }, "geometry": { "type": "LineString", "coordinates": [ [ 12.024536, 55.351012 ], [ 12.23465, 55.822116 ] ] } },
{ "type": "Feature", "properties": { "voltage_kv": 132.0, "from_node": 41, "to_node": 48, "length_km": 47.9748225227695, "delaunay_k": 4, "edge_set": "Delaunay4" }, "geometry": { "type": "LineString", "coordinates": [ [ 12.024536, 55.351012 ], [ 12.240143, 55.764213 ] ] } },
{ "type": "Feature", "properties": { "voltage_kv": 132.0, "from_node": 41, "to_node": 53, "length_km": 70.974953954995144, "delaunay_k": 4, "edge_set": "Delaunay4" }, "geometry": { "type": "LineString", "coordinates": [ [ 12.024536, 55.351012 ], [ 12.474976, 55.935356 ] ] } },
{ "type": "Feature", "properties": { "voltage_kv": 132.0, "from_node": 42, "to_node": 45, "length_km": 52.783802034571657, "delaunay_k": 4, "edge_set": "Delaunay4" }, "geometry": { "type": "LineString", "coordinates": [ [ 12.061615, 55.969187 ], [ 12.170105, 55.499083 ] ] } },
{ "type": "Feature", "properties": { "voltage_kv": 132.0, "from_node": 42, "to_node": 49, "length_km": 47.414052731421791, "delaunay_k": 4, "edge_set": "Delaunay4" }, "geometry": { "type": "LineString", "coordinates": [ [ 12.061615, 55.969187 ], [ 12.268982, 55.559709 ] ] } },
{ "type": "Feature", "properties": { "voltage_kv": 132.0, "from_node": 42, "to_node": 51, "length_km": 43.891467204915479, "delaunay_k": 4, "edge_set": "Delaunay4" }, "geometry": { "type": "LineString", "coordinates": [ [ 12.061615, 55.969187 ], [ 12.362366, 55.613262 ] ] } },
{ "type": "Feature", "properties": { "voltage_kv": 132.0, "from_node": 43, "to_node": 55, "length_km": 44.213635563200661, "delaunay_k": 4, "edge_set": "Delaunay4" }, "geometry": { "type": "LineString", "coordinates": [ [ 12.108307, 55.611711 ], [ 12.520294, 55.933818 ] ] } },
{ "type": "Feature", "properties": { "voltage_kv": 132.0, "from_node": 43, "to_node": 58, "length_km": 56.09187784688168, "delaunay_k": 4, "edge_set": "Delaunay4" }, "geometry": { "type": "LineString", "coordinates": [ [ 12.108307, 55.611711 ], [ 12.571106, 56.042897 ] ] } },
{ "type": "Feature", "properties": { "voltage_kv": 132.0, "from_node": 44, "to_node": 59, "length_km": 26.747687718061488, "delaunay_k": 4, "edge_set": "Delaunay4" }, "geometry": { "type": "LineString", "coordinates": [ [ 12.154999, 55.737935 ], [ 12.580719, 55.73407 ] ] } },
{ "type": "Feature", "properties": { "voltage_kv": 132.0, "from_node": 44, "to_node": 61, "length_km": 61.184589802026743, "delaunay_k": 4, "edge_set": "Delaunay4" }, "geometry": { "type": "LineString", "coordinates": [ [ 12.154999, 55.737935 ], [ 12.933655, 56.070502 ] ] } },
{ "type": "Feature", "properties": { "voltage_kv": 132.0, "from_node": 45, "to_node": 46, "length_km": 46.311995267361468, "delaunay_k": 4, "edge_set": "Delaunay4" }, "geometry": { "type": "LineString", "coordinates": [ [ 12.170105, 55.499083 ], [ 12.22641, 55.913812 ] ] } },
{ "type": "Feature", "properties": { "voltage_kv": 132.0, "from_node": 45, "to_node": 53, "length_km": 52.218469019662919, "delaunay_k": 4, "edge_set": "Delaunay4" }, "geometry": { "type": "LineString", "coordinates": [ [ 12.170105, 55.499083 ], [ 12.474976, 55.935356 ] ] } },
{ "type": "Feature", "properties": { "voltage_kv": 132.0, "from_node": 46, "to_node": 49, "length_km": 39.517300498820276, "delaunay_k": 4, "edge_set": "Delaunay4" }, "geometry": { "type": "LineString", "coordinates": [ [ 12.22641, 55.913812 ], [ 12.268982, 55.559709 ] ] } },
{ "type": "Feature", "properties": { "voltage_kv": 132.0, "from_node": 46, "to_node": 51, "length_km": 34.53548965103893, "delaunay_k": 4, "edge_set": "Delaunay4" }, "geometry": { "type": "LineString", "coordinates": [ [ 12.22641, 55.913812 ], [ 12.362366, 55.613262 ] ] } }
]
}
