{
"type": "FeatureCollection",
"name": "n490_delaunay2_removed_land_area",
"crs": { "type": "name", "properties": { "name": "urn:ogc:def:crs:OGC:1.3:CRS84" } },
"features": [
{ "type": "Feature", "properties": { "from_node": 0, "to_node": 2, "length_km": 21.429551117130277, "delaunay_k": 2, "edge_set": "Delaunay2" }, "geometry": { "type": "LineString", "coordinates": [ [ 11.661987, 54.548173 ], [ 11.504059, 54.717482 ] ] } },
{ "type": "Feature", "properties": { "from_node": 1, "to_node": 4, "length_km": 27.184987837022099, "delaunay_k": 2, "edge_set": "Delaunay2" }, "geometry": { "type": "LineString", "coordinates": [ [ 11.501312, 54.568081 ], [ 11.712799, 54.779306 ] ] } },
{ "type": "Feature", "properties": { "from_node": 1, "to_node": 6, "length_km": 38.910914252178586, "delaunay_k": 2, "edge_set": "Delaunay2" }, "geometry": { "type": "LineString", "coordinates": [ [ 11.501312, 54.568081 ], [ 11.190948, 54.867915 ] ] } },
{ "type": "Feature", "properties": { "from_node": 6, "to_node": 11, "length_km": 39.632358026489484, "delaunay_k": 2, "edge_set": "Delaunay2" }, "geometry": { "type": "LineString", "coordinates": [ [ 11.190948, 54.867915 ], [ 11.295319, 55.21884 ] ] } },
{ "type": "Feature", "properties": { "from_node": 9, "to_node": 29, "length_km": 94.35868613360752, "delaunay_k": 2, "edge_set": "Delaunay2" }, "geometry": { "type": "LineString", "coordinates": [ [ 11.932526, 55.127864 ], [ 13.189087, 55.58145 ] ] } },
{ "type": "Feature", "properties": { "from_node": 56, "to_node": 64, "length_km": 106.22523734135177, "delaunay_k": 2, "edge_set": "Delaunay2" }, "geometry": { "type": "LineString", "coordinates": [ [ 12.061615, 55.969187 ], [ 12.991333, 56.771541 ] ] } },
{ "type": "Feature", "properties": { "from_node": 57, "to_node": 67, "length_km": 144.64623554187605, "delaunay_k": 2, "edge_set": "Delaunay2" }, "geometry": { "type": "LineString", "coordinates": [ [ 12.571106, 56.042897 ], [ 12.237396, 57.328745 ] ] } },
{ "type": "Feature", "properties": { "from_node": 59, "to_node": 67, "length_km": 138.02200710808975, "delaunay_k": 2, "edge_set": "Delaunay2" }, "geometry": { "type": "LineString", "coordinates": [ [ 12.984467, 56.159318 ], [ 12.237396, 57.328745 ] ] } },
{ "type": "Feature", "properties": { "from_node": 69, "to_node": 104, "length_km": 199.48682703582099, "delaunay_k": 2, "edge_set": "Delaunay2" }, "geometry": { "type": "LineString", "coordinates": [ [ 16.660767, 57.43682 ], [ 17.932434, 59.094909 ] ] } },
{ "type": "Feature", "properties": { "from_node": 87, "to_node": 107, "length_km": 164.46087648603756, "delaunay_k": 2, "edge_set": "Delaunay2" }, "geometry": { "type": "LineString", "coordinates": [ [ 8.782196, 58.575413 ], [ 11.409302, 59.147769 ] ] } },
{ "type": "Feature", "properties": { "from_node": 91, "to_node": 108, "length_km": 122.50303165319214, "delaunay_k": 2, "edge_set": "Delaunay2" }, "geometry": { "type": "LineString", "coordinates": [ [ 11.629028, 58.795248 ], [ 9.61441, 59.151995 ] ] } },
{ "type": "Feature", "properties": { "from_node": 92, "to_node": 113, "length_km": 52.842783380781349, "delaunay_k": 2, "edge_set": "Delaunay2" }, "geometry": { "type": "LineString", "coordinates": [ [ 5.756836, 58.82654 ], [ 5.262451, 59.225853 ] ] } },
{ "type": "Feature", "properties": { "from_node": 113, "to_node": 214, "length_km": 165.51798993204173, "delaunay_k": 2, "edge_set": "Delaunay2" }, "geometry": { "type": "LineString", "coordinates": [ [ 5.262451, 59.225853 ], [ 4.998779, 60.703432 ] ] } },
{ "type": "Feature", "properties": { "from_node": 170, "to_node": 202, "length_km": 68.583903982621933, "delaunay_k": 2, "edge_set": "Delaunay2" }, "geometry": { "type": "LineString", "coordinates": [ [ 18.8237, 60.06484 ], [ 18.020325, 60.532293 ] ] } },
{ "type": "Feature", "properties": { "from_node": 172, "to_node": 202, "length_km": 61.306716754780865, "delaunay_k": 2, "edge_set": "Delaunay2" }, "geometry": { "type": "LineString", "coordinates": [ [ 18.623199, 60.071693 ], [ 18.020325, 60.532293 ] ] } },
{ "type": "Feature", "properties": { "from_node": 202, "to_node": 226, "length_km": 87.204232360894281, "delaunay_k": 2, "edge_set": "Delaunay2" }, "geometry": { "type": "LineString", "coordinates": [ [ 18.020325, 60.532293 ], [ 16.637421, 60.922424 ] ] } },
{ "type": "Feature", "properties": { "from_node": 202, "to_node": 234, "length_km": 85.226390960960813, "delaunay_k": 2, "edge_set": "Delaunay2" }, "geometry": { "type": "LineString", "coordinates": [ [ 18.020325, 60.532293 ], [ 17.166138, 61.172384 ] ] } },
{ "type": "Feature", "properties": { "from_node": 234, "to_node": 267, "length_km": 132.0444055550704, "delaunay_k": 2, "edge_set": "Delaunay2" }, "geometry": { "type": "LineString", "coordinates": [ [ 17.166138, 61.172384 ], [ 17.362518, 62.352158 ] ] } },
{ "type": "Feature", "properties": { "from_node": 273, "to_node": 383, "length_km": 413.94411280896105, "delaunay_k": 2, "edge_set": "Delaunay2" }, "geometry": { "type": "LineString", "coordinates": [ [ 7.033997, 62.47807 ], [ 12.7565, 65.20262 ] ] } },
{ "type": "Feature", "properties": { "from_node": 313, "to_node": 410, "length_km": 424.30447316267083, "delaunay_k": 2, "edge_set": "Delaunay2" }, "geometry": { "type": "LineString", "coordinates": [ [ 9.933014, 63.271947 ], [ 13.807068, 66.707884 ] ] } },
{ "type": "Feature", "properties": { "from_node": 341, "to_node": 386, "length_km": 202.5254302097257, "delaunay_k": 2, "edge_set": "Delaunay2" }, "geometry": { "type": "LineString", "coordinates": [ [ 23.1427, 63.842485 ], [ 25.694275, 65.279688 ] ] } },
{ "type": "Feature", "properties": { "from_node": 358, "to_node": 397, "length_km": 162.98991747108607, "delaunay_k": 2, "edge_set": "Delaunay2" }, "geometry": { "type": "LineString", "coordinates": [ [ 24.517365, 64.423037 ], [ 24.612122, 65.877531 ] ] } },
{ "type": "Feature", "properties": { "from_node": 358, "to_node": 399, "length_km": 176.99492553295249, "delaunay_k": 2, "edge_set": "Delaunay2" }, "geometry": { "type": "LineString", "coordinates": [ [ 24.517365, 64.423037 ], [ 24.892273, 65.995123 ] ] } },
{ "type": "Feature", "properties": { "from_node": 358, "to_node": 400, "length_km": 194.14436620154353, "delaunay_k": 2, "edge_set": "Delaunay2" }, "geometry": { "type": "LineString", "coordinates": [ [ 24.517365, 64.423037 ], [ 25.069427, 66.140521 ] ] } },
{ "type": "Feature", "properties": { "from_node": 358, "to_node": 403, "length_km": 212.87180320348668, "delaunay_k": 2, "edge_set": "Delaunay2" }, "geometry": { "type": "LineString", "coordinates": [ [ 24.517365, 64.423037 ], [ 25.415497, 66.285642 ] ] } },
{ "type": "Feature", "properties": { "from_node": 378, "to_node": 397, "length_km": 122.52074762633298, "delaunay_k": 2, "edge_set": "Delaunay2" }, "geometry": { "type": "LineString", "coordinates": [ [ 26.05957, 64.965416 ], [ 24.612122, 65.877531 ] ] } },
{ "type": "Feature", "properties": { "from_node": 380, "to_node": 397, "length_km": 115.82599973869463, "delaunay_k": 2, "edge_set": "Delaunay2" }, "geometry": { "type": "LineString", "coordinates": [ [ 25.808258, 64.971807 ], [ 24.612122, 65.877531 ] ] } },
{ "type": "Feature", "properties": { "from_node": 385, "to_node": 395, "length_km": 109.63009191930206, "delaunay_k": 2, "edge_set": "Delaunay2" }, "geometry": { "type": "LineString", "coordinates": [ [ 21.169281, 65.270498 ], [ 23.100128, 65.837089 ] ] } },
{ "type": "Feature", "properties": { "from_node": 386, "to_node": 393, "length_km": 81.965298287308627, "delaunay_k": 2, "edge_set": "Delaunay2" }, "geometry": { "type": "LineString", "coordinates": [ [ 25.694275, 65.279688 ], [ 24.411621, 65.781941 ] ] } },
{ "type": "Feature", "properties": { "from_node": 386, "to_node": 398, "length_km": 142.01346444312014, "delaunay_k": 2, "edge_set": "Delaunay2" }, "geometry": { "type": "LineString", "coordinates": [ [ 25.694275, 65.279688 ], [ 23.072662, 65.938074 ] ] } },
{ "type": "Feature", "properties": { "from_node": 415, "to_node": 430, "length_km": 262.90341821520258, "delaunay_k": 2, "edge_set": "Delaunay2" }, "geometry": { "type": "LineString", "coordinates": [ [ 27.387543, 67.23753 ], [ 29.549103, 69.440681 ] ] } }
]
}
