{
"type": "FeatureCollection",
"name": "n490_delaunay4_removed_length",
"crs": { "type": "name", "properties": { "name": "urn:ogc:def:crs:OGC:1.3:CRS84" } },
"features": [
{ "type": "Feature", "properties": { "from_node": 63, "to_node": 186, "length_km": 484.05371024725071, "delaunay_k": 4, "edge_set": "Delaunay4" }, "geometry": { "type": "LineString", "coordinates": [ [ 15.542908, 56.649432 ], [ 11.288452, 60.382648 ] ] } },
{ "type": "Feature", "properties": { "from_node": 70, "to_node": 259, "length_km": 503.16408869506637, "delaunay_k": 4, "edge_set": "Delaunay4" }, "geometry": { "type": "LineString", "coordinates": [ [ 13.414307, 57.53868 ], [ 15.843658, 61.88399 ] ] } },
{ "type": "Feature", "properties": { "from_node": 70, "to_node": 261, "length_km": 506.89781142100003, "delaunay_k": 4, "edge_set": "Delaunay4" }, "geometry": { "type": "LineString", "coordinates": [ [ 13.414307, 57.53868 ], [ 14.16687, 62.071739 ] ] } },
{ "type": "Feature", "properties": { "from_node": 73, "to_node": 261, "length_km": 485.11980693613202, "delaunay_k": 4, "edge_set": "Delaunay4" }, "geometry": { "type": "LineString", "coordinates": [ [ 14.197083, 57.718819 ], [ 14.16687, 62.071739 ] ] } },
{ "type": "Feature", "properties": { "from_node": 74, "to_node": 242, "length_km": 482.40923688661661, "delaunay_k": 4, "edge_set": "Delaunay4" }, "geometry": { "type": "LineString", "coordinates": [ [ 11.954498, 57.726153 ], [ 16.44928, 61.407894 ] ] } },
{ "type": "Feature", "properties": { "from_node": 74, "to_node": 259, "length_km": 512.00639155600163, "delaunay_k": 4, "edge_set": "Delaunay4" }, "geometry": { "type": "LineString", "coordinates": [ [ 11.954498, 57.726153 ], [ 15.843658, 61.88399 ] ] } },
{ "type": "Feature", "properties": { "from_node": 74, "to_node": 261, "length_km": 499.71634542100628, "delaunay_k": 4, "edge_set": "Delaunay4" }, "geometry": { "type": "LineString", "coordinates": [ [ 11.954498, 57.726153 ], [ 14.16687, 62.071739 ] ] } },
{ "type": "Feature", "properties": { "from_node": 75, "to_node": 261, "length_km": 476.93263159688411, "delaunay_k": 4, "edge_set": "Delaunay4" }, "geometry": { "type": "LineString", "coordinates": [ [ 14.625549, 57.798676 ], [ 14.16687, 62.071739 ] ] } },
{ "type": "Feature", "properties": { "from_node": 76, "to_node": 259, "length_km": 492.40506931932902, "delaunay_k": 4, "edge_set": "Delaunay4" }, "geometry": { "type": "LineString", "coordinates": [ [ 12.407684, 57.816235 ], [ 15.843658, 61.88399 ] ] } },
{ "type": "Feature", "properties": { "from_node": 76, "to_node": 261, "length_km": 484.22796406152628, "delaunay_k": 4, "edge_set": "Delaunay4" }, "geometry": { "type": "LineString", "coordinates": [ [ 12.407684, 57.816235 ], [ 14.16687, 62.071739 ] ] } },
{ "type": "Feature", "properties": { "from_node": 77, "to_node": 259, "length_km": 480.82143790579477, "delaunay_k": 4, "edge_set": "Delaunay4" }, "geometry": { "type": "LineString", "coordinates": [ [ 12.244263, 57.964417 ], [ 15.843658, 61.88399 ] ] } },
{ "type": "Feature", "properties": { "from_node": 82, "to_node": 268, "length_km": 507.53575759161328, "delaunay_k": 4, "edge_set": "Delaunay4" }, "geometry": { "type": "LineString", "coordinates": [ [ 12.299194, 58.304438 ], [ 16.333923, 62.398006 ] ] } },
{ "type": "Feature", "properties": { "from_node": 82, "to_node": 269, "length_km": 481.55732976329017, "delaunay_k": 4, "edge_set": "Delaunay4" }, "geometry": { "type": "LineString", "coordinates": [ [ 12.299194, 58.304438 ], [ 15.005951, 62.413273 ] ] } },
{ "type": "Feature", "properties": { "from_node": 82, "to_node": 271, "length_km": 494.44681212149061, "delaunay_k": 4, "edge_set": "Delaunay4" }, "geometry": { "type": "LineString", "coordinates": [ [ 12.299194, 58.304438 ], [ 15.544281, 62.441242 ] ] } },
{ "type": "Feature", "properties": { "from_node": 82, "to_node": 275, "length_km": 484.90755078725937, "delaunay_k": 4, "edge_set": "Delaunay4" }, "geometry": { "type": "LineString", "coordinates": [ [ 12.299194, 58.304438 ], [ 14.515686, 62.516121 ] ] } },
{ "type": "Feature", "properties": { "from_node": 91, "to_node": 268, "length_km": 476.94930525099267, "delaunay_k": 4, "edge_set": "Delaunay4" }, "geometry": { "type": "LineString", "coordinates": [ [ 11.629028, 58.795248 ], [ 16.333923, 62.398006 ] ] } },
{ "type": "Feature", "properties": { "from_node": 130, "to_node": 313, "length_km": 485.63965478464871, "delaunay_k": 4, "edge_set": "Delaunay4" }, "geometry": { "type": "LineString", "coordinates": [ [ 5.39978, 59.495303 ], [ 9.933014, 63.271947 ] ] } },
{ "type": "Feature", "properties": { "from_node": 130, "to_node": 360, "length_km": 641.33952453291238, "delaunay_k": 4, "edge_set": "Delaunay4" }, "geometry": { "type": "LineString", "coordinates": [ [ 5.39978, 59.495303 ], [ 11.620789, 64.453849 ] ] } },
{ "type": "Feature", "properties": { "from_node": 152, "to_node": 360, "length_km": 612.91575491388062, "delaunay_k": 4, "edge_set": "Delaunay4" }, "geometry": { "type": "LineString", "coordinates": [ [ 5.461578, 59.768152 ], [ 11.620789, 64.453849 ] ] } },
{ "type": "Feature", "properties": { "from_node": 168, "to_node": 352, "length_km": 488.23180580746049, "delaunay_k": 4, "edge_set": "Delaunay4" }, "geometry": { "type": "LineString", "coordinates": [ [ 23.819733, 60.047704 ], [ 27.204895, 64.101606 ] ] } },
{ "type": "Feature", "properties": { "from_node": 168, "to_node": 365, "length_km": 529.55685595608281, "delaunay_k": 4, "edge_set": "Delaunay4" }, "geometry": { "type": "LineString", "coordinates": [ [ 23.819733, 60.047704 ], [ 26.843719, 64.556111 ] ] } },
{ "type": "Feature", "properties": { "from_node": 168, "to_node": 375, "length_km": 546.56066594457866, "delaunay_k": 4, "edge_set": "Delaunay4" }, "geometry": { "type": "LineString", "coordinates": [ [ 23.819733, 60.047704 ], [ 26.51825, 64.759489 ] ] } },
{ "type": "Feature", "properties": { "from_node": 168, "to_node": 404, "length_km": 722.80485364925198, "delaunay_k": 4, "edge_set": "Delaunay4" }, "geometry": { "type": "LineString", "coordinates": [ [ 23.819733, 60.047704 ], [ 27.030487, 66.33089 ] ] } },
{ "type": "Feature", "properties": { "from_node": 168, "to_node": 407, "length_km": 740.12321867055675, "delaunay_k": 4, "edge_set": "Delaunay4" }, "geometry": { "type": "LineString", "coordinates": [ [ 23.819733, 60.047704 ], [ 27.398529, 66.450241 ] ] } },
{ "type": "Feature", "properties": { "from_node": 176, "to_node": 365, "length_km": 501.14970837019399, "delaunay_k": 4, "edge_set": "Delaunay4" }, "geometry": { "type": "LineString", "coordinates": [ [ 24.656067, 60.20571 ], [ 26.843719, 64.556111 ] ] } },
{ "type": "Feature", "properties": { "from_node": 176, "to_node": 375, "length_km": 519.83720546983841, "delaunay_k": 4, "edge_set": "Delaunay4" }, "geometry": { "type": "LineString", "coordinates": [ [ 24.656067, 60.20571 ], [ 26.51825, 64.759489 ] ] } },
{ "type": "Feature", "properties": { "from_node": 176, "to_node": 404, "length_km": 697.3316299477957, "delaunay_k": 4, "edge_set": "Delaunay4" }, "geometry": { "type": "LineString", "coordinates": [ [ 24.656067, 60.20571 ], [ 27.030487, 66.33089 ] ] } },
{ "type": "Feature", "properties": { "from_node": 176, "to_node": 407, "length_km": 713.88118155378447, "delaunay_k": 4, "edge_set": "Delaunay4" }, "geometry": { "type": "LineString", "coordinates": [ [ 24.656067, 60.20571 ], [ 27.398529, 66.450241 ] ] } },
{ "type": "Feature", "properties": { "from_node": 178, "to_node": 367, "length_km": 528.53628140413366, "delaunay_k": 4, "edge_set": "Delaunay4" }, "geometry": { "type": "LineString", "coordinates": [ [ 24.186401, 60.304505 ], [ 28.45047, 64.58147 ] ] } },
{ "type": "Feature", "properties": { "from_node": 180, "to_node": 367, "length_km": 511.04747321158044, "delaunay_k": 4, "edge_set": "Delaunay4" }, "geometry": { "type": "LineString", "coordinates": [ [ 24.930725, 60.330347 ], [ 28.45047, 64.58147 ] ] } },
{ "type": "Feature", "properties": { "from_node": 183, "to_node": 367, "length_km": 553.18534758428052, "delaunay_k": 4, "edge_set": "Delaunay4" }, "geometry": { "type": "LineString", "coordinates": [ [ 22.913361, 60.363639 ], [ 28.45047, 64.58147 ] ] } },
{ "type": "Feature", "properties": { "from_node": 185, "to_node": 365, "length_km": 476.40716881370446, "delaunay_k": 4, "edge_set": "Delaunay4" }, "geometry": { "type": "LineString", "coordinates": [ [ 25.209503, 60.378575 ], [ 26.843719, 64.556111 ] ] } },
{ "type": "Feature", "properties": { "from_node": 185, "to_node": 375, "length_km": 496.18103986786917, "delaunay_k": 4, "edge_set": "Delaunay4" }, "geometry": { "type": "LineString", "coordinates": [ [ 25.209503, 60.378575 ], [ 26.51825, 64.759489 ] ] } },
{ "type": "Feature", "properties": { "from_node": 185, "to_node": 404, "length_km": 674.03795666464362, "delaunay_k": 4, "edge_set": "Delaunay4" }, "geometry": { "type": "LineString", "coordinates": [ [ 25.209503, 60.378575 ], [ 27.030487, 66.33089 ] ] } },
{ "type": "Feature", "properties": { "from_node": 185, "to_node": 407, "length_km": 690.03828835220429, "delaunay_k": 4, "edge_set": "Delaunay4" }, "geometry": { "type": "LineString", "coordinates": [ [ 25.209503, 60.378575 ], [ 27.398529, 66.450241 ] ] } },
{ "type": "Feature", "properties": { "from_node": 192, "to_node": 371, "length_km": 481.80553664006561, "delaunay_k": 4, "edge_set": "Delaunay4" }, "geometry": { "type": "LineString", "coordinates": [ [ 26.294403, 60.418598 ], [ 26.455078, 64.709668 ] ] } },
{ "type": "Feature", "properties": { "from_node": 192, "to_node": 376, "length_km": 489.44087792397448, "delaunay_k": 4, "edge_set": "Delaunay4" }, "geometry": { "type": "LineString", "coordinates": [ [ 26.294403, 60.418598 ], [ 26.115875, 64.778222 ] ] } },
{ "type": "Feature", "properties": { "from_node": 192, "to_node": 378, "length_km": 510.48135845280348, "delaunay_k": 4, "edge_set": "Delaunay4" }, "geometry": { "type": "LineString", "coordinates": [ [ 26.294403, 60.418598 ], [ 26.05957, 64.965416 ] ] } },
{ "type": "Feature", "properties": { "from_node": 192, "to_node": 386, "length_km": 546.36563157030298, "delaunay_k": 4, "edge_set": "Delaunay4" }, "geometry": { "type": "LineString", "coordinates": [ [ 26.294403, 60.418598 ], [ 25.694275, 65.279688 ] ] } },
{ "type": "Feature", "properties": { "from_node": 192, "to_node": 403, "length_km": 659.6942493895051, "delaunay_k": 4, "edge_set": "Delaunay4" }, "geometry": { "type": "LineString", "coordinates": [ [ 26.294403, 60.418598 ], [ 25.415497, 66.285642 ] ] } },
{ "type": "Feature", "properties": { "from_node": 192, "to_node": 405, "length_km": 669.43248296226454, "delaunay_k": 4, "edge_set": "Delaunay4" }, "geometry": { "type": "LineString", "coordinates": [ [ 26.294403, 60.418598 ], [ 26.769562, 66.378809 ] ] } },
{ "type": "Feature", "properties": { "from_node": 192, "to_node": 415, "length_km": 767.34510315972545, "delaunay_k": 4, "edge_set": "Delaunay4" }, "geometry": { "type": "LineString", "coordinates": [ [ 26.294403, 60.418598 ], [ 27.387543, 67.23753 ] ] } },
{ "type": "Feature", "properties": { "from_node": 195, "to_node": 360, "length_km": 553.11112188907839, "delaunay_k": 4, "edge_set": "Delaunay4" }, "geometry": { "type": "LineString", "coordinates": [ [ 5.259705, 60.456541 ], [ 11.620789, 64.453849 ] ] } },
{ "type": "Feature", "properties": { "from_node": 196, "to_node": 375, "length_km": 483.50089495126548, "delaunay_k": 4, "edge_set": "Delaunay4" }, "geometry": { "type": "LineString", "coordinates": [ [ 25.659943, 60.469404 ], [ 26.51825, 64.759489 ] ] } },
{ "type": "Feature", "properties": { "from_node": 196, "to_node": 404, "length_km": 661.34879775389118, "delaunay_k": 4, "edge_set": "Delaunay4" }, "geometry": { "type": "LineString", "coordinates": [ [ 25.659943, 60.469404 ], [ 27.030487, 66.33089 ] ] } },
{ "type": "Feature", "properties": { "from_node": 196, "to_node": 407, "length_km": 676.84668710021913, "delaunay_k": 4, "edge_set": "Delaunay4" }, "geometry": { "type": "LineString", "coordinates": [ [ 25.659943, 60.469404 ], [ 27.398529, 66.450241 ] ] } },
{ "type": "Feature", "properties": { "from_node": 205, "to_node": 367, "length_km": 483.08435780280126, "delaunay_k": 4, "edge_set": "Delaunay4" }, "geometry": { "type": "LineString", "coordinates": [ [ 25.040588, 60.5755 ], [ 28.45047, 64.58147 ] ] } },
{ "type": "Feature", "properties": { "from_node": 209, "to_node": 360, "length_km": 516.35516707372983, "delaunay_k": 4, "edge_set": "Delaunay4" }, "geometry": { "type": "LineString", "coordinates": [ [ 5.847473, 60.661069 ], [ 11.620789, 64.453849 ] ] } },
{ "type": "Feature", "properties": { "from_node": 214, "to_node": 337, "length_km": 539.44565133395577, "delaunay_k": 4, "edge_set": "Delaunay4" }, "geometry": { "type": "LineString", "coordinates": [ [ 4.998779, 60.703432 ], [ 13.065491, 63.752742 ] ] } },
{ "type": "Feature", "properties": { "from_node": 214, "to_node": 346, "length_km": 495.76463678946959, "delaunay_k": 4, "edge_set": "Delaunay4" }, "geometry": { "type": "LineString", "coordinates": [ [ 4.998779, 60.703432 ], [ 11.477966, 63.979576 ] ] } },
{ "type": "Feature", "properties": { "from_node": 214, "to_node": 373, "length_km": 598.61548781638942, "delaunay_k": 4, "edge_set": "Delaunay4" }, "geometry": { "type": "LineString", "coordinates": [ [ 4.998779, 60.703432 ], [ 12.800446, 64.712014 ] ] } },
{ "type": "Feature", "properties": { "from_node": 214, "to_node": 383, "length_km": 636.91666872483825, "delaunay_k": 4, "edge_set": "Delaunay4" }, "geometry": { "type": "LineString", "coordinates": [ [ 4.998779, 60.703432 ], [ 12.7565, 65.20262 ] ] } },
{ "type": "Feature", "properties": { "from_node": 214, "to_node": 396, "length_km": 706.98081417902654, "delaunay_k": 4, "edge_set": "Delaunay4" }, "geometry": { "type": "LineString", "coordinates": [ [ 4.998779, 60.703432 ], [ 13.289337, 65.841024 ] ] } },
{ "type": "Feature", "properties": { "from_node": 214, "to_node": 410, "length_km": 797.22620736799286, "delaunay_k": 4, "edge_set": "Delaunay4" }, "geometry": { "type": "LineString", "coordinates": [ [ 4.998779, 60.703432 ], [ 13.807068, 66.707884 ] ] } },
{ "type": "Feature", "properties": { "from_node": 215, "to_node": 378, "length_km": 477.5302493139954, "delaunay_k": 4, "edge_set": "Delaunay4" }, "geometry": { "type": "LineString", "coordinates": [ [ 27.063446, 60.737015 ], [ 26.05957, 64.965416 ] ] } },
{ "type": "Feature", "properties": { "from_node": 215, "to_node": 386, "length_km": 514.67463291679019, "delaunay_k": 4, "edge_set": "Delaunay4" }, "geometry": { "type": "LineString", "coordinates": [ [ 27.063446, 60.737015 ], [ 25.694275, 65.279688 ] ] } },
{ "type": "Feature", "properties": { "from_node": 215, "to_node": 403, "length_km": 628.10440098863933, "delaunay_k": 4, "edge_set": "Delaunay4" }, "geometry": { "type": "LineString", "coordinates": [ [ 27.063446, 60.737015 ], [ 25.415497, 66.285642 ] ] } },
{ "type": "Feature", "properties": { "from_node": 215, "to_node": 405, "length_km": 633.6525241994251, "delaunay_k": 4, "edge_set": "Delaunay4" }, "geometry": { "type": "LineString", "coordinates": [ [ 27.063446, 60.737015 ], [ 26.769562, 66.378809 ] ] } },
{ "type": "Feature", "properties": { "from_node": 215, "to_node": 415, "length_km": 730.13493551155193, "delaunay_k": 4, "edge_set": "Delaunay4" }, "geometry": { "type": "LineString", "coordinates": [ [ 27.063446, 60.737015 ], [ 27.387543, 67.23753 ] ] } },
{ "type": "Feature", "properties": { "from_node": 220, "to_node": 360, "length_km": 496.31002861972689, "delaunay_k": 4, "edge_set": "Delaunay4" }, "geometry": { "type": "LineString", "coordinates": [ [ 5.968323, 60.836881 ], [ 11.620789, 64.453849 ] ] } },
{ "type": "Feature", "properties": { "from_node": 221, "to_node": 404, "length_km": 613.91189458686654, "delaunay_k": 4, "edge_set": "Delaunay4" }, "geometry": { "type": "LineString", "coordinates": [ [ 26.621246, 60.865644 ], [ 27.030487, 66.33089 ] ] } },
{ "type": "Feature", "properties": { "from_node": 221, "to_node": 407, "length_km": 628.23632202676924, "delaunay_k": 4, "edge_set": "Delaunay4" }, "geometry": { "type": "LineString", "coordinates": [ [ 26.621246, 60.865644 ], [ 27.398529, 66.450241 ] ] } },
{ "type": "Feature", "properties": { "from_node": 223, "to_node": 397, "length_km": 583.46248137471127, "delaunay_k": 4, "edge_set": "Delaunay4" }, "geometry": { "type": "LineString", "coordinates": [ [ 27.919006, 60.893713 ], [ 24.612122, 65.877531 ] ] } },
{ "type": "Feature", "properties": { "from_node": 223, "to_node": 399, "length_km": 592.3426502212584, "delaunay_k": 4, "edge_set": "Delaunay4" }, "geometry": { "type": "LineString", "coordinates": [ [ 27.919006, 60.893713 ], [ 24.892273, 65.995123 ] ] } },
{ "type": "Feature", "properties": { "from_node": 223, "to_node": 400, "length_km": 605.9245946193937, "delaunay_k": 4, "edge_set": "Delaunay4" }, "geometry": { "type": "LineString", "coordinates": [ [ 27.919006, 60.893713 ], [ 25.069427, 66.140521 ] ] } },
{ "type": "Feature", "properties": { "from_node": 223, "to_node": 406, "length_km": 629.33632515842521, "delaunay_k": 4, "edge_set": "Delaunay4" }, "geometry": { "type": "LineString", "coordinates": [ [ 27.919006, 60.893713 ], [ 25.717621, 66.413451 ] ] } },
{ "type": "Feature", "properties": { "from_node": 223, "to_node": 418, "length_km": 753.91640415612653, "delaunay_k": 4, "edge_set": "Delaunay4" }, "geometry": { "type": "LineString", "coordinates": [ [ 27.919006, 60.893713 ], [ 25.085907, 67.498059 ] ] } },
{ "type": "Feature", "properties": { "from_node": 223, "to_node": 419, "length_km": 757.69397891218284, "delaunay_k": 4, "edge_set": "Delaunay4" }, "geometry": { "type": "LineString", "coordinates": [ [ 27.919006, 60.893713 ], [ 26.098022, 67.596139 ] ] } },
{ "type": "Feature", "properties": { "from_node": 223, "to_node": 421, "length_km": 755.32101754932751, "delaunay_k": 4, "edge_set": "Delaunay4" }, "geometry": { "type": "LineString", "coordinates": [ [ 27.919006, 60.893713 ], [ 26.820374, 67.602419 ] ] } },
{ "type": "Feature", "properties": { "from_node": 223, "to_node": 425, "length_km": 870.76909289140679, "delaunay_k": 4, "edge_set": "Delaunay4" }, "geometry": { "type": "LineString", "coordinates": [ [ 27.919006, 60.893713 ], [ 27.674561, 68.645556 ] ] } },
{ "type": "Feature", "properties": { "from_node": 238, "to_node": 373, "length_km": 515.42817166973271, "delaunay_k": 4, "edge_set": "Delaunay4" }, "geometry": { "type": "LineString", "coordinates": [ [ 6.093292, 61.233245 ], [ 12.800446, 64.712014 ] ] } },
{ "type": "Feature", "properties": { "from_node": 238, "to_node": 383, "length_km": 554.57662203220889, "delaunay_k": 4, "edge_set": "Delaunay4" }, "geometry": { "type": "LineString", "coordinates": [ [ 6.093292, 61.233245 ], [ 12.7565, 65.20262 ] ] } },
{ "type": "Feature", "properties": { "from_node": 238, "to_node": 396, "length_km": 625.36814062513804, "delaunay_k": 4, "edge_set": "Delaunay4" }, "geometry": { "type": "LineString", "coordinates": [ [ 6.093292, 61.233245 ], [ 13.289337, 65.841024 ] ] } },
{ "type": "Feature", "properties": { "from_node": 238, "to_node": 410, "length_km": 716.8196070517904, "delaunay_k": 4, "edge_set": "Delaunay4" }, "geometry": { "type": "LineString", "coordinates": [ [ 6.093292, 61.233245 ], [ 13.807068, 66.707884 ] ] } },
{ "type": "Feature", "properties": { "from_node": 239, "to_node": 373, "length_km": 475.1854388284296, "delaunay_k": 4, "edge_set": "Delaunay4" }, "geometry": { "type": "LineString", "coordinates": [ [ 7.293549, 61.259009 ], [ 12.800446, 64.712014 ] ] } },
{ "type": "Feature", "properties": { "from_node": 239, "to_node": 383, "length_km": 517.98317451493426, "delaunay_k": 4, "edge_set": "Delaunay4" }, "geometry": { "type": "LineString", "coordinates": [ [ 7.293549, 61.259009 ], [ 12.7565, 65.20262 ] ] } },
{ "type": "Feature", "properties": { "from_node": 239, "to_node": 396, "length_km": 590.88864231720231, "delaunay_k": 4, "edge_set": "Delaunay4" }, "geometry": { "type": "LineString", "coordinates": [ [ 7.293549, 61.259009 ], [ 13.289337, 65.841024 ] ] } },
{ "type": "Feature", "properties": { "from_node": 239, "to_node": 410, "length_km": 685.32474230989044, "delaunay_k": 4, "edge_set": "Delaunay4" }, "geometry": { "type": "LineString", "coordinates": [ [ 7.293549, 61.259009 ], [ 13.807068, 66.707884 ] ] } },
{ "type": "Feature", "properties": { "from_node": 243, "to_node": 383, "length_km": 495.97151501924492, "delaunay_k": 4, "edge_set": "Delaunay4" }, "geometry": { "type": "LineString", "coordinates": [ [ 7.436371, 61.447302 ], [ 12.7565, 65.20262 ] ] } },
{ "type": "Feature", "properties": { "from_node": 243, "to_node": 396, "length_km": 568.75501268295352, "delaunay_k": 4, "edge_set": "Delaunay4" }, "geometry": { "type": "LineString", "coordinates": [ [ 7.436371, 61.447302 ], [ 13.289337, 65.841024 ] ] } },
{ "type": "Feature", "properties": { "from_node": 243, "to_node": 410, "length_km": 663.06607397775542, "delaunay_k": 4, "edge_set": "Delaunay4" }, "geometry": { "type": "LineString", "coordinates": [ [ 7.436371, 61.447302 ], [ 13.807068, 66.707884 ] ] } },
{ "type": "Feature", "properties": { "from_node": 246, "to_node": 403, "length_km": 546.25988059469955, "delaunay_k": 4, "edge_set": "Delaunay4" }, "geometry": { "type": "LineString", "coordinates": [ [ 27.305145, 61.489282 ], [ 25.415497, 66.285642 ] ] } },
{ "type": "Feature", "properties": { "from_node": 246, "to_node": 405, "length_km": 549.63543024106411, "delaunay_k": 4, "edge_set": "Delaunay4" }, "geometry": { "type": "LineString", "coordinates": [ [ 27.305145, 61.489282 ], [ 26.769562, 66.378809 ] ] } },
{ "type": "Feature", "properties": { "from_node": 246, "to_node": 415, "length_km": 645.4854182654833, "delaunay_k": 4, "edge_set": "Delaunay4" }, "geometry": { "type": "LineString", "coordinates": [ [ 27.305145, 61.489282 ], [ 27.387543, 67.23753 ] ] } },
{ "type": "Feature", "properties": { "from_node": 247, "to_node": 345, "length_km": 492.54541394593787, "delaunay_k": 4, "edge_set": "Delaunay4" }, "geometry": { "type": "LineString", "coordinates": [ [ 5.748596, 61.49256 ], [ 13.769989, 63.942802 ] ] } },
{ "type": "Feature", "properties": { "from_node": 247, "to_node": 369, "length_km": 538.03948547764901, "delaunay_k": 4, "edge_set": "Delaunay4" }, "geometry": { "type": "LineString", "coordinates": [ [ 5.748596, 61.49256 ], [ 13.807068, 64.653876 ] ] } },
{ "type": "Feature", "properties": { "from_node": 247, "to_node": 377, "length_km": 530.84153433813299, "delaunay_k": 4, "edge_set": "Delaunay4" }, "geometry": { "type": "LineString", "coordinates": [ [ 5.748596, 61.49256 ], [ 13.099823, 64.914228 ] ] } },
{ "type": "Feature", "properties": { "from_node": 247, "to_node": 391, "length_km": 641.65813529280649, "delaunay_k": 4, "edge_set": "Delaunay4" }, "geometry": { "type": "LineString", "coordinates": [ [ 5.748596, 61.49256 ], [ 14.765625, 65.62429 ] ] } },
{ "type": "Feature", "properties": { "from_node": 247, "to_node": 401, "length_km": 650.69180524706019, "delaunay_k": 4, "edge_set": "Delaunay4" }, "geometry": { "type": "LineString", "coordinates": [ [ 5.748596, 61.49256 ], [ 13.763123, 66.142743 ] ] } },
{ "type": "Feature", "properties": { "from_node": 247, "to_node": 402, "length_km": 675.12365860031002, "delaunay_k": 4, "edge_set": "Delaunay4" }, "geometry": { "type": "LineString", "coordinates": [ [ 5.748596, 61.49256 ], [ 14.191589, 66.282328 ] ] } },
{ "type": "Feature", "properties": { "from_node": 247, "to_node": 416, "length_km": 804.84332664681153, "delaunay_k": 4, "edge_set": "Delaunay4" }, "geometry": { "type": "LineString", "coordinates": [ [ 5.748596, 61.49256 ], [ 15.757141, 67.288485 ] ] } },
{ "type": "Feature", "properties": { "from_node": 247, "to_node": 420, "length_km": 833.63894214709285, "delaunay_k": 4, "edge_set": "Delaunay4" }, "geometry": { "type": "LineString", "coordinates": [ [ 5.748596, 61.49256 ], [ 15.850525, 67.598233 ] ] } },
{ "type": "Feature", "properties": { "from_node": 247, "to_node": 432, "length_km": 1092.9449830342514, "delaunay_k": 4, "edge_set": "Delaunay4" }, "geometry": { "type": "LineString", "coordinates": [ [ 5.748596, 61.49256 ], [ 19.158783, 69.620772 ] ] } },
{ "type": "Feature", "properties": { "from_node": 249, "to_node": 383, "length_km": 481.19515525347396, "delaunay_k": 4, "edge_set": "Delaunay4" }, "geometry": { "type": "LineString", "coordinates": [ [ 7.738495, 61.517456 ], [ 12.7565, 65.20262 ] ] } },
{ "type": "Feature", "properties": { "from_node": 249, "to_node": 396, "length_km": 554.34933130206196, "delaunay_k": 4, "edge_set": "Delaunay4" }, "geometry": { "type": "LineString", "coordinates": [ [ 7.738495, 61.517456 ], [ 13.289337, 65.841024 ] ] } },
{ "type": "Feature", "properties": { "from_node": 249, "to_node": 410, "length_km": 649.21557668407684, "delaunay_k": 4, "edge_set": "Delaunay4" }, "geometry": { "type": "LineString", "coordinates": [ [ 7.738495, 61.517456 ], [ 13.807068, 66.707884 ] ] } },
{ "type": "Feature", "properties": { "from_node": 252, "to_node": 391, "length_km": 580.32059845152139, "delaunay_k": 4, "edge_set": "Delaunay4" }, "geometry": { "type": "LineString", "coordinates": [ [ 7.410278, 61.569805 ], [ 14.765625, 65.62429 ] ] } },
{ "type": "Feature", "properties": { "from_node": 252, "to_node": 401, "length_km": 597.33410078651457, "delaunay_k": 4, "edge_set": "Delaunay4" }, "geometry": { "type": "LineString", "coordinates": [ [ 7.410278, 61.569805 ], [ 13.763123, 66.142743 ] ] } },
{ "type": "Feature", "properties": { "from_node": 252, "to_node": 402, "length_km": 621.1445820963969, "delaunay_k": 4, "edge_set": "Delaunay4" }, "geometry": { "type": "LineString", "coordinates": [ [ 7.410278, 61.569805 ], [ 14.191589, 66.282328 ] ] } },
{ "type": "Feature", "properties": { "from_node": 252, "to_node": 416, "length_km": 752.49144600795091, "delaunay_k": 4, "edge_set": "Delaunay4" }, "geometry": { "type": "LineString", "coordinates": [ [ 7.410278, 61.569805 ], [ 15.757141, 67.288485 ] ] } },
{ "type": "Feature", "properties": { "from_node": 252, "to_node": 420, "length_km": 782.94886689822408, "delaunay_k": 4, "edge_set": "Delaunay4" }, "geometry": { "type": "LineString", "coordinates": [ [ 7.410278, 61.569805 ], [ 15.850525, 67.598233 ] ] } },
{ "type": "Feature", "properties": { "from_node": 252, "to_node": 432, "length_km": 1044.8688767451299, "delaunay_k": 4, "edge_set": "Delaunay4" }, "geometry": { "type": "LineString", "coordinates": [ [ 7.410278, 61.569805 ], [ 19.158783, 69.620772 ] ] } },
{ "type": "Feature", "properties": { "from_node": 254, "to_node": 330, "length_km": 477.81417173814719, "delaunay_k": 4, "edge_set": "Delaunay4" }, "geometry": { "type": "LineString", "coordinates": [ [ 5.218506, 61.732826 ], [ 13.657379, 63.555892 ] ] } },
{ "type": "Feature", "properties": { "from_node": 254, "to_node": 338, "length_km": 479.00842787620257, "delaunay_k": 4, "edge_set": "Delaunay4" }, "geometry": { "type": "LineString", "coordinates": [ [ 5.218506, 61.732826 ], [ 13.493958, 63.755779 ] ] } },
{ "type": "Feature", "properties": { "from_node": 254, "to_node": 345, "length_km": 500.12862756404178, "delaunay_k": 4, "edge_set": "Delaunay4" }, "geometry": { "type": "LineString", "coordinates": [ [ 5.218506, 61.732826 ], [ 13.769989, 63.942802 ] ] } },
{ "type": "Feature", "properties": { "from_node": 254, "to_node": 369, "length_km": 540.66078185446395, "delaunay_k": 4, "edge_set": "Delaunay4" }, "geometry": { "type": "LineString", "coordinates": [ [ 5.218506, 61.732826 ], [ 13.807068, 64.653876 ] ] } },
{ "type": "Feature", "properties": { "from_node": 254, "to_node": 377, "length_km": 530.29838763788609, "delaunay_k": 4, "edge_set": "Delaunay4" }, "geometry": { "type": "LineString", "coordinates": [ [ 5.218506, 61.732826 ], [ 13.099823, 64.914228 ] ] } },
{ "type": "Feature", "properties": { "from_node": 254, "to_node": 391, "length_km": 640.43444851549748, "delaunay_k": 4, "edge_set": "Delaunay4" }, "geometry": { "type": "LineString", "coordinates": [ [ 5.218506, 61.732826 ], [ 14.765625, 65.62429 ] ] } },
{ "type": "Feature", "properties": { "from_node": 254, "to_node": 401, "length_km": 645.05687225763324, "delaunay_k": 4, "edge_set": "Delaunay4" }, "geometry": { "type": "LineString", "coordinates": [ [ 5.218506, 61.732826 ], [ 13.763123, 66.142743 ] ] } },
{ "type": "Feature", "properties": { "from_node": 254, "to_node": 402, "length_km": 669.69291434124011, "delaunay_k": 4, "edge_set": "Delaunay4" }, "geometry": { "type": "LineString", "coordinates": [ [ 5.218506, 61.732826 ], [ 14.191589, 66.282328 ] ] } },
{ "type": "Feature", "properties": { "from_node": 254, "to_node": 416, "length_km": 798.045497336567, "delaunay_k": 4, "edge_set": "Delaunay4" }, "geometry": { "type": "LineString", "coordinates": [ [ 5.218506, 61.732826 ], [ 15.757141, 67.288485 ] ] } },
{ "type": "Feature", "properties": { "from_node": 254, "to_node": 420, "length_km": 825.89521119454025, "delaunay_k": 4, "edge_set": "Delaunay4" }, "geometry": { "type": "LineString", "coordinates": [ [ 5.218506, 61.732826 ], [ 15.850525, 67.598233 ] ] } },
{ "type": "Feature", "properties": { "from_node": 254, "to_node": 432, "length_km": 1083.2722987730397, "delaunay_k": 4, "edge_set": "Delaunay4" }, "geometry": { "type": "LineString", "coordinates": [ [ 5.218506, 61.732826 ], [ 19.158783, 69.620772 ] ] } },
{ "type": "Feature", "properties": { "from_node": 258, "to_node": 404, "length_km": 506.78327812135205, "delaunay_k": 4, "edge_set": "Delaunay4" }, "geometry": { "type": "LineString", "coordinates": [ [ 25.252075, 61.880107 ], [ 27.030487, 66.33089 ] ] } },
{ "type": "Feature", "properties": { "from_node": 258, "to_node": 407, "length_km": 523.29846125412337, "delaunay_k": 4, "edge_set": "Delaunay4" }, "geometry": { "type": "LineString", "coordinates": [ [ 25.252075, 61.880107 ], [ 27.398529, 66.450241 ] ] } },
{ "type": "Feature", "properties": { "from_node": 260, "to_node": 396, "length_km": 487.17143660233057, "delaunay_k": 4, "edge_set": "Delaunay4" }, "geometry": { "type": "LineString", "coordinates": [ [ 9.063721, 61.885931 ], [ 13.289337, 65.841024 ] ] } },
{ "type": "Feature", "properties": { "from_node": 260, "to_node": 410, "length_km": 584.19390065700543, "delaunay_k": 4, "edge_set": "Delaunay4" }, "geometry": { "type": "LineString", "coordinates": [ [ 9.063721, 61.885931 ], [ 13.807068, 66.707884 ] ] } },
{ "type": "Feature", "properties": { "from_node": 264, "to_node": 407, "length_km": 482.02137309372858, "delaunay_k": 4, "edge_set": "Delaunay4" }, "geometry": { "type": "LineString", "coordinates": [ [ 25.180664, 62.261532 ], [ 27.398529, 66.450241 ] ] } },
{ "type": "Feature", "properties": { "from_node": 265, "to_node": 406, "length_km": 476.44116688836857, "delaunay_k": 4, "edge_set": "Delaunay4" }, "geometry": { "type": "LineString", "coordinates": [ [ 27.766571, 62.262171 ], [ 25.717621, 66.413451 ] ] } },
{ "type": "Feature", "properties": { "from_node": 265, "to_node": 418, "length_km": 601.0757108674751, "delaunay_k": 4, "edge_set": "Delaunay4" }, "geometry": { "type": "LineString", "coordinates": [ [ 27.766571, 62.262171 ], [ 25.085907, 67.498059 ] ] } },
{ "type": "Feature", "properties": { "from_node": 265, "to_node": 419, "length_km": 603.86884430390398, "delaunay_k": 4, "edge_set": "Delaunay4" }, "geometry": { "type": "LineString", "coordinates": [ [ 27.766571, 62.262171 ], [ 26.098022, 67.596139 ] ] } },
{ "type": "Feature", "properties": { "from_node": 265, "to_node": 421, "length_km": 601.20822876919442, "delaunay_k": 4, "edge_set": "Delaunay4" }, "geometry": { "type": "LineString", "coordinates": [ [ 27.766571, 62.262171 ], [ 26.820374, 67.602419 ] ] } },
{ "type": "Feature", "properties": { "from_node": 265, "to_node": 425, "length_km": 716.73652915349544, "delaunay_k": 4, "edge_set": "Delaunay4" }, "geometry": { "type": "LineString", "coordinates": [ [ 27.766571, 62.262171 ], [ 27.674561, 68.645556 ] ] } },
{ "type": "Feature", "properties": { "from_node": 266, "to_node": 415, "length_km": 553.2310386624996, "delaunay_k": 4, "edge_set": "Delaunay4" }, "geometry": { "type": "LineString", "coordinates": [ [ 26.032104, 62.340686 ], [ 27.387543, 67.23753 ] ] } },
{ "type": "Feature", "properties": { "from_node": 273, "to_node": 379, "length_km": 513.1644573114728, "delaunay_k": 4, "edge_set": "Delaunay4" }, "geometry": { "type": "LineString", "coordinates": [ [ 7.033997, 62.47807 ], [ 15.783234, 64.967159 ] ] } },
{ "type": "Feature", "properties": { "from_node": 273, "to_node": 390, "length_km": 544.41447699530124, "delaunay_k": 4, "edge_set": "Delaunay4" }, "geometry": { "type": "LineString", "coordinates": [ [ 7.033997, 62.47807 ], [ 15.812073, 65.485626 ] ] } },
{ "type": "Feature", "properties": { "from_node": 273, "to_node": 392, "length_km": 528.82268319500201, "delaunay_k": 4, "edge_set": "Delaunay4" }, "geometry": { "type": "LineString", "coordinates": [ [ 7.033997, 62.47807 ], [ 14.965643971847902, 65.721629736713297 ] ] } },
{ "type": "Feature", "properties": { "from_node": 273, "to_node": 413, "length_km": 744.34986396229442, "delaunay_k": 4, "edge_set": "Delaunay4" }, "geometry": { "type": "LineString", "coordinates": [ [ 7.033997, 62.47807 ], [ 18.639679, 66.970387 ] ] } },
{ "type": "Feature", "properties": { "from_node": 273, "to_node": 422, "length_km": 768.6539324315097, "delaunay_k": 4, "edge_set": "Delaunay4" }, "geometry": { "type": "LineString", "coordinates": [ [ 7.033997, 62.47807 ], [ 17.992859, 67.610267 ] ] } },
{ "type": "Feature", "properties": { "from_node": 273, "to_node": 423, "length_km": 791.57260389298642, "delaunay_k": 4, "edge_set": "Delaunay4" }, "geometry": { "type": "LineString", "coordinates": [ [ 7.033997, 62.47807 ], [ 17.288361, 68.158786 ] ] } },
{ "type": "Feature", "properties": { "from_node": 273, "to_node": 424, "length_km": 829.53656575749358, "delaunay_k": 4, "edge_set": "Delaunay4" }, "geometry": { "type": "LineString", "coordinates": [ [ 7.033997, 62.47807 ], [ 17.579498, 68.517173 ] ] } },
{ "type": "Feature", "properties": { "from_node": 273, "to_node": 426, "length_km": 907.55203597405421, "delaunay_k": 4, "edge_set": "Delaunay4" }, "geometry": { "type": "LineString", "coordinates": [ [ 7.033997, 62.47807 ], [ 18.864899, 69.038124 ] ] } },
{ "type": "Feature", "properties": { "from_node": 273, "to_node": 427, "length_km": 929.83878556821912, "delaunay_k": 4, "edge_set": "Delaunay4" }, "geometry": { "type": "LineString", "coordinates": [ [ 7.033997, 62.47807 ], [ 19.24942, 69.183065 ] ] } },
{ "type": "Feature", "properties": { "from_node": 273, "to_node": 431, "length_km": 975.96850204999384, "delaunay_k": 4, "edge_set": "Delaunay4" }, "geometry": { "type": "LineString", "coordinates": [ [ 7.033997, 62.47807 ], [ 19.820709, 69.558512 ] ] } },
{ "type": "Feature", "properties": { "from_node": 273, "to_node": 435, "length_km": 1051.9562494554107, "delaunay_k": 4, "edge_set": "Delaunay4" }, "geometry": { "type": "LineString", "coordinates": [ [ 7.033997, 62.47807 ], [ 22.138824, 69.713346 ] ] } },
{ "type": "Feature", "properties": { "from_node": 273, "to_node": 442, "length_km": 1170.9742105610383, "delaunay_k": 4, "edge_set": "Delaunay4" }, "geometry": { "type": "LineString", "coordinates": [ [ 7.033997, 62.47807 ], [ 24.613495, 70.363091 ] ] } },
{ "type": "Feature", "properties": { "from_node": 277, "to_node": 391, "length_km": 484.3067670019181, "delaunay_k": 4, "edge_set": "Delaunay4" }, "geometry": { "type": "LineString", "coordinates": [ [ 7.7948, 62.526259 ], [ 14.765625, 65.62429 ] ] } },
{ "type": "Feature", "properties": { "from_node": 277, "to_node": 401, "length_km": 495.39026117472474, "delaunay_k": 4, "edge_set": "Delaunay4" }, "geometry": { "type": "LineString", "coordinates": [ [ 7.7948, 62.526259 ], [ 13.763123, 66.142743 ] ] } },
{ "type": "Feature", "properties": { "from_node": 277, "to_node": 402, "length_km": 519.61506608964601, "delaunay_k": 4, "edge_set": "Delaunay4" }, "geometry": { "type": "LineString", "coordinates": [ [ 7.7948, 62.526259 ], [ 14.191589, 66.282328 ] ] } },
{ "type": "Feature", "properties": { "from_node": 277, "to_node": 416, "length_km": 650.16355228984503, "delaunay_k": 4, "edge_set": "Delaunay4" }, "geometry": { "type": "LineString", "coordinates": [ [ 7.7948, 62.526259 ], [ 15.757141, 67.288485 ] ] } },
{ "type": "Feature", "properties": { "from_node": 277, "to_node": 420, "length_km": 679.7635097461839, "delaunay_k": 4, "edge_set": "Delaunay4" }, "geometry": { "type": "LineString", "coordinates": [ [ 7.7948, 62.526259 ], [ 15.850525, 67.598233 ] ] } },
{ "type": "Feature", "properties": { "from_node": 277, "to_node": 432, "length_km": 940.65462356058276, "delaunay_k": 4, "edge_set": "Delaunay4" }, "geometry": { "type": "LineString", "coordinates": [ [ 7.7948, 62.526259 ], [ 19.158783, 69.620772 ] ] } },
{ "type": "Feature", "properties": { "from_node": 281, "to_node": 410, "length_km": 485.02509059207983, "delaunay_k": 4, "edge_set": "Delaunay4" }, "geometry": { "type": "LineString", "coordinates": [ [ 10.266724, 62.628719 ], [ 13.807068, 66.707884 ] ] } },
{ "type": "Feature", "properties": { "from_node": 282, "to_node": 402, "length_km": 486.18538447195454, "delaunay_k": 4, "edge_set": "Delaunay4" }, "geometry": { "type": "LineString", "coordinates": [ [ 8.480072, 62.679816 ], [ 14.191589, 66.282328 ] ] } },
{ "type": "Feature", "properties": { "from_node": 282, "to_node": 416, "length_km": 617.28595906729629, "delaunay_k": 4, "edge_set": "Delaunay4" }, "geometry": { "type": "LineString", "coordinates": [ [ 8.480072, 62.679816 ], [ 15.757141, 67.288485 ] ] } },
{ "type": "Feature", "properties": { "from_node": 282, "to_node": 420, "length_km": 647.481343048025, "delaunay_k": 4, "edge_set": "Delaunay4" }, "geometry": { "type": "LineString", "coordinates": [ [ 8.480072, 62.679816 ], [ 15.850525, 67.598233 ] ] } },
{ "type": "Feature", "properties": { "from_node": 282, "to_node": 432, "length_km": 909.1995235255589, "delaunay_k": 4, "edge_set": "Delaunay4" }, "geometry": { "type": "LineString", "coordinates": [ [ 8.480072, 62.679816 ], [ 19.158783, 69.620772 ] ] } },
{ "type": "Feature", "properties": { "from_node": 283, "to_node": 410, "length_km": 481.88937167523187, "delaunay_k": 4, "edge_set": "Delaunay4" }, "geometry": { "type": "LineString", "coordinates": [ [ 10.122528, 62.681707 ], [ 13.807068, 66.707884 ] ] } },
{ "type": "Feature", "properties": { "from_node": 287, "to_node": 410, "length_km": 476.63603243138334, "delaunay_k": 4, "edge_set": "Delaunay4" }, "geometry": { "type": "LineString", "coordinates": [ [ 9.930267, 62.764783 ], [ 13.807068, 66.707884 ] ] } },
{ "type": "Feature", "properties": { "from_node": 292, "to_node": 415, "length_km": 499.54086673129177, "delaunay_k": 4, "edge_set": "Delaunay4" }, "geometry": { "type": "LineString", "coordinates": [ [ 24.285278, 62.976446 ], [ 27.387543, 67.23753 ] ] } },
{ "type": "Feature", "properties": { "from_node": 296, "to_node": 416, "length_km": 552.39064297748143, "delaunay_k": 4, "edge_set": "Delaunay4" }, "geometry": { "type": "LineString", "coordinates": [ [ 9.602051, 63.058071 ], [ 15.757141, 67.288485 ] ] } },
{ "type": "Feature", "properties": { "from_node": 296, "to_node": 420, "length_km": 583.40512766506686, "delaunay_k": 4, "edge_set": "Delaunay4" }, "geometry": { "type": "LineString", "coordinates": [ [ 9.602051, 63.058071 ], [ 15.850525, 67.598233 ] ] } },
{ "type": "Feature", "properties": { "from_node": 296, "to_node": 432, "length_km": 845.94036834794053, "delaunay_k": 4, "edge_set": "Delaunay4" }, "geometry": { "type": "LineString", "coordinates": [ [ 9.602051, 63.058071 ], [ 19.158783, 69.620772 ] ] } },
{ "type": "Feature", "properties": { "from_node": 302, "to_node": 418, "length_km": 500.96293463203438, "delaunay_k": 4, "edge_set": "Delaunay4" }, "geometry": { "type": "LineString", "coordinates": [ [ 27.585297, 63.154975 ], [ 25.085907, 67.498059 ] ] } },
{ "type": "Feature", "properties": { "from_node": 302, "to_node": 419, "length_km": 503.14147988022188, "delaunay_k": 4, "edge_set": "Delaunay4" }, "geometry": { "type": "LineString", "coordinates": [ [ 27.585297, 63.154975 ], [ 26.098022, 67.596139 ] ] } },
{ "type": "Feature", "properties": { "from_node": 302, "to_node": 421, "length_km": 500.44369287019407, "delaunay_k": 4, "edge_set": "Delaunay4" }, "geometry": { "type": "LineString", "coordinates": [ [ 27.585297, 63.154975 ], [ 26.820374, 67.602419 ] ] } },
{ "type": "Feature", "properties": { "from_node": 302, "to_node": 425, "length_km": 616.32988287527951, "delaunay_k": 4, "edge_set": "Delaunay4" }, "geometry": { "type": "LineString", "coordinates": [ [ 27.585297, 63.154975 ], [ 27.674561, 68.645556 ] ] } },
{ "type": "Feature", "properties": { "from_node": 313, "to_node": 413, "length_km": 579.93392727381729, "delaunay_k": 4, "edge_set": "Delaunay4" }, "geometry": { "type": "LineString", "coordinates": [ [ 9.933014, 63.271947 ], [ 18.639679, 66.970387 ] ] } },
{ "type": "Feature", "properties": { "from_node": 313, "to_node": 422, "length_km": 610.57774953822093, "delaunay_k": 4, "edge_set": "Delaunay4" }, "geometry": { "type": "LineString", "coordinates": [ [ 9.933014, 63.271947 ], [ 17.992859, 67.610267 ] ] } },
{ "type": "Feature", "properties": { "from_node": 313, "to_node": 423, "length_km": 640.22991431346225, "delaunay_k": 4, "edge_set": "Delaunay4" }, "geometry": { "type": "LineString", "coordinates": [ [ 9.933014, 63.271947 ], [ 17.288361, 68.158786 ] ] } },
{ "type": "Feature", "properties": { "from_node": 313, "to_node": 424, "length_km": 679.93066005336198, "delaunay_k": 4, "edge_set": "Delaunay4" }, "geometry": { "type": "LineString", "coordinates": [ [ 9.933014, 63.271947 ], [ 17.579498, 68.517173 ] ] } },
{ "type": "Feature", "properties": { "from_node": 313, "to_node": 426, "length_km": 757.45665123027754, "delaunay_k": 4, "edge_set": "Delaunay4" }, "geometry": { "type": "LineString", "coordinates": [ [ 9.933014, 63.271947 ], [ 18.864899, 69.038124 ] ] } },
{ "type": "Feature", "properties": { "from_node": 313, "to_node": 427, "length_km": 779.58930703987642, "delaunay_k": 4, "edge_set": "Delaunay4" }, "geometry": { "type": "LineString", "coordinates": [ [ 9.933014, 63.271947 ], [ 19.24942, 69.183065 ] ] } },
{ "type": "Feature", "properties": { "from_node": 313, "to_node": 431, "length_km": 826.63427600774719, "delaunay_k": 4, "edge_set": "Delaunay4" }, "geometry": { "type": "LineString", "coordinates": [ [ 9.933014, 63.271947 ], [ 19.820709, 69.558512 ] ] } },
{ "type": "Feature", "properties": { "from_node": 313, "to_node": 435, "length_km": 897.86415492790445, "delaunay_k": 4, "edge_set": "Delaunay4" }, "geometry": { "type": "LineString", "coordinates": [ [ 9.933014, 63.271947 ], [ 22.138824, 69.713346 ] ] } },
{ "type": "Feature", "properties": { "from_node": 313, "to_node": 442, "length_km": 1016.0130059229366, "delaunay_k": 4, "edge_set": "Delaunay4" }, "geometry": { "type": "LineString", "coordinates": [ [ 9.933014, 63.271947 ], [ 24.613495, 70.363091 ] ] } },
{ "type": "Feature", "properties": { "from_node": 314, "to_node": 416, "length_km": 510.78346100576715, "delaunay_k": 4, "edge_set": "Delaunay4" }, "geometry": { "type": "LineString", "coordinates": [ [ 10.457611, 63.276888 ], [ 15.757141, 67.288485 ] ] } },
{ "type": "Feature", "properties": { "from_node": 314, "to_node": 420, "length_km": 542.55000131744521, "delaunay_k": 4, "edge_set": "Delaunay4" }, "geometry": { "type": "LineString", "coordinates": [ [ 10.457611, 63.276888 ], [ 15.850525, 67.598233 ] ] } },
{ "type": "Feature", "properties": { "from_node": 314, "to_node": 432, "length_km": 805.41879359844825, "delaunay_k": 4, "edge_set": "Delaunay4" }, "geometry": { "type": "LineString", "coordinates": [ [ 10.457611, 63.276888 ], [ 19.158783, 69.620772 ] ] } },
{ "type": "Feature", "properties": { "from_node": 318, "to_node": 420, "length_km": 496.21857506792537, "delaunay_k": 4, "edge_set": "Delaunay4" }, "geometry": { "type": "LineString", "coordinates": [ [ 12.568359, 63.361367 ], [ 15.850525, 67.598233 ] ] } },
{ "type": "Feature", "properties": { "from_node": 318, "to_node": 432, "length_km": 756.54915262823727, "delaunay_k": 4, "edge_set": "Delaunay4" }, "geometry": { "type": "LineString", "coordinates": [ [ 12.568359, 63.361367 ], [ 19.158783, 69.620772 ] ] } },
{ "type": "Feature", "properties": { "from_node": 319, "to_node": 420, "length_km": 484.47943390529645, "delaunay_k": 4, "edge_set": "Delaunay4" }, "geometry": { "type": "LineString", "coordinates": [ [ 13.458252, 63.368755 ], [ 15.850525, 67.598233 ] ] } },
{ "type": "Feature", "properties": { "from_node": 319, "to_node": 432, "length_km": 741.60974940577864, "delaunay_k": 4, "edge_set": "Delaunay4" }, "geometry": { "type": "LineString", "coordinates": [ [ 13.458252, 63.368755 ], [ 19.158783, 69.620772 ] ] } },
{ "type": "Feature", "properties": { "from_node": 321, "to_node": 413, "length_km": 552.46596266847394, "delaunay_k": 4, "edge_set": "Delaunay4" }, "geometry": { "type": "LineString", "coordinates": [ [ 10.439758, 63.401361 ], [ 18.639679, 66.970387 ] ] } },
{ "type": "Feature", "properties": { "from_node": 321, "to_node": 422, "length_km": 584.49794098795439, "delaunay_k": 4, "edge_set": "Delaunay4" }, "geometry": { "type": "LineString", "coordinates": [ [ 10.439758, 63.401361 ], [ 17.992859, 67.610267 ] ] } },
{ "type": "Feature", "properties": { "from_node": 321, "to_node": 423, "length_km": 615.58183298484153, "delaunay_k": 4, "edge_set": "Delaunay4" }, "geometry": { "type": "LineString", "coordinates": [ [ 10.439758, 63.401361 ], [ 17.288361, 68.158786 ] ] } },
{ "type": "Feature", "properties": { "from_node": 321, "to_node": 424, "length_km": 655.5891085836364, "delaunay_k": 4, "edge_set": "Delaunay4" }, "geometry": { "type": "LineString", "coordinates": [ [ 10.439758, 63.401361 ], [ 17.579498, 68.517173 ] ] } },
{ "type": "Feature", "properties": { "from_node": 321, "to_node": 426, "length_km": 732.89769346083642, "delaunay_k": 4, "edge_set": "Delaunay4" }, "geometry": { "type": "LineString", "coordinates": [ [ 10.439758, 63.401361 ], [ 18.864899, 69.038124 ] ] } },
{ "type": "Feature", "properties": { "from_node": 321, "to_node": 427, "length_km": 754.97035741840466, "delaunay_k": 4, "edge_set": "Delaunay4" }, "geometry": { "type": "LineString", "coordinates": [ [ 10.439758, 63.401361 ], [ 19.24942, 69.183065 ] ] } },
{ "type": "Feature", "properties": { "from_node": 321, "to_node": 431, "length_km": 802.1495821064633, "delaunay_k": 4, "edge_set": "Delaunay4" }, "geometry": { "type": "LineString", "coordinates": [ [ 10.439758, 63.401361 ], [ 19.820709, 69.558512 ] ] } },
{ "type": "Feature", "properties": { "from_node": 321, "to_node": 435, "length_km": 872.34019071690875, "delaunay_k": 4, "edge_set": "Delaunay4" }, "geometry": { "type": "LineString", "coordinates": [ [ 10.439758, 63.401361 ], [ 22.138824, 69.713346 ] ] } },
{ "type": "Feature", "properties": { "from_node": 321, "to_node": 442, "length_km": 990.23666834051539, "delaunay_k": 4, "edge_set": "Delaunay4" }, "geometry": { "type": "LineString", "coordinates": [ [ 10.439758, 63.401361 ], [ 24.613495, 70.363091 ] ] } },
{ "type": "Feature", "properties": { "from_node": 325, "to_node": 416, "length_km": 480.46306170731697, "delaunay_k": 4, "edge_set": "Delaunay4" }, "geometry": { "type": "LineString", "coordinates": [ [ 11.017914, 63.45726 ], [ 15.757141, 67.288485 ] ] } },
{ "type": "Feature", "properties": { "from_node": 325, "to_node": 420, "length_km": 512.68041848722771, "delaunay_k": 4, "edge_set": "Delaunay4" }, "geometry": { "type": "LineString", "coordinates": [ [ 11.017914, 63.45726 ], [ 15.850525, 67.598233 ] ] } },
{ "type": "Feature", "properties": { "from_node": 325, "to_node": 432, "length_km": 775.52496035928766, "delaunay_k": 4, "edge_set": "Delaunay4" }, "geometry": { "type": "LineString", "coordinates": [ [ 11.017914, 63.45726 ], [ 19.158783, 69.620772 ] ] } },
{ "type": "Feature", "properties": { "from_node": 330, "to_node": 432, "length_km": 718.73760100744607, "delaunay_k": 4, "edge_set": "Delaunay4" }, "geometry": { "type": "LineString", "coordinates": [ [ 13.657379, 63.555892 ], [ 19.158783, 69.620772 ] ] } },
{ "type": "Feature", "properties": { "from_node": 337, "to_node": 422, "length_km": 486.00785666773623, "delaunay_k": 4, "edge_set": "Delaunay4" }, "geometry": { "type": "LineString", "coordinates": [ [ 13.065491, 63.752742 ], [ 17.992859, 67.610267 ] ] } },
{ "type": "Feature", "properties": { "from_node": 337, "to_node": 423, "length_km": 527.41962483865439, "delaunay_k": 4, "edge_set": "Delaunay4" }, "geometry": { "type": "LineString", "coordinates": [ [ 13.065491, 63.752742 ], [ 17.288361, 68.158786 ] ] } },
{ "type": "Feature", "properties": { "from_node": 337, "to_node": 424, "length_km": 568.91620138834685, "delaunay_k": 4, "edge_set": "Delaunay4" }, "geometry": { "type": "LineString", "coordinates": [ [ 13.065491, 63.752742 ], [ 17.579498, 68.517173 ] ] } },
{ "type": "Feature", "properties": { "from_node": 337, "to_node": 426, "length_km": 643.55312895065708, "delaunay_k": 4, "edge_set": "Delaunay4" }, "geometry": { "type": "LineString", "coordinates": [ [ 13.065491, 63.752742 ], [ 18.864899, 69.038124 ] ] } },
{ "type": "Feature", "properties": { "from_node": 337, "to_node": 427, "length_km": 664.93197113050826, "delaunay_k": 4, "edge_set": "Delaunay4" }, "geometry": { "type": "LineString", "coordinates": [ [ 13.065491, 63.752742 ], [ 19.24942, 69.183065 ] ] } },
{ "type": "Feature", "properties": { "from_node": 337, "to_node": 431, "length_km": 712.52111668246562, "delaunay_k": 4, "edge_set": "Delaunay4" }, "geometry": { "type": "LineString", "coordinates": [ [ 13.065491, 63.752742 ], [ 19.820709, 69.558512 ] ] } },
{ "type": "Feature", "properties": { "from_node": 337, "to_node": 435, "length_km": 774.74784759108798, "delaunay_k": 4, "edge_set": "Delaunay4" }, "geometry": { "type": "LineString", "coordinates": [ [ 13.065491, 63.752742 ], [ 22.138824, 69.713346 ] ] } },
{ "type": "Feature", "properties": { "from_node": 337, "to_node": 442, "length_km": 890.06773920746571, "delaunay_k": 4, "edge_set": "Delaunay4" }, "geometry": { "type": "LineString", "coordinates": [ [ 13.065491, 63.752742 ], [ 24.613495, 70.363091 ] ] } },
{ "type": "Feature", "properties": { "from_node": 338, "to_node": 432, "length_km": 699.98307176311573, "delaunay_k": 4, "edge_set": "Delaunay4" }, "geometry": { "type": "LineString", "coordinates": [ [ 13.493958, 63.755779 ], [ 19.158783, 69.620772 ] ] } },
{ "type": "Feature", "properties": { "from_node": 339, "to_node": 432, "length_km": 733.544066157001, "delaunay_k": 4, "edge_set": "Delaunay4" }, "geometry": { "type": "LineString", "coordinates": [ [ 11.472473, 63.779452 ], [ 19.158783, 69.620772 ] ] } },
{ "type": "Feature", "properties": { "from_node": 345, "to_node": 432, "length_km": 675.93957931338093, "delaunay_k": 4, "edge_set": "Delaunay4" }, "geometry": { "type": "LineString", "coordinates": [ [ 13.769989, 63.942802 ], [ 19.158783, 69.620772 ] ] } },
{ "type": "Feature", "properties": { "from_node": 346, "to_node": 422, "length_km": 502.42145095452264, "delaunay_k": 4, "edge_set": "Delaunay4" }, "geometry": { "type": "LineString", "coordinates": [ [ 11.477966, 63.979576 ], [ 17.992859, 67.610267 ] ] } },
{ "type": "Feature", "properties": { "from_node": 346, "to_node": 423, "length_km": 534.78842537939568, "delaunay_k": 4, "edge_set": "Delaunay4" }, "geometry": { "type": "LineString", "coordinates": [ [ 11.477966, 63.979576 ], [ 17.288361, 68.158786 ] ] } },
{ "type": "Feature", "properties": { "from_node": 346, "to_node": 424, "length_km": 575.12392604116337, "delaunay_k": 4, "edge_set": "Delaunay4" }, "geometry": { "type": "LineString", "coordinates": [ [ 11.477966, 63.979576 ], [ 17.579498, 68.517173 ] ] } },
{ "type": "Feature", "properties": { "from_node": 346, "to_node": 426, "length_km": 652.13043526544152, "delaunay_k": 4, "edge_set": "Delaunay4" }, "geometry": { "type": "LineString", "coordinates": [ [ 11.477966, 63.979576 ], [ 18.864899, 69.038124 ] ] } },
{ "type": "Feature", "properties": { "from_node": 346, "to_node": 427, "length_km": 674.12541598911957, "delaunay_k": 4, "edge_set": "Delaunay4" }, "geometry": { "type": "LineString", "coordinates": [ [ 11.477966, 63.979576 ], [ 19.24942, 69.183065 ] ] } },
{ "type": "Feature", "properties": { "from_node": 346, "to_node": 431, "length_km": 721.43147250701566, "delaunay_k": 4, "edge_set": "Delaunay4" }, "geometry": { "type": "LineString", "coordinates": [ [ 11.477966, 63.979576 ], [ 19.820709, 69.558512 ] ] } },
{ "type": "Feature", "properties": { "from_node": 346, "to_node": 435, "length_km": 790.59862311786139, "delaunay_k": 4, "edge_set": "Delaunay4" }, "geometry": { "type": "LineString", "coordinates": [ [ 11.477966, 63.979576 ], [ 22.138824, 69.713346 ] ] } },
{ "type": "Feature", "properties": { "from_node": 346, "to_node": 442, "length_km": 908.29287487140209, "delaunay_k": 4, "edge_set": "Delaunay4" }, "geometry": { "type": "LineString", "coordinates": [ [ 11.477966, 63.979576 ], [ 24.613495, 70.363091 ] ] } },
{ "type": "Feature", "properties": { "from_node": 352, "to_node": 425, "length_km": 510.31410172217494, "delaunay_k": 4, "edge_set": "Delaunay4" }, "geometry": { "type": "LineString", "coordinates": [ [ 27.204895, 64.101606 ], [ 27.674561, 68.645556 ] ] } },
{ "type": "Feature", "properties": { "from_node": 358, "to_node": 425, "length_km": 493.69956400835616, "delaunay_k": 4, "edge_set": "Delaunay4" }, "geometry": { "type": "LineString", "coordinates": [ [ 24.517365, 64.423037 ], [ 27.674561, 68.645556 ] ] } },
{ "type": "Feature", "properties": { "from_node": 358, "to_node": 428, "length_km": 568.98884977920568, "delaunay_k": 4, "edge_set": "Delaunay4" }, "geometry": { "type": "LineString", "coordinates": [ [ 24.517365, 64.423037 ], [ 20.376892, 69.243986 ] ] } },
{ "type": "Feature", "properties": { "from_node": 358, "to_node": 429, "length_km": 580.50977512355917, "delaunay_k": 4, "edge_set": "Delaunay4" }, "geometry": { "type": "LineString", "coordinates": [ [ 24.517365, 64.423037 ], [ 21.041565, 69.431516 ] ] } },
{ "type": "Feature", "properties": { "from_node": 358, "to_node": 433, "length_km": 589.14617179284608, "delaunay_k": 4, "edge_set": "Delaunay4" }, "geometry": { "type": "LineString", "coordinates": [ [ 24.517365, 64.423037 ], [ 23.990021, 69.68142 ] ] } },
{ "type": "Feature", "properties": { "from_node": 360, "to_node": 428, "length_km": 657.10707183916156, "delaunay_k": 4, "edge_set": "Delaunay4" }, "geometry": { "type": "LineString", "coordinates": [ [ 11.620789, 64.453849 ], [ 20.376892, 69.243986 ] ] } },
{ "type": "Feature", "properties": { "from_node": 360, "to_node": 429, "length_km": 690.07608529267281, "delaunay_k": 4, "edge_set": "Delaunay4" }, "geometry": { "type": "LineString", "coordinates": [ [ 11.620789, 64.453849 ], [ 21.041565, 69.431516 ] ] } },
{ "type": "Feature", "properties": { "from_node": 360, "to_node": 433, "length_km": 791.27674019623839, "delaunay_k": 4, "edge_set": "Delaunay4" }, "geometry": { "type": "LineString", "coordinates": [ [ 11.620789, 64.453849 ], [ 23.990021, 69.68142 ] ] } },
{ "type": "Feature", "properties": { "from_node": 360, "to_node": 438, "length_km": 794.17644922685349, "delaunay_k": 4, "edge_set": "Delaunay4" }, "geometry": { "type": "LineString", "coordinates": [ [ 11.620789, 64.453849 ], [ 23.410492, 69.935012 ] ] } },
{ "type": "Feature", "properties": { "from_node": 360, "to_node": 439, "length_km": 845.77483326861022, "delaunay_k": 4, "edge_set": "Delaunay4" }, "geometry": { "type": "LineString", "coordinates": [ [ 11.620789, 64.453849 ], [ 25.157318, 69.959498 ] ] } },
{ "type": "Feature", "properties": { "from_node": 360, "to_node": 441, "length_km": 909.94888650289988, "delaunay_k": 4, "edge_set": "Delaunay4" }, "geometry": { "type": "LineString", "coordinates": [ [ 11.620789, 64.453849 ], [ 26.545715, 70.286801 ] ] } },
{ "type": "Feature", "properties": { "from_node": 367, "to_node": 414, "length_km": 476.71043946367126, "delaunay_k": 4, "edge_set": "Delaunay4" }, "geometry": { "type": "LineString", "coordinates": [ [ 28.45047, 64.58147 ], [ 19.866028, 66.975221 ] ] } },
{ "type": "Feature", "properties": { "from_node": 367, "to_node": 428, "length_km": 630.38131378701144, "delaunay_k": 4, "edge_set": "Delaunay4" }, "geometry": { "type": "LineString", "coordinates": [ [ 28.45047, 64.58147 ], [ 20.376892, 69.243986 ] ] } },
{ "type": "Feature", "properties": { "from_node": 367, "to_node": 429, "length_km": 631.92976123735446, "delaunay_k": 4, "edge_set": "Delaunay4" }, "geometry": { "type": "LineString", "coordinates": [ [ 28.45047, 64.58147 ], [ 21.041565, 69.431516 ] ] } },
{ "type": "Feature", "properties": { "from_node": 367, "to_node": 430, "length_km": 547.85517503627602, "delaunay_k": 4, "edge_set": "Delaunay4" }, "geometry": { "type": "LineString", "coordinates": [ [ 28.45047, 64.58147 ], [ 29.549103, 69.440681 ] ] } },
{ "type": "Feature", "properties": { "from_node": 367, "to_node": 433, "length_km": 603.58522385136189, "delaunay_k": 4, "edge_set": "Delaunay4" }, "geometry": { "type": "LineString", "coordinates": [ [ 28.45047, 64.58147 ], [ 23.990021, 69.68142 ] ] } },
{ "type": "Feature", "properties": { "from_node": 367, "to_node": 436, "length_km": 589.95411251556527, "delaunay_k": 4, "edge_set": "Delaunay4" }, "geometry": { "type": "LineString", "coordinates": [ [ 28.45047, 64.58147 ], [ 27.239227, 69.817839 ] ] } },
{ "type": "Feature", "properties": { "from_node": 369, "to_node": 432, "length_km": 600.41870562073962, "delaunay_k": 4, "edge_set": "Delaunay4" }, "geometry": { "type": "LineString", "coordinates": [ [ 13.807068, 64.653876 ], [ 19.158783, 69.620772 ] ] } },
{ "type": "Feature", "properties": { "from_node": 372, "to_node": 418, "length_km": 518.25096702784128, "delaunay_k": 4, "edge_set": "Delaunay4" }, "geometry": { "type": "LineString", "coordinates": [ [ 15.923309, 64.710254 ], [ 25.085907, 67.498059 ] ] } },
{ "type": "Feature", "properties": { "from_node": 373, "to_node": 424, "length_km": 474.09376685125096, "delaunay_k": 4, "edge_set": "Delaunay4" }, "geometry": { "type": "LineString", "coordinates": [ [ 12.800446, 64.712014 ], [ 17.579498, 68.517173 ] ] } },
{ "type": "Feature", "properties": { "from_node": 373, "to_node": 426, "length_km": 550.54683726903215, "delaunay_k": 4, "edge_set": "Delaunay4" }, "geometry": { "type": "LineString", "coordinates": [ [ 12.800446, 64.712014 ], [ 18.864899, 69.038124 ] ] } },
{ "type": "Feature", "properties": { "from_node": 373, "to_node": 427, "length_km": 572.40805295666394, "delaunay_k": 4, "edge_set": "Delaunay4" }, "geometry": { "type": "LineString", "coordinates": [ [ 12.800446, 64.712014 ], [ 19.24942, 69.183065 ] ] } },
{ "type": "Feature", "properties": { "from_node": 373, "to_node": 431, "length_km": 619.8553845993315, "delaunay_k": 4, "edge_set": "Delaunay4" }, "geometry": { "type": "LineString", "coordinates": [ [ 12.800446, 64.712014 ], [ 19.820709, 69.558512 ] ] } },
{ "type": "Feature", "properties": { "from_node": 373, "to_node": 435, "length_km": 687.59365867678628, "delaunay_k": 4, "edge_set": "Delaunay4" }, "geometry": { "type": "LineString", "coordinates": [ [ 12.800446, 64.712014 ], [ 22.138824, 69.713346 ] ] } },
{ "type": "Feature", "properties": { "from_node": 373, "to_node": 442, "length_km": 805.02093410866917, "delaunay_k": 4, "edge_set": "Delaunay4" }, "geometry": { "type": "LineString", "coordinates": [ [ 12.800446, 64.712014 ], [ 24.613495, 70.363091 ] ] } },
{ "type": "Feature", "properties": { "from_node": 374, "to_node": 432, "length_km": 588.41362129117783, "delaunay_k": 4, "edge_set": "Delaunay4" }, "geometry": { "type": "LineString", "coordinates": [ [ 14.146271, 64.71612 ], [ 19.158783, 69.620772 ] ] } },
{ "type": "Feature", "properties": { "from_node": 375, "to_node": 428, "length_km": 568.80179373171666, "delaunay_k": 4, "edge_set": "Delaunay4" }, "geometry": { "type": "LineString", "coordinates": [ [ 26.51825, 64.759489 ], [ 20.376892, 69.243986 ] ] } },
{ "type": "Feature", "properties": { "from_node": 375, "to_node": 429, "length_km": 574.46785276502214, "delaunay_k": 4, "edge_set": "Delaunay4" }, "geometry": { "type": "LineString", "coordinates": [ [ 26.51825, 64.759489 ], [ 21.041565, 69.431516 ] ] } },
{ "type": "Feature", "properties": { "from_node": 375, "to_node": 433, "length_km": 562.09886666291186, "delaunay_k": 4, "edge_set": "Delaunay4" }, "geometry": { "type": "LineString", "coordinates": [ [ 26.51825, 64.759489 ], [ 23.990021, 69.68142 ] ] } },
{ "type": "Feature", "properties": { "from_node": 377, "to_node": 432, "length_km": 586.04294740943669, "delaunay_k": 4, "edge_set": "Delaunay4" }, "geometry": { "type": "LineString", "coordinates": [ [ 13.099823, 64.914228 ], [ 19.158783, 69.620772 ] ] } },
{ "type": "Feature", "properties": { "from_node": 378, "to_node": 428, "length_km": 538.57587996759332, "delaunay_k": 4, "edge_set": "Delaunay4" }, "geometry": { "type": "LineString", "coordinates": [ [ 26.05957, 64.965416 ], [ 20.376892, 69.243986 ] ] } },
{ "type": "Feature", "properties": { "from_node": 378, "to_node": 429, "length_km": 544.8849233443666, "delaunay_k": 4, "edge_set": "Delaunay4" }, "geometry": { "type": "LineString", "coordinates": [ [ 26.05957, 64.965416 ], [ 21.041565, 69.431516 ] ] } },
{ "type": "Feature", "properties": { "from_node": 378, "to_node": 433, "length_km": 535.67016298090005, "delaunay_k": 4, "edge_set": "Delaunay4" }, "geometry": { "type": "LineString", "coordinates": [ [ 26.05957, 64.965416 ], [ 23.990021, 69.68142 ] ] } },
{ "type": "Feature", "properties": { "from_node": 379, "to_node": 418, "length_km": 505.06509373402093, "delaunay_k": 4, "edge_set": "Delaunay4" }, "geometry": { "type": "LineString", "coordinates": [ [ 15.783234, 64.967159 ], [ 25.085907, 67.498059 ] ] } },
{ "type": "Feature", "properties": { "from_node": 379, "to_node": 426, "length_km": 473.71961125731161, "delaunay_k": 4, "edge_set": "Delaunay4" }, "geometry": { "type": "LineString", "coordinates": [ [ 15.783234, 64.967159 ], [ 18.864899, 69.038124 ] ] } },
{ "type": "Feature", "properties": { "from_node": 379, "to_node": 428, "length_km": 517.19814782363335, "delaunay_k": 4, "edge_set": "Delaunay4" }, "geometry": { "type": "LineString", "coordinates": [ [ 15.783234, 64.967159 ], [ 20.376892, 69.243986 ] ] } },
{ "type": "Feature", "properties": { "from_node": 379, "to_node": 432, "length_km": 539.24183566454712, "delaunay_k": 4, "edge_set": "Delaunay4" }, "geometry": { "type": "LineString", "coordinates": [ [ 15.783234, 64.967159 ], [ 19.158783, 69.620772 ] ] } },
{ "type": "Feature", "properties": { "from_node": 380, "to_node": 428, "length_km": 532.9771652257175, "delaunay_k": 4, "edge_set": "Delaunay4" }, "geometry": { "type": "LineString", "coordinates": [ [ 25.808258, 64.971807 ], [ 20.376892, 69.243986 ] ] } },
{ "type": "Feature", "properties": { "from_node": 380, "to_node": 429, "length_km": 539.94149412929539, "delaunay_k": 4, "edge_set": "Delaunay4" }, "geometry": { "type": "LineString", "coordinates": [ [ 25.808258, 64.971807 ], [ 21.041565, 69.431516 ] ] } },
{ "type": "Feature", "properties": { "from_node": 380, "to_node": 433, "length_km": 533.224517039793, "delaunay_k": 4, "edge_set": "Delaunay4" }, "geometry": { "type": "LineString", "coordinates": [ [ 25.808258, 64.971807 ], [ 23.990021, 69.68142 ] ] } },
{ "type": "Feature", "properties": { "from_node": 382, "to_node": 425, "length_km": 533.76625249128494, "delaunay_k": 4, "edge_set": "Delaunay4" }, "geometry": { "type": "LineString", "coordinates": [ [ 19.736938, 65.032742 ], [ 27.674561, 68.645556 ] ] } },
{ "type": "Feature", "properties": { "from_node": 382, "to_node": 429, "length_km": 494.6857033518541, "delaunay_k": 4, "edge_set": "Delaunay4" }, "geometry": { "type": "LineString", "coordinates": [ [ 19.736938, 65.032742 ], [ 21.041565, 69.431516 ] ] } },
{ "type": "Feature", "properties": { "from_node": 382, "to_node": 433, "length_km": 550.7401189534171, "delaunay_k": 4, "edge_set": "Delaunay4" }, "geometry": { "type": "LineString", "coordinates": [ [ 19.736938, 65.032742 ], [ 23.990021, 69.68142 ] ] } },
{ "type": "Feature", "properties": { "from_node": 383, "to_node": 426, "length_km": 502.96964478306001, "delaunay_k": 4, "edge_set": "Delaunay4" }, "geometry": { "type": "LineString", "coordinates": [ [ 12.7565, 65.20262 ], [ 18.864899, 69.038124 ] ] } },
{ "type": "Feature", "properties": { "from_node": 383, "to_node": 427, "length_km": 525.02358779559347, "delaunay_k": 4, "edge_set": "Delaunay4" }, "geometry": { "type": "LineString", "coordinates": [ [ 12.7565, 65.20262 ], [ 19.24942, 69.183065 ] ] } },
{ "type": "Feature", "properties": { "from_node": 383, "to_node": 431, "length_km": 572.24132876214469, "delaunay_k": 4, "edge_set": "Delaunay4" }, "geometry": { "type": "LineString", "coordinates": [ [ 12.7565, 65.20262 ], [ 19.820709, 69.558512 ] ] } },
{ "type": "Feature", "properties": { "from_node": 383, "to_node": 435, "length_km": 642.79111848186062, "delaunay_k": 4, "edge_set": "Delaunay4" }, "geometry": { "type": "LineString", "coordinates": [ [ 12.7565, 65.20262 ], [ 22.138824, 69.713346 ] ] } },
{ "type": "Feature", "properties": { "from_node": 383, "to_node": 442, "length_km": 761.02472656025748, "delaunay_k": 4, "edge_set": "Delaunay4" }, "geometry": { "type": "LineString", "coordinates": [ [ 12.7565, 65.20262 ], [ 24.613495, 70.363091 ] ] } },
{ "type": "Feature", "properties": { "from_node": 384, "to_node": 419, "length_km": 483.84152990430277, "delaunay_k": 4, "edge_set": "Delaunay4" }, "geometry": { "type": "LineString", "coordinates": [ [ 17.049408, 65.221045 ], [ 26.098022, 67.596139 ] ] } },
{ "type": "Feature", "properties": { "from_node": 384, "to_node": 425, "length_km": 601.82538000759166, "delaunay_k": 4, "edge_set": "Delaunay4" }, "geometry": { "type": "LineString", "coordinates": [ [ 17.049408, 65.221045 ], [ 27.674561, 68.645556 ] ] } },
{ "type": "Feature", "properties": { "from_node": 384, "to_node": 429, "length_km": 500.41949737091232, "delaunay_k": 4, "edge_set": "Delaunay4" }, "geometry": { "type": "LineString", "coordinates": [ [ 17.049408, 65.221045 ], [ 21.041565, 69.431516 ] ] } },
{ "type": "Feature", "properties": { "from_node": 384, "to_node": 433, "length_km": 579.69557720200351, "delaunay_k": 4, "edge_set": "Delaunay4" }, "geometry": { "type": "LineString", "coordinates": [ [ 17.049408, 65.221045 ], [ 23.990021, 69.68142 ] ] } },
{ "type": "Feature", "properties": { "from_node": 385, "to_node": 433, "length_km": 507.77832406988466, "delaunay_k": 4, "edge_set": "Delaunay4" }, "geometry": { "type": "LineString", "coordinates": [ [ 21.169281, 65.270498 ], [ 23.990021, 69.68142 ] ] } },
{ "type": "Feature", "properties": { "from_node": 386, "to_node": 426, "length_km": 514.01449998220448, "delaunay_k": 4, "edge_set": "Delaunay4" }, "geometry": { "type": "LineString", "coordinates": [ [ 25.694275, 65.279688 ], [ 18.864899, 69.038124 ] ] } },
{ "type": "Feature", "properties": { "from_node": 386, "to_node": 427, "length_km": 517.75837163746712, "delaunay_k": 4, "edge_set": "Delaunay4" }, "geometry": { "type": "LineString", "coordinates": [ [ 25.694275, 65.279688 ], [ 19.24942, 69.183065 ] ] } },
{ "type": "Feature", "properties": { "from_node": 386, "to_node": 430, "length_km": 495.35685825958808, "delaunay_k": 4, "edge_set": "Delaunay4" }, "geometry": { "type": "LineString", "coordinates": [ [ 25.694275, 65.279688 ], [ 29.549103, 69.440681 ] ] } },
{ "type": "Feature", "properties": { "from_node": 386, "to_node": 431, "length_km": 540.72016040832034, "delaunay_k": 4, "edge_set": "Delaunay4" }, "geometry": { "type": "LineString", "coordinates": [ [ 25.694275, 65.279688 ], [ 19.820709, 69.558512 ] ] } },
{ "type": "Feature", "properties": { "from_node": 386, "to_node": 435, "length_km": 518.97486377230564, "delaunay_k": 4, "edge_set": "Delaunay4" }, "geometry": { "type": "LineString", "coordinates": [ [ 25.694275, 65.279688 ], [ 22.138824, 69.713346 ] ] } },
{ "type": "Feature", "properties": { "from_node": 386, "to_node": 436, "length_km": 512.90648766643767, "delaunay_k": 4, "edge_set": "Delaunay4" }, "geometry": { "type": "LineString", "coordinates": [ [ 25.694275, 65.279688 ], [ 27.239227, 69.817839 ] ] } },
{ "type": "Feature", "properties": { "from_node": 386, "to_node": 438, "length_km": 530.20463383644801, "delaunay_k": 4, "edge_set": "Delaunay4" }, "geometry": { "type": "LineString", "coordinates": [ [ 25.694275, 65.279688 ], [ 23.410492, 69.935012 ] ] } },
{ "type": "Feature", "properties": { "from_node": 386, "to_node": 439, "length_km": 524.72325414731608, "delaunay_k": 4, "edge_set": "Delaunay4" }, "geometry": { "type": "LineString", "coordinates": [ [ 25.694275, 65.279688 ], [ 25.157318, 69.959498 ] ] } },
{ "type": "Feature", "properties": { "from_node": 387, "to_node": 419, "length_km": 485.09734222313654, "delaunay_k": 4, "edge_set": "Delaunay4" }, "geometry": { "type": "LineString", "coordinates": [ [ 16.876373, 65.299207 ], [ 26.098022, 67.596139 ] ] } },
{ "type": "Feature", "properties": { "from_node": 387, "to_node": 425, "length_km": 601.61563770490307, "delaunay_k": 4, "edge_set": "Delaunay4" }, "geometry": { "type": "LineString", "coordinates": [ [ 16.876373, 65.299207 ], [ 27.674561, 68.645556 ] ] } },
{ "type": "Feature", "properties": { "from_node": 387, "to_node": 429, "length_km": 494.74845099990483, "delaunay_k": 4, "edge_set": "Delaunay4" }, "geometry": { "type": "LineString", "coordinates": [ [ 16.876373, 65.299207 ], [ 21.041565, 69.431516 ] ] } },
{ "type": "Feature", "properties": { "from_node": 387, "to_node": 431, "length_km": 491.88840909206425, "delaunay_k": 4, "edge_set": "Delaunay4" }, "geometry": { "type": "LineString", "coordinates": [ [ 16.876373, 65.299207 ], [ 19.820709, 69.558512 ] ] } },
{ "type": "Feature", "properties": { "from_node": 387, "to_node": 432, "length_km": 492.16940302618212, "delaunay_k": 4, "edge_set": "Delaunay4" }, "geometry": { "type": "LineString", "coordinates": [ [ 16.876373, 65.299207 ], [ 19.158783, 69.620772 ] ] } },
{ "type": "Feature", "properties": { "from_node": 387, "to_node": 433, "length_km": 575.79831922375797, "delaunay_k": 4, "edge_set": "Delaunay4" }, "geometry": { "type": "LineString", "coordinates": [ [ 16.876373, 65.299207 ], [ 23.990021, 69.68142 ] ] } },
{ "type": "Feature", "properties": { "from_node": 389, "to_node": 419, "length_km": 494.22484365597882, "delaunay_k": 4, "edge_set": "Delaunay4" }, "geometry": { "type": "LineString", "coordinates": [ [ 16.489105, 65.386291 ], [ 26.098022, 67.596139 ] ] } },
{ "type": "Feature", "properties": { "from_node": 389, "to_node": 425, "length_km": 608.31626697491481, "delaunay_k": 4, "edge_set": "Delaunay4" }, "geometry": { "type": "LineString", "coordinates": [ [ 16.489105, 65.386291 ], [ 27.674561, 68.645556 ] ] } },
{ "type": "Feature", "properties": { "from_node": 389, "to_node": 429, "length_km": 491.86554056143507, "delaunay_k": 4, "edge_set": "Delaunay4" }, "geometry": { "type": "LineString", "coordinates": [ [ 16.489105, 65.386291 ], [ 21.041565, 69.431516 ] ] } },
{ "type": "Feature", "properties": { "from_node": 389, "to_node": 431, "length_km": 486.96890432861323, "delaunay_k": 4, "edge_set": "Delaunay4" }, "geometry": { "type": "LineString", "coordinates": [ [ 16.489105, 65.386291 ], [ 19.820709, 69.558512 ] ] } },
{ "type": "Feature", "properties": { "from_node": 389, "to_node": 432, "length_km": 486.17076848046969, "delaunay_k": 4, "edge_set": "Delaunay4" }, "geometry": { "type": "LineString", "coordinates": [ [ 16.489105, 65.386291 ], [ 19.158783, 69.620772 ] ] } },
{ "type": "Feature", "properties": { "from_node": 389, "to_node": 433, "length_km": 576.17715758778638, "delaunay_k": 4, "edge_set": "Delaunay4" }, "geometry": { "type": "LineString", "coordinates": [ [ 16.489105, 65.386291 ], [ 23.990021, 69.68142 ] ] } },
{ "type": "Feature", "properties": { "from_node": 390, "to_node": 419, "length_km": 514.48284797000952, "delaunay_k": 4, "edge_set": "Delaunay4" }, "geometry": { "type": "LineString", "coordinates": [ [ 15.812073, 65.485626 ], [ 26.098022, 67.596139 ] ] } },
{ "type": "Feature", "properties": { "from_node": 390, "to_node": 425, "length_km": 624.85461225955964, "delaunay_k": 4, "edge_set": "Delaunay4" }, "geometry": { "type": "LineString", "coordinates": [ [ 15.812073, 65.485626 ], [ 27.674561, 68.645556 ] ] } },
{ "type": "Feature", "properties": { "from_node": 390, "to_node": 429, "length_km": 493.85913697779466, "delaunay_k": 4, "edge_set": "Delaunay4" }, "geometry": { "type": "LineString", "coordinates": [ [ 15.812073, 65.485626 ], [ 21.041565, 69.431516 ] ] } },
{ "type": "Feature", "properties": { "from_node": 390, "to_node": 431, "length_km": 485.59606296646831, "delaunay_k": 4, "edge_set": "Delaunay4" }, "geometry": { "type": "LineString", "coordinates": [ [ 15.812073, 65.485626 ], [ 19.820709, 69.558512 ] ] } },
{ "type": "Feature", "properties": { "from_node": 390, "to_node": 432, "length_km": 482.97080558060594, "delaunay_k": 4, "edge_set": "Delaunay4" }, "geometry": { "type": "LineString", "coordinates": [ [ 15.812073, 65.485626 ], [ 19.158783, 69.620772 ] ] } },
{ "type": "Feature", "properties": { "from_node": 390, "to_node": 433, "length_km": 583.15936539153722, "delaunay_k": 4, "edge_set": "Delaunay4" }, "geometry": { "type": "LineString", "coordinates": [ [ 15.812073, 65.485626 ], [ 23.990021, 69.68142 ] ] } },
{ "type": "Feature", "properties": { "from_node": 391, "to_node": 418, "length_km": 503.81728037044246, "delaunay_k": 4, "edge_set": "Delaunay4" }, "geometry": { "type": "LineString", "coordinates": [ [ 14.765625, 65.62429 ], [ 25.085907, 67.498059 ] ] } },
{ "type": "Feature", "properties": { "from_node": 391, "to_node": 431, "length_km": 488.6883420930676, "delaunay_k": 4, "edge_set": "Delaunay4" }, "geometry": { "type": "LineString", "coordinates": [ [ 14.765625, 65.62429 ], [ 19.820709, 69.558512 ] ] } },
{ "type": "Feature", "properties": { "from_node": 391, "to_node": 435, "length_km": 552.7898570123939, "delaunay_k": 4, "edge_set": "Delaunay4" }, "geometry": { "type": "LineString", "coordinates": [ [ 14.765625, 65.62429 ], [ 22.138824, 69.713346 ] ] } },
{ "type": "Feature", "properties": { "from_node": 391, "to_node": 442, "length_km": 669.42057418548768, "delaunay_k": 4, "edge_set": "Delaunay4" }, "geometry": { "type": "LineString", "coordinates": [ [ 14.765625, 65.62429 ], [ 24.613495, 70.363091 ] ] } },
{ "type": "Feature", "properties": { "from_node": 392, "to_node": 403, "length_km": 479.01588233795582, "delaunay_k": 4, "edge_set": "Delaunay4" }, "geometry": { "type": "LineString", "coordinates": [ [ 14.965643971847902, 65.721629736713297 ], [ 25.415497, 66.285642 ] ] } },
{ "type": "Feature", "properties": { "from_node": 392, "to_node": 406, "length_km": 493.43026218248951, "delaunay_k": 4, "edge_set": "Delaunay4" }, "geometry": { "type": "LineString", "coordinates": [ [ 14.965643971847902, 65.721629736713297 ], [ 25.717621, 66.413451 ] ] } },
{ "type": "Feature", "properties": { "from_node": 392, "to_node": 419, "length_km": 535.1182789372898, "delaunay_k": 4, "edge_set": "Delaunay4" }, "geometry": { "type": "LineString", "coordinates": [ [ 14.965643971847902, 65.721629736713297 ], [ 26.098022, 67.596139 ] ] } },
{ "type": "Feature", "properties": { "from_node": 392, "to_node": 425, "length_km": 639.30089769823599, "delaunay_k": 4, "edge_set": "Delaunay4" }, "geometry": { "type": "LineString", "coordinates": [ [ 14.965643971847902, 65.721629736713297 ], [ 27.674561, 68.645556 ] ] } },
{ "type": "Feature", "properties": { "from_node": 392, "to_node": 429, "length_km": 487.97418673586566, "delaunay_k": 4, "edge_set": "Delaunay4" }, "geometry": { "type": "LineString", "coordinates": [ [ 14.965643971847902, 65.721629736713297 ], [ 21.041565, 69.431516 ] ] } },
{ "type": "Feature", "properties": { "from_node": 392, "to_node": 431, "length_km": 475.05692123845148, "delaunay_k": 4, "edge_set": "Delaunay4" }, "geometry": { "type": "LineString", "coordinates": [ [ 14.965643971847902, 65.721629736713297 ], [ 19.820709, 69.558512 ] ] } },
{ "type": "Feature", "properties": { "from_node": 392, "to_node": 433, "length_km": 583.77629951431288, "delaunay_k": 4, "edge_set": "Delaunay4" }, "geometry": { "type": "LineString", "coordinates": [ [ 14.965643971847902, 65.721629736713297 ], [ 23.990021, 69.68142 ] ] } },
{ "type": "Feature", "properties": { "from_node": 392, "to_node": 435, "length_km": 538.74612737127347, "delaunay_k": 4, "edge_set": "Delaunay4" }, "geometry": { "type": "LineString", "coordinates": [ [ 14.965643971847902, 65.721629736713297 ], [ 22.138824, 69.713346 ] ] } },
{ "type": "Feature", "properties": { "from_node": 392, "to_node": 442, "length_km": 655.29299738103737, "delaunay_k": 4, "edge_set": "Delaunay4" }, "geometry": { "type": "LineString", "coordinates": [ [ 14.965643971847902, 65.721629736713297 ], [ 24.613495, 70.363091 ] ] } },
{ "type": "Feature", "properties": { "from_node": 394, "to_node": 430, "length_km": 525.7566104078461, "delaunay_k": 4, "edge_set": "Delaunay4" }, "geometry": { "type": "LineString", "coordinates": [ [ 21.656799, 65.826407 ], [ 29.549103, 69.440681 ] ] } },
{ "type": "Feature", "properties": { "from_node": 394, "to_node": 436, "length_km": 504.85953785637656, "delaunay_k": 4, "edge_set": "Delaunay4" }, "geometry": { "type": "LineString", "coordinates": [ [ 21.656799, 65.826407 ], [ 27.239227, 69.817839 ] ] } },
{ "type": "Feature", "properties": { "from_node": 394, "to_node": 439, "length_km": 485.15781714355592, "delaunay_k": 4, "edge_set": "Delaunay4" }, "geometry": { "type": "LineString", "coordinates": [ [ 21.656799, 65.826407 ], [ 25.157318, 69.959498 ] ] } },
{ "type": "Feature", "properties": { "from_node": 395, "to_node": 430, "length_km": 488.13618480679816, "delaunay_k": 4, "edge_set": "Delaunay4" }, "geometry": { "type": "LineString", "coordinates": [ [ 23.100128, 65.837089 ], [ 29.549103, 69.440681 ] ] } },
{ "type": "Feature", "properties": { "from_node": 395, "to_node": 436, "length_km": 478.66529074697337, "delaunay_k": 4, "edge_set": "Delaunay4" }, "geometry": { "type": "LineString", "coordinates": [ [ 23.100128, 65.837089 ], [ 27.239227, 69.817839 ] ] } },
{ "type": "Feature", "properties": { "from_node": 396, "to_node": 428, "length_km": 484.90073344928538, "delaunay_k": 4, "edge_set": "Delaunay4" }, "geometry": { "type": "LineString", "coordinates": [ [ 13.289337, 65.841024 ], [ 20.376892, 69.243986 ] ] } },
{ "type": "Feature", "properties": { "from_node": 396, "to_node": 429, "length_km": 518.07376636549589, "delaunay_k": 4, "edge_set": "Delaunay4" }, "geometry": { "type": "LineString", "coordinates": [ [ 13.289337, 65.841024 ], [ 21.041565, 69.431516 ] ] } },
{ "type": "Feature", "properties": { "from_node": 396, "to_node": 433, "length_km": 621.97071218768235, "delaunay_k": 4, "edge_set": "Delaunay4" }, "geometry": { "type": "LineString", "coordinates": [ [ 13.289337, 65.841024 ], [ 23.990021, 69.68142 ] ] } },
{ "type": "Feature", "properties": { "from_node": 396, "to_node": 438, "length_km": 623.18503953990182, "delaunay_k": 4, "edge_set": "Delaunay4" }, "geometry": { "type": "LineString", "coordinates": [ [ 13.289337, 65.841024 ], [ 23.410492, 69.935012 ] ] } },
{ "type": "Feature", "properties": { "from_node": 396, "to_node": 439, "length_km": 676.68970514524301, "delaunay_k": 4, "edge_set": "Delaunay4" }, "geometry": { "type": "LineString", "coordinates": [ [ 13.289337, 65.841024 ], [ 25.157318, 69.959498 ] ] } },
{ "type": "Feature", "properties": { "from_node": 396, "to_node": 441, "length_km": 741.02050916899952, "delaunay_k": 4, "edge_set": "Delaunay4" }, "geometry": { "type": "LineString", "coordinates": [ [ 13.289337, 65.841024 ], [ 26.545715, 70.286801 ] ] } },
{ "type": "Feature", "properties": { "from_node": 398, "to_node": 434, "length_km": 514.3478972609222, "delaunay_k": 4, "edge_set": "Delaunay4" }, "geometry": { "type": "LineString", "coordinates": [ [ 23.072662, 65.938074 ], [ 30.120392, 69.682374 ] ] } },
{ "type": "Feature", "properties": { "from_node": 398, "to_node": 440, "length_km": 525.93841688159398, "delaunay_k": 4, "edge_set": "Delaunay4" }, "geometry": { "type": "LineString", "coordinates": [ [ 23.072662, 65.938074 ], [ 28.572693, 70.163212 ] ] } },
{ "type": "Feature", "properties": { "from_node": 398, "to_node": 441, "length_km": 507.80597269441478, "delaunay_k": 4, "edge_set": "Delaunay4" }, "geometry": { "type": "LineString", "coordinates": [ [ 23.072662, 65.938074 ], [ 26.545715, 70.286801 ] ] } },
{ "type": "Feature", "properties": { "from_node": 398, "to_node": 442, "length_km": 499.26516700581698, "delaunay_k": 4, "edge_set": "Delaunay4" }, "geometry": { "type": "LineString", "coordinates": [ [ 23.072662, 65.938074 ], [ 24.613495, 70.363091 ] ] } },
{ "type": "Feature", "properties": { "from_node": 400, "to_node": 440, "length_km": 473.82020563364193, "delaunay_k": 4, "edge_set": "Delaunay4" }, "geometry": { "type": "LineString", "coordinates": [ [ 25.069427, 66.140521 ], [ 28.572693, 70.163212 ] ] } },
{ "type": "Feature", "properties": { "from_node": 401, "to_node": 418, "length_km": 520.03281601887761, "delaunay_k": 4, "edge_set": "Delaunay4" }, "geometry": { "type": "LineString", "coordinates": [ [ 13.763123, 66.142743 ], [ 25.085907, 67.498059 ] ] } },
{ "type": "Feature", "properties": { "from_node": 401, "to_node": 429, "length_km": 478.21005735082537, "delaunay_k": 4, "edge_set": "Delaunay4" }, "geometry": { "type": "LineString", "coordinates": [ [ 13.763123, 66.142743 ], [ 21.041565, 69.431516 ] ] } },
{ "type": "Feature", "properties": { "from_node": 401, "to_node": 433, "length_km": 582.57977167263039, "delaunay_k": 4, "edge_set": "Delaunay4" }, "geometry": { "type": "LineString", "coordinates": [ [ 13.763123, 66.142743 ], [ 23.990021, 69.68142 ] ] } },
{ "type": "Feature", "properties": { "from_node": 401, "to_node": 438, "length_km": 583.46856909829751, "delaunay_k": 4, "edge_set": "Delaunay4" }, "geometry": { "type": "LineString", "coordinates": [ [ 13.763123, 66.142743 ], [ 23.410492, 69.935012 ] ] } },
{ "type": "Feature", "properties": { "from_node": 401, "to_node": 439, "length_km": 637.32609327418402, "delaunay_k": 4, "edge_set": "Delaunay4" }, "geometry": { "type": "LineString", "coordinates": [ [ 13.763123, 66.142743 ], [ 25.157318, 69.959498 ] ] } },
{ "type": "Feature", "properties": { "from_node": 401, "to_node": 441, "length_km": 701.66995134845331, "delaunay_k": 4, "edge_set": "Delaunay4" }, "geometry": { "type": "LineString", "coordinates": [ [ 13.763123, 66.142743 ], [ 26.545715, 70.286801 ] ] } },
{ "type": "Feature", "properties": { "from_node": 402, "to_node": 418, "length_km": 496.37622716252986, "delaunay_k": 4, "edge_set": "Delaunay4" }, "geometry": { "type": "LineString", "coordinates": [ [ 14.191589, 66.282328 ], [ 25.085907, 67.498059 ] ] } },
{ "type": "Feature", "properties": { "from_node": 402, "to_node": 433, "length_km": 558.05369925085415, "delaunay_k": 4, "edge_set": "Delaunay4" }, "geometry": { "type": "LineString", "coordinates": [ [ 14.191589, 66.282328 ], [ 23.990021, 69.68142 ] ] } },
{ "type": "Feature", "properties": { "from_node": 402, "to_node": 438, "length_km": 559.22119711463108, "delaunay_k": 4, "edge_set": "Delaunay4" }, "geometry": { "type": "LineString", "coordinates": [ [ 14.191589, 66.282328 ], [ 23.410492, 69.935012 ] ] } },
{ "type": "Feature", "properties": { "from_node": 402, "to_node": 439, "length_km": 612.78539666410165, "delaunay_k": 4, "edge_set": "Delaunay4" }, "geometry": { "type": "LineString", "coordinates": [ [ 14.191589, 66.282328 ], [ 25.157318, 69.959498 ] ] } },
{ "type": "Feature", "properties": { "from_node": 402, "to_node": 441, "length_km": 677.12299284070548, "delaunay_k": 4, "edge_set": "Delaunay4" }, "geometry": { "type": "LineString", "coordinates": [ [ 14.191589, 66.282328 ], [ 26.545715, 70.286801 ] ] } },
{ "type": "Feature", "properties": { "from_node": 408, "to_node": 430, "length_km": 504.08530043231747, "delaunay_k": 4, "edge_set": "Delaunay4" }, "geometry": { "type": "LineString", "coordinates": [ [ 20.429077, 66.505049 ], [ 29.549103, 69.440681 ] ] } },
{ "type": "Feature", "properties": { "from_node": 409, "to_node": 434, "length_km": 524.46232581745028, "delaunay_k": 4, "edge_set": "Delaunay4" }, "geometry": { "type": "LineString", "coordinates": [ [ 20.452423, 66.669299 ], [ 30.120392, 69.682374 ] ] } },
{ "type": "Feature", "properties": { "from_node": 409, "to_node": 440, "length_km": 513.85311124766008, "delaunay_k": 4, "edge_set": "Delaunay4" }, "geometry": { "type": "LineString", "coordinates": [ [ 20.452423, 66.669299 ], [ 28.572693, 70.163212 ] ] } },
{ "type": "Feature", "properties": { "from_node": 409, "to_node": 441, "length_km": 475.33342662163079, "delaunay_k": 4, "edge_set": "Delaunay4" }, "geometry": { "type": "LineString", "coordinates": [ [ 20.452423, 66.669299 ], [ 26.545715, 70.286801 ] ] } },
{ "type": "Feature", "properties": { "from_node": 410, "to_node": 418, "length_km": 497.88476944578673, "delaunay_k": 4, "edge_set": "Delaunay4" }, "geometry": { "type": "LineString", "coordinates": [ [ 13.807068, 66.707884 ], [ 25.085907, 67.498059 ] ] } },
{ "type": "Feature", "properties": { "from_node": 410, "to_node": 425, "length_km": 626.17374444884604, "delaunay_k": 4, "edge_set": "Delaunay4" }, "geometry": { "type": "LineString", "coordinates": [ [ 13.807068, 66.707884 ], [ 27.674561, 68.645556 ] ] } },
{ "type": "Feature", "properties": { "from_node": 410, "to_node": 436, "length_km": 653.92105906166512, "delaunay_k": 4, "edge_set": "Delaunay4" }, "geometry": { "type": "LineString", "coordinates": [ [ 13.807068, 66.707884 ], [ 27.239227, 69.817839 ] ] } },
{ "type": "Feature", "properties": { "from_node": 410, "to_node": 437, "length_km": 650.29559349942053, "delaunay_k": 4, "edge_set": "Delaunay4" }, "geometry": { "type": "LineString", "coordinates": [ [ 13.807068, 66.707884 ], [ 27.071686, 69.862801 ] ] } },
{ "type": "Feature", "properties": { "from_node": 410, "to_node": 440, "length_km": 716.76668376380951, "delaunay_k": 4, "edge_set": "Delaunay4" }, "geometry": { "type": "LineString", "coordinates": [ [ 13.807068, 66.707884 ], [ 28.572693, 70.163212 ] ] } },
{ "type": "Feature", "properties": { "from_node": 411, "to_node": 430, "length_km": 499.48314882972494, "delaunay_k": 4, "edge_set": "Delaunay4" }, "geometry": { "type": "LineString", "coordinates": [ [ 20.037689, 66.729595 ], [ 29.549103, 69.440681 ] ] } },
{ "type": "Feature", "properties": { "from_node": 412, "to_node": 430, "length_km": 496.89258342790214, "delaunay_k": 4, "edge_set": "Delaunay4" }, "geometry": { "type": "LineString", "coordinates": [ [ 19.864655, 66.843267 ], [ 29.549103, 69.440681 ] ] } },
{ "type": "Feature", "properties": { "from_node": 413, "to_node": 430, "length_km": 530.21987048871881, "delaunay_k": 4, "edge_set": "Delaunay4" }, "geometry": { "type": "LineString", "coordinates": [ [ 18.639679, 66.970387 ], [ 29.549103, 69.440681 ] ] } },
{ "type": "Feature", "properties": { "from_node": 413, "to_node": 436, "length_km": 475.77064726129441, "delaunay_k": 4, "edge_set": "Delaunay4" }, "geometry": { "type": "LineString", "coordinates": [ [ 18.639679, 66.970387 ], [ 27.239227, 69.817839 ] ] } },
{ "type": "Feature", "properties": { "from_node": 414, "to_node": 434, "length_km": 520.44435812824315, "delaunay_k": 4, "edge_set": "Delaunay4" }, "geometry": { "type": "LineString", "coordinates": [ [ 19.866028, 66.975221 ], [ 30.120392, 69.682374 ] ] } },
{ "type": "Feature", "properties": { "from_node": 414, "to_node": 440, "length_km": 503.34795797984833, "delaunay_k": 4, "edge_set": "Delaunay4" }, "geometry": { "type": "LineString", "coordinates": [ [ 19.866028, 66.975221 ], [ 28.572693, 70.163212 ] ] } },
{ "type": "Feature", "properties": { "from_node": 416, "to_node": 425, "length_km": 521.87456418743375, "delaunay_k": 4, "edge_set": "Delaunay4" }, "geometry": { "type": "LineString", "coordinates": [ [ 15.757141, 67.288485 ], [ 27.674561, 68.645556 ] ] } },
{ "type": "Feature", "properties": { "from_node": 416, "to_node": 439, "length_km": 484.8214204259848, "delaunay_k": 4, "edge_set": "Delaunay4" }, "geometry": { "type": "LineString", "coordinates": [ [ 15.757141, 67.288485 ], [ 25.157318, 69.959498 ] ] } },
{ "type": "Feature", "properties": { "from_node": 416, "to_node": 441, "length_km": 549.13787698274632, "delaunay_k": 4, "edge_set": "Delaunay4" }, "geometry": { "type": "LineString", "coordinates": [ [ 15.757141, 67.288485 ], [ 26.545715, 70.286801 ] ] } },
{ "type": "Feature", "properties": { "from_node": 417, "to_node": 430, "length_km": 507.82593593066207, "delaunay_k": 4, "edge_set": "Delaunay4" }, "geometry": { "type": "LineString", "coordinates": [ [ 18.366394, 67.492803 ], [ 29.549103, 69.440681 ] ] } },
{ "type": "Feature", "properties": { "from_node": 420, "to_node": 425, "length_km": 505.9494726197355, "delaunay_k": 4, "edge_set": "Delaunay4" }, "geometry": { "type": "LineString", "coordinates": [ [ 15.850525, 67.598233 ], [ 27.674561, 68.645556 ] ] } },
{ "type": "Feature", "properties": { "from_node": 420, "to_node": 436, "length_km": 523.90709878947757, "delaunay_k": 4, "edge_set": "Delaunay4" }, "geometry": { "type": "LineString", "coordinates": [ [ 15.850525, 67.598233 ], [ 27.239227, 69.817839 ] ] } },
{ "type": "Feature", "properties": { "from_node": 420, "to_node": 437, "length_km": 519.93733628656344, "delaunay_k": 4, "edge_set": "Delaunay4" }, "geometry": { "type": "LineString", "coordinates": [ [ 15.850525, 67.598233 ], [ 27.071686, 69.862801 ] ] } },
{ "type": "Feature", "properties": { "from_node": 420, "to_node": 440, "length_km": 586.1242452768912, "delaunay_k": 4, "edge_set": "Delaunay4" }, "geometry": { "type": "LineString", "coordinates": [ [ 15.850525, 67.598233 ], [ 28.572693, 70.163212 ] ] } }
]
}
