{
"type": "FeatureCollection",
"name": "n490_300kv_nodes",
"crs": { "type": "name", "properties": { "name": "urn:ogc:def:crs:OGC:1.3:CRS84" } },
"features": [
{ "type": "Feature", "properties": { "voltage_kv": 300.0, "lon": 4.998779, "lat": 60.703432, "n_buses_at_location": 1, "bus_ids": "6493", "bus_names": "unknown", "node_id": 0 }, "geometry": { "type": "Point", "coordinates": [ 4.998779, 60.703432 ] } },
{ "type": "Feature", "properties": { "voltage_kv": 300.0, "lon": 5.259705, "lat": 60.456541, "n_buses_at_location": 1, "bus_ids": "6489", "bus_names": "unknown", "node_id": 1 }, "geometry": { "type": "Point", "coordinates": [ 5.259705, 60.456541 ] } },
{ "type": "Feature", "properties": { "voltage_kv": 300.0, "lon": 5.262451, "lat": 59.225853, "n_buses_at_location": 1, "bus_ids": "6492", "bus_names": "unknown", "node_id": 2 }, "geometry": { "type": "Point", "coordinates": [ 5.262451, 59.225853 ] } },
{ "type": "Feature", "properties": { "voltage_kv": 300.0, "lon": 5.39978, "lat": 59.495303, "n_buses_at_location": 1, "bus_ids": "6491", "bus_names": "unknown", "node_id": 3 }, "geometry": { "type": "Point", "coordinates": [ 5.39978, 59.495303 ] } },
{ "type": "Feature", "properties": { "voltage_kv": 300.0, "lon": 5.449219, "lat": 60.347337, "n_buses_at_location": 1, "bus_ids": "6490", "bus_names": "Bergen", "node_id": 4 }, "geometry": { "type": "Point", "coordinates": [ 5.449219, 60.347337 ] } },
{ "type": "Feature", "properties": { "voltage_kv": 300.0, "lon": 5.461578, "lat": 59.768152, "n_buses_at_location": 1, "bus_ids": "6437", "bus_names": "unknown", "node_id": 5 }, "geometry": { "type": "Point", "coordinates": [ 5.461578, 59.768152 ] } },
{ "type": "Feature", "properties": { "voltage_kv": 300.0, "lon": 5.494537, "lat": 60.42131, "n_buses_at_location": 1, "bus_ids": "6414", "bus_names": "unknown", "node_id": 6 }, "geometry": { "type": "Point", "coordinates": [ 5.494537, 60.42131 ] } },
{ "type": "Feature", "properties": { "voltage_kv": 300.0, "lon": 5.568695, "lat": 59.317075, "n_buses_at_location": 1, "bus_ids": "6486", "bus_names": "Karstø", "node_id": 7 }, "geometry": { "type": "Point", "coordinates": [ 5.568695, 59.317075 ] } },
{ "type": "Feature", "properties": { "voltage_kv": 300.0, "lon": 5.623627, "lat": 59.00592, "n_buses_at_location": 1, "bus_ids": "6444", "bus_names": "Stavanger", "node_id": 8 }, "geometry": { "type": "Point", "coordinates": [ 5.623627, 59.00592 ] } },
{ "type": "Feature", "properties": { "voltage_kv": 300.0, "lon": 5.715637, "lat": 58.926626, "n_buses_at_location": 1, "bus_ids": "6445", "bus_names": "unknown", "node_id": 9 }, "geometry": { "type": "Point", "coordinates": [ 5.715637, 58.926626 ] } },
{ "type": "Feature", "properties": { "voltage_kv": 300.0, "lon": 5.756836, "lat": 58.82654, "n_buses_at_location": 1, "bus_ids": "6200", "bus_names": "unknown", "node_id": 10 }, "geometry": { "type": "Point", "coordinates": [ 5.756836, 58.82654 ] } },
{ "type": "Feature", "properties": { "voltage_kv": 300.0, "lon": 5.847473, "lat": 60.661069, "n_buses_at_location": 1, "bus_ids": "6416", "bus_names": "Dale", "node_id": 11 }, "geometry": { "type": "Point", "coordinates": [ 5.847473, 60.661069 ] } },
{ "type": "Feature", "properties": { "voltage_kv": 300.0, "lon": 5.868073, "lat": 59.923367, "n_buses_at_location": 1, "bus_ids": "6438", "bus_names": "unknown", "node_id": 12 }, "geometry": { "type": "Point", "coordinates": [ 5.868073, 59.923367 ] } },
{ "type": "Feature", "properties": { "voltage_kv": 300.0, "lon": 5.968323, "lat": 60.836881, "n_buses_at_location": 1, "bus_ids": "6413", "bus_names": "Steinsland", "node_id": 13 }, "geometry": { "type": "Point", "coordinates": [ 5.968323, 60.836881 ] } },
{ "type": "Feature", "properties": { "voltage_kv": 300.0, "lon": 6.008148, "lat": 58.513066, "n_buses_at_location": 1, "bus_ids": "6204", "bus_names": "unknown", "node_id": 14 }, "geometry": { "type": "Point", "coordinates": [ 6.008148, 58.513066 ] } },
{ "type": "Feature", "properties": { "voltage_kv": 300.0, "lon": 6.093292, "lat": 61.233245, "n_buses_at_location": 1, "bus_ids": "6399", "bus_names": "Høyanger", "node_id": 15 }, "geometry": { "type": "Point", "coordinates": [ 6.093292, 61.233245 ] } },
{ "type": "Feature", "properties": { "voltage_kv": 300.0, "lon": 6.100159, "lat": 60.664433, "n_buses_at_location": 1, "bus_ids": "6417", "bus_names": "Evanger", "node_id": 16 }, "geometry": { "type": "Point", "coordinates": [ 6.100159, 60.664433 ] } },
{ "type": "Feature", "properties": { "voltage_kv": 300.0, "lon": 6.113892, "lat": 59.869641, "n_buses_at_location": 1, "bus_ids": "6433", "bus_names": "Blåfalli", "node_id": 17 }, "geometry": { "type": "Point", "coordinates": [ 6.113892, 59.869641 ] } },
{ "type": "Feature", "properties": { "voltage_kv": 300.0, "lon": 6.156464, "lat": 60.504583, "n_buses_at_location": 1, "bus_ids": "6484", "bus_names": "Samnanger", "node_id": 18 }, "geometry": { "type": "Point", "coordinates": [ 6.156464, 60.504583 ] } },
{ "type": "Feature", "properties": { "voltage_kv": 300.0, "lon": 6.297913, "lat": 60.117566, "n_buses_at_location": 1, "bus_ids": "6418", "bus_names": "Mauranger", "node_id": 19 }, "geometry": { "type": "Point", "coordinates": [ 6.297913, 60.117566 ] } },
{ "type": "Feature", "properties": { "voltage_kv": 300.0, "lon": 6.432495, "lat": 59.667741, "n_buses_at_location": 1, "bus_ids": "6439", "bus_names": "Sauda", "node_id": 20 }, "geometry": { "type": "Point", "coordinates": [ 6.432495, 59.667741 ] } },
{ "type": "Feature", "properties": { "voltage_kv": 300.0, "lon": 6.481934, "lat": 59.569114, "n_buses_at_location": 1, "bus_ids": "6483", "bus_names": "unknown", "node_id": 21 }, "geometry": { "type": "Point", "coordinates": [ 6.481934, 59.569114 ] } },
{ "type": "Feature", "properties": { "voltage_kv": 300.0, "lon": 6.491547, "lat": 59.460431, "n_buses_at_location": 1, "bus_ids": "6441", "bus_names": "Liastølen", "node_id": 22 }, "geometry": { "type": "Point", "coordinates": [ 6.491547, 59.460431 ] } },
{ "type": "Feature", "properties": { "voltage_kv": 300.0, "lon": 6.554718, "lat": 58.373638, "n_buses_at_location": 1, "bus_ids": "6205", "bus_names": "Ana-Sira", "node_id": 23 }, "geometry": { "type": "Point", "coordinates": [ 6.554718, 58.373638 ] } },
{ "type": "Feature", "properties": { "voltage_kv": 300.0, "lon": 6.60965, "lat": 61.043662, "n_buses_at_location": 1, "bus_ids": "6400", "bus_names": "Refsdal", "node_id": 24 }, "geometry": { "type": "Point", "coordinates": [ 6.60965, 61.043662 ] } },
{ "type": "Feature", "properties": { "voltage_kv": 300.0, "lon": 6.650848, "lat": 59.461826, "n_buses_at_location": 1, "bus_ids": "6434", "bus_names": "Saurdal", "node_id": 25 }, "geometry": { "type": "Point", "coordinates": [ 6.650848, 59.461826 ] } },
{ "type": "Feature", "properties": { "voltage_kv": 300.0, "lon": 6.663208, "lat": 59.314272, "n_buses_at_location": 1, "bus_ids": "6443", "bus_names": "unknown", "node_id": 26 }, "geometry": { "type": "Point", "coordinates": [ 6.663208, 59.314272 ] } },
{ "type": "Feature", "properties": { "voltage_kv": 300.0, "lon": 6.696167, "lat": 59.068096, "n_buses_at_location": 1, "bus_ids": "6448", "bus_names": "Tjodan", "node_id": 27 }, "geometry": { "type": "Point", "coordinates": [ 6.696167, 59.068096 ] } },
{ "type": "Feature", "properties": { "voltage_kv": 300.0, "lon": 6.70166, "lat": 60.066211, "n_buses_at_location": 1, "bus_ids": "6420", "bus_names": "Tysso", "node_id": 28 }, "geometry": { "type": "Point", "coordinates": [ 6.70166, 60.066211 ] } },
{ "type": "Feature", "properties": { "voltage_kv": 300.0, "lon": 6.745605, "lat": 59.871019, "n_buses_at_location": 1, "bus_ids": "6450", "bus_names": "Røldal", "node_id": 29 }, "geometry": { "type": "Point", "coordinates": [ 6.745605, 59.871019 ] } },
{ "type": "Feature", "properties": { "voltage_kv": 300.0, "lon": 6.756592, "lat": 58.878393, "n_buses_at_location": 1, "bus_ids": "7899", "bus_names": "nan", "node_id": 30 }, "geometry": { "type": "Point", "coordinates": [ 6.756592, 58.878393 ] } },
{ "type": "Feature", "properties": { "voltage_kv": 300.0, "lon": 6.764832, "lat": 58.11344, "n_buses_at_location": 1, "bus_ids": "6206", "bus_names": "unknown", "node_id": 31 }, "geometry": { "type": "Point", "coordinates": [ 6.764832, 58.11344 ] } },
{ "type": "Feature", "properties": { "voltage_kv": 300.0, "lon": 6.797791, "lat": 60.156543, "n_buses_at_location": 1, "bus_ids": "6419", "bus_names": "Oksla", "node_id": 32 }, "geometry": { "type": "Point", "coordinates": [ 6.797791, 60.156543 ] } },
{ "type": "Feature", "properties": { "voltage_kv": 300.0, "lon": 6.82251, "lat": 58.659799, "n_buses_at_location": 1, "bus_ids": "6203", "bus_names": "Tonstad", "node_id": 33 }, "geometry": { "type": "Point", "coordinates": [ 6.82251, 58.659799 ] } },
{ "type": "Feature", "properties": { "voltage_kv": 300.0, "lon": 6.871948, "lat": 61.10278, "n_buses_at_location": 1, "bus_ids": "6487", "bus_names": "Hove", "node_id": 34 }, "geometry": { "type": "Point", "coordinates": [ 6.871948, 61.10278 ] } },
{ "type": "Feature", "properties": { "voltage_kv": 300.0, "lon": 6.889801, "lat": 59.110423, "n_buses_at_location": 1, "bus_ids": "6447", "bus_names": "Duge", "node_id": 35 }, "geometry": { "type": "Point", "coordinates": [ 6.889801, 59.110423 ] } },
{ "type": "Feature", "properties": { "voltage_kv": 300.0, "lon": 6.892548, "lat": 58.897552, "n_buses_at_location": 1, "bus_ids": "6201", "bus_names": "Tjørhom", "node_id": 36 }, "geometry": { "type": "Point", "coordinates": [ 6.892548, 58.897552 ] } },
{ "type": "Feature", "properties": { "voltage_kv": 300.0, "lon": 6.904907, "lat": 59.710712, "n_buses_at_location": 1, "bus_ids": "6454", "bus_names": "Ulla-Førre", "node_id": 37 }, "geometry": { "type": "Point", "coordinates": [ 6.904907, 59.710712 ] } },
{ "type": "Feature", "properties": { "voltage_kv": 300.0, "lon": 6.968079, "lat": 59.837916, "n_buses_at_location": 1, "bus_ids": "6451", "bus_names": "Novle", "node_id": 38 }, "geometry": { "type": "Point", "coordinates": [ 6.968079, 59.837916 ] } },
{ "type": "Feature", "properties": { "voltage_kv": 300.0, "lon": 7.001038, "lat": 58.28062, "n_buses_at_location": 1, "bus_ids": "6207", "bus_names": "Feda", "node_id": 39 }, "geometry": { "type": "Point", "coordinates": [ 7.001038, 58.28062 ] } },
{ "type": "Feature", "properties": { "voltage_kv": 300.0, "lon": 7.080688, "lat": 59.777831, "n_buses_at_location": 1, "bus_ids": "6452", "bus_names": "Kvanndal", "node_id": 40 }, "geometry": { "type": "Point", "coordinates": [ 7.080688, 59.777831 ] } },
{ "type": "Feature", "properties": { "voltage_kv": 300.0, "lon": 7.086182, "lat": 59.725947, "n_buses_at_location": 1, "bus_ids": "7865", "bus_names": "nan", "node_id": 41 }, "geometry": { "type": "Point", "coordinates": [ 7.086182, 59.725947 ] } },
{ "type": "Feature", "properties": { "voltage_kv": 300.0, "lon": 7.115021, "lat": 58.841464, "n_buses_at_location": 1, "bus_ids": "6202", "bus_names": "Solhom", "node_id": 42 }, "geometry": { "type": "Point", "coordinates": [ 7.115021, 58.841464 ] } },
{ "type": "Feature", "properties": { "voltage_kv": 300.0, "lon": 7.119141, "lat": 59.110423, "n_buses_at_location": 1, "bus_ids": "6446", "bus_names": "Roskrepp", "node_id": 43 }, "geometry": { "type": "Point", "coordinates": [ 7.119141, 59.110423 ] } },
{ "type": "Feature", "properties": { "voltage_kv": 300.0, "lon": 7.120514, "lat": 58.994604, "n_buses_at_location": 1, "bus_ids": "6449", "bus_names": "Kvinen", "node_id": 44 }, "geometry": { "type": "Point", "coordinates": [ 7.120514, 58.994604 ] } },
{ "type": "Feature", "properties": { "voltage_kv": 300.0, "lon": 7.216644, "lat": 60.950443, "n_buses_at_location": 1, "bus_ids": "6410", "bus_names": "Aurland 1", "node_id": 45 }, "geometry": { "type": "Point", "coordinates": [ 7.216644, 60.950443 ] } },
{ "type": "Feature", "properties": { "voltage_kv": 300.0, "lon": 7.293549, "lat": 61.259009, "n_buses_at_location": 1, "bus_ids": "7283", "bus_names": "nan", "node_id": 46 }, "geometry": { "type": "Point", "coordinates": [ 7.293549, 61.259009 ] } },
{ "type": "Feature", "properties": { "voltage_kv": 300.0, "lon": 7.338867, "lat": 61.206798, "n_buses_at_location": 1, "bus_ids": "6406", "bus_names": "Fardal in Sogn", "node_id": 47 }, "geometry": { "type": "Point", "coordinates": [ 7.338867, 61.206798 ] } },
{ "type": "Feature", "properties": { "voltage_kv": 300.0, "lon": 7.34024, "lat": 59.805469, "n_buses_at_location": 1, "bus_ids": "6453", "bus_names": "Kjela", "node_id": 48 }, "geometry": { "type": "Point", "coordinates": [ 7.34024, 59.805469 ] } },
{ "type": "Feature", "properties": { "voltage_kv": 300.0, "lon": 7.36908, "lat": 59.747402, "n_buses_at_location": 1, "bus_ids": "8029", "bus_names": "nan", "node_id": 49 }, "geometry": { "type": "Point", "coordinates": [ 7.36908, 59.747402 ] } },
{ "type": "Feature", "properties": { "voltage_kv": 300.0, "lon": 7.410278, "lat": 61.569805, "n_buses_at_location": 1, "bus_ids": "6404", "bus_names": "Jostedal", "node_id": 50 }, "geometry": { "type": "Point", "coordinates": [ 7.410278, 61.569805 ] } },
{ "type": "Feature", "properties": { "voltage_kv": 300.0, "lon": 7.436371, "lat": 61.447302, "n_buses_at_location": 1, "bus_ids": "6403", "bus_names": "Leirdøla", "node_id": 51 }, "geometry": { "type": "Point", "coordinates": [ 7.436371, 61.447302 ] } },
{ "type": "Feature", "properties": { "voltage_kv": 300.0, "lon": 7.439117, "lat": 61.292669, "n_buses_at_location": 1, "bus_ids": "6401", "bus_names": "Årøy", "node_id": 52 }, "geometry": { "type": "Point", "coordinates": [ 7.439117, 61.292669 ] } },
{ "type": "Feature", "properties": { "voltage_kv": 300.0, "lon": 7.738495, "lat": 61.517456, "n_buses_at_location": 1, "bus_ids": "6402", "bus_names": "Skagen-Fortun", "node_id": 53 }, "geometry": { "type": "Point", "coordinates": [ 7.738495, 61.517456 ] } },
{ "type": "Feature", "properties": { "voltage_kv": 300.0, "lon": 7.772827, "lat": 59.780596, "n_buses_at_location": 1, "bus_ids": "6457", "bus_names": "Songa", "node_id": 54 }, "geometry": { "type": "Point", "coordinates": [ 7.772827, 59.780596 ] } },
{ "type": "Feature", "properties": { "voltage_kv": 300.0, "lon": 7.819519, "lat": 59.632352, "n_buses_at_location": 1, "bus_ids": "6458", "bus_names": "Vinje", "node_id": 55 }, "geometry": { "type": "Point", "coordinates": [ 7.819519, 59.632352 ] } },
{ "type": "Feature", "properties": { "voltage_kv": 300.0, "lon": 7.892303, "lat": 61.044991, "n_buses_at_location": 1, "bus_ids": "6412", "bus_names": "Borgund", "node_id": 56 }, "geometry": { "type": "Point", "coordinates": [ 7.892303, 61.044991 ] } },
{ "type": "Feature", "properties": { "voltage_kv": 300.0, "lon": 7.901917, "lat": 59.457639, "n_buses_at_location": 1, "bus_ids": "6459", "bus_names": "Tokke", "node_id": 57 }, "geometry": { "type": "Point", "coordinates": [ 7.901917, 59.457639 ] } },
{ "type": "Feature", "properties": { "voltage_kv": 300.0, "lon": 8.088684, "lat": 60.511343, "n_buses_at_location": 1, "bus_ids": "6428", "bus_names": "unknown", "node_id": 58 }, "geometry": { "type": "Point", "coordinates": [ 8.088684, 60.511343 ] } },
{ "type": "Feature", "properties": { "voltage_kv": 300.0, "lon": 8.102417, "lat": 58.2445, "n_buses_at_location": 1, "bus_ids": "6208", "bus_names": "Kristiansand", "node_id": 59 }, "geometry": { "type": "Point", "coordinates": [ 8.102417, 58.2445 ] } },
{ "type": "Feature", "properties": { "voltage_kv": 300.0, "lon": 8.311157, "lat": 60.873666, "n_buses_at_location": 1, "bus_ids": "6424", "bus_names": "Heimsil 1", "node_id": 60 }, "geometry": { "type": "Point", "coordinates": [ 8.311157, 60.873666 ] } },
{ "type": "Feature", "properties": { "voltage_kv": 300.0, "lon": 8.480072, "lat": 62.679816, "n_buses_at_location": 1, "bus_ids": "6608", "bus_names": "Aura", "node_id": 61 }, "geometry": { "type": "Point", "coordinates": [ 8.480072, 62.679816 ] } },
{ "type": "Feature", "properties": { "voltage_kv": 300.0, "lon": 8.524017, "lat": 59.912353, "n_buses_at_location": 1, "bus_ids": "6461", "bus_names": "Vemork", "node_id": 62 }, "geometry": { "type": "Point", "coordinates": [ 8.524017, 59.912353 ] } },
{ "type": "Feature", "properties": { "voltage_kv": 300.0, "lon": 8.690186, "lat": 60.798714, "n_buses_at_location": 1, "bus_ids": "6425", "bus_names": "Heimsil 2", "node_id": 63 }, "geometry": { "type": "Point", "coordinates": [ 8.690186, 60.798714 ] } },
{ "type": "Feature", "properties": { "voltage_kv": 300.0, "lon": 8.75885, "lat": 60.591688, "n_buses_at_location": 1, "bus_ids": "6426", "bus_names": "Nes", "node_id": 64 }, "geometry": { "type": "Point", "coordinates": [ 8.75885, 60.591688 ] } },
{ "type": "Feature", "properties": { "voltage_kv": 300.0, "lon": 8.760223, "lat": 59.917172, "n_buses_at_location": 1, "bus_ids": "6462", "bus_names": "Såheim", "node_id": 65 }, "geometry": { "type": "Point", "coordinates": [ 8.760223, 59.917172 ] } },
{ "type": "Feature", "properties": { "voltage_kv": 300.0, "lon": 8.782196, "lat": 58.575413, "n_buses_at_location": 1, "bus_ids": "6210", "bus_names": "unknown", "node_id": 66 }, "geometry": { "type": "Point", "coordinates": [ 8.782196, 58.575413 ] } },
{ "type": "Feature", "properties": { "voltage_kv": 300.0, "lon": 8.87146, "lat": 59.422728, "n_buses_at_location": 1, "bus_ids": "6460", "bus_names": "Sundsbarm", "node_id": 67 }, "geometry": { "type": "Point", "coordinates": [ 8.87146, 59.422728 ] } },
{ "type": "Feature", "properties": { "voltage_kv": 300.0, "lon": 8.87558, "lat": 59.525961, "n_buses_at_location": 1, "bus_ids": "7718", "bus_names": "nan", "node_id": 68 }, "geometry": { "type": "Point", "coordinates": [ 8.87558, 59.525961 ] } },
{ "type": "Feature", "properties": { "voltage_kv": 300.0, "lon": 9.063721, "lat": 61.885931, "n_buses_at_location": 1, "bus_ids": "6610", "bus_names": "unknown", "node_id": 69 }, "geometry": { "type": "Point", "coordinates": [ 9.063721, 61.885931 ] } },
{ "type": "Feature", "properties": { "voltage_kv": 300.0, "lon": 9.341125, "lat": 61.473546, "n_buses_at_location": 1, "bus_ids": "6472", "bus_names": "Øvre Vinstra", "node_id": 70 }, "geometry": { "type": "Point", "coordinates": [ 9.341125, 61.473546 ] } },
{ "type": "Feature", "properties": { "voltage_kv": 300.0, "lon": 9.593811, "lat": 59.282019, "n_buses_at_location": 1, "bus_ids": "6467", "bus_names": "unknown", "node_id": 71 }, "geometry": { "type": "Point", "coordinates": [ 9.593811, 59.282019 ] } },
{ "type": "Feature", "properties": { "voltage_kv": 300.0, "lon": 9.61441, "lat": 59.151995, "n_buses_at_location": 1, "bus_ids": "6455", "bus_names": "Skien", "node_id": 72 }, "geometry": { "type": "Point", "coordinates": [ 9.61441, 59.151995 ] } },
{ "type": "Feature", "properties": { "voltage_kv": 300.0, "lon": 9.821777, "lat": 61.582225, "n_buses_at_location": 1, "bus_ids": "6474", "bus_names": "Nedre Vinstra", "node_id": 73 }, "geometry": { "type": "Point", "coordinates": [ 9.821777, 61.582225 ] } },
{ "type": "Feature", "properties": { "voltage_kv": 300.0, "lon": 9.923401, "lat": 59.721792, "n_buses_at_location": 1, "bus_ids": "6464", "bus_names": "unknown", "node_id": 74 }, "geometry": { "type": "Point", "coordinates": [ 9.923401, 59.721792 ] } },
{ "type": "Feature", "properties": { "voltage_kv": 300.0, "lon": 9.933014, "lat": 63.271947, "n_buses_at_location": 1, "bus_ids": "6604", "bus_names": "Trondheim", "node_id": 75 }, "geometry": { "type": "Point", "coordinates": [ 9.933014, 63.271947 ] } },
{ "type": "Feature", "properties": { "voltage_kv": 300.0, "lon": 10.122528, "lat": 59.553808, "n_buses_at_location": 1, "bus_ids": "6479", "bus_names": "unknown", "node_id": 76 }, "geometry": { "type": "Point", "coordinates": [ 10.122528, 59.553808 ] } },
{ "type": "Feature", "properties": { "voltage_kv": 300.0, "lon": 10.134888, "lat": 61.525314, "n_buses_at_location": 1, "bus_ids": "6473", "bus_names": "Harpefossen", "node_id": 77 }, "geometry": { "type": "Point", "coordinates": [ 10.134888, 61.525314 ] } },
{ "type": "Feature", "properties": { "voltage_kv": 300.0, "lon": 10.288696, "lat": 59.88687, "n_buses_at_location": 1, "bus_ids": "6465", "bus_names": "Sylling", "node_id": 78 }, "geometry": { "type": "Point", "coordinates": [ 10.288696, 59.88687 ] } },
{ "type": "Feature", "properties": { "voltage_kv": 300.0, "lon": 10.37796, "lat": 59.383584, "n_buses_at_location": 1, "bus_ids": "6463", "bus_names": "unknown", "node_id": 79 }, "geometry": { "type": "Point", "coordinates": [ 10.37796, 59.383584 ] } },
{ "type": "Feature", "properties": { "voltage_kv": 300.0, "lon": 10.421906, "lat": 61.177019, "n_buses_at_location": 1, "bus_ids": "6470", "bus_names": "unknown", "node_id": 80 }, "geometry": { "type": "Point", "coordinates": [ 10.421906, 61.177019 ] } },
{ "type": "Feature", "properties": { "voltage_kv": 300.0, "lon": 10.434265, "lat": 59.620547, "n_buses_at_location": 1, "bus_ids": "6480", "bus_names": "unknown", "node_id": 81 }, "geometry": { "type": "Point", "coordinates": [ 10.434265, 59.620547 ] } },
{ "type": "Feature", "properties": { "voltage_kv": 300.0, "lon": 10.439758, "lat": 63.401361, "n_buses_at_location": 1, "bus_ids": "6600", "bus_names": "unknown", "node_id": 82 }, "geometry": { "type": "Point", "coordinates": [ 10.439758, 63.401361 ] } },
{ "type": "Feature", "properties": { "voltage_kv": 300.0, "lon": 10.457611, "lat": 63.276888, "n_buses_at_location": 1, "bus_ids": "6601", "bus_names": "unknown", "node_id": 83 }, "geometry": { "type": "Point", "coordinates": [ 10.457611, 63.276888 ] } },
{ "type": "Feature", "properties": { "voltage_kv": 300.0, "lon": 10.604553, "lat": 60.818808, "n_buses_at_location": 1, "bus_ids": "6471", "bus_names": "unknown", "node_id": 84 }, "geometry": { "type": "Point", "coordinates": [ 10.604553, 60.818808 ] } },
{ "type": "Feature", "properties": { "voltage_kv": 300.0, "lon": 10.770721, "lat": 59.509939, "n_buses_at_location": 1, "bus_ids": "6477", "bus_names": "unknown", "node_id": 85 }, "geometry": { "type": "Point", "coordinates": [ 10.770721, 59.509939 ] } },
{ "type": "Feature", "properties": { "voltage_kv": 300.0, "lon": 10.839386, "lat": 59.958448, "n_buses_at_location": 1, "bus_ids": "6481", "bus_names": "Oslo", "node_id": 86 }, "geometry": { "type": "Point", "coordinates": [ 10.839386, 59.958448 ] } },
{ "type": "Feature", "properties": { "voltage_kv": 300.0, "lon": 11.017914, "lat": 63.45726, "n_buses_at_location": 1, "bus_ids": "6599", "bus_names": "unknown", "node_id": 87 }, "geometry": { "type": "Point", "coordinates": [ 11.017914, 63.45726 ] } },
{ "type": "Feature", "properties": { "voltage_kv": 300.0, "lon": 11.12915, "lat": 61.837358, "n_buses_at_location": 1, "bus_ids": "6562", "bus_names": "Rendalen", "node_id": 88 }, "geometry": { "type": "Point", "coordinates": [ 11.12915, 61.837358 ] } },
{ "type": "Feature", "properties": { "voltage_kv": 300.0, "lon": 11.160736, "lat": 60.816799, "n_buses_at_location": 1, "bus_ids": "6372", "bus_names": "unknown", "node_id": 89 }, "geometry": { "type": "Point", "coordinates": [ 11.160736, 60.816799 ] } },
{ "type": "Feature", "properties": { "voltage_kv": 300.0, "lon": 11.181335, "lat": 59.317776, "n_buses_at_location": 1, "bus_ids": "6374", "bus_names": "Hasle", "node_id": 90 }, "geometry": { "type": "Point", "coordinates": [ 11.181335, 59.317776 ] } },
{ "type": "Feature", "properties": { "voltage_kv": 300.0, "lon": 11.288452, "lat": 60.382648, "n_buses_at_location": 1, "bus_ids": "6373", "bus_names": "unknown", "node_id": 91 }, "geometry": { "type": "Point", "coordinates": [ 11.288452, 60.382648 ] } },
{ "type": "Feature", "properties": { "voltage_kv": 300.0, "lon": 11.472473, "lat": 63.779452, "n_buses_at_location": 1, "bus_ids": "6560", "bus_names": "unknown", "node_id": 92 }, "geometry": { "type": "Point", "coordinates": [ 11.472473, 63.779452 ] } },
{ "type": "Feature", "properties": { "voltage_kv": 300.0, "lon": 11.477966, "lat": 63.979576, "n_buses_at_location": 1, "bus_ids": "6559", "bus_names": "unknown", "node_id": 93 }, "geometry": { "type": "Point", "coordinates": [ 11.477966, 63.979576 ] } },
{ "type": "Feature", "properties": { "voltage_kv": 300.0, "lon": 11.620789, "lat": 64.453849, "n_buses_at_location": 1, "bus_ids": "6682", "bus_names": "unknown", "node_id": 94 }, "geometry": { "type": "Point", "coordinates": [ 11.620789, 64.453849 ] } },
{ "type": "Feature", "properties": { "voltage_kv": 300.0, "lon": 12.7565, "lat": 65.20262, "n_buses_at_location": 1, "bus_ids": "6680", "bus_names": "Kolsvik", "node_id": 95 }, "geometry": { "type": "Point", "coordinates": [ 12.7565, 65.20262 ] } },
{ "type": "Feature", "properties": { "voltage_kv": 300.0, "lon": 12.800446, "lat": 64.712014, "n_buses_at_location": 1, "bus_ids": "6681", "bus_names": "Tunnsjødal", "node_id": 96 }, "geometry": { "type": "Point", "coordinates": [ 12.800446, 64.712014 ] } },
{ "type": "Feature", "properties": { "voltage_kv": 300.0, "lon": 13.099823, "lat": 64.914228, "n_buses_at_location": 1, "bus_ids": "8059", "bus_names": "nan", "node_id": 97 }, "geometry": { "type": "Point", "coordinates": [ 13.099823, 64.914228 ] } },
{ "type": "Feature", "properties": { "voltage_kv": 300.0, "lon": 13.289337, "lat": 65.841024, "n_buses_at_location": 1, "bus_ids": "6679", "bus_names": "unknown", "node_id": 98 }, "geometry": { "type": "Point", "coordinates": [ 13.289337, 65.841024 ] } },
{ "type": "Feature", "properties": { "voltage_kv": 300.0, "lon": 13.763123, "lat": 66.142743, "n_buses_at_location": 1, "bus_ids": "6788", "bus_names": "Røssåga", "node_id": 99 }, "geometry": { "type": "Point", "coordinates": [ 13.763123, 66.142743 ] } }
]
}
