{
"type": "FeatureCollection",
"name": "n490_220kv_delaunay4_removed_length",
"crs": { "type": "name", "properties": { "name": "urn:ogc:def:crs:OGC:1.3:CRS84" } },
"features": [
{ "type": "Feature", "properties": { "voltage_kv": 220.0, "from_node": 0, "to_node": 30, "length_km": 374.41680905994957, "delaunay_k": 4, "edge_set": "Delaunay4" }, "geometry": { "type": "LineString", "coordinates": [ [ 12.590332, 62.571841 ], [ 15.231171, 59.466013 ] ] } },
{ "type": "Feature", "properties": { "voltage_kv": 220.0, "from_node": 0, "to_node": 40, "length_km": 310.01051214306153, "delaunay_k": 4, "edge_set": "Delaunay4" }, "geometry": { "type": "LineString", "coordinates": [ [ 12.590332, 62.571841 ], [ 15.783234, 64.967159 ] ] } },
{ "type": "Feature", "properties": { "voltage_kv": 220.0, "from_node": 0, "to_node": 42, "length_km": 360.96963446970341, "delaunay_k": 4, "edge_set": "Delaunay4" }, "geometry": { "type": "LineString", "coordinates": [ [ 12.590332, 62.571841 ], [ 15.812073, 65.485626 ] ] } },
{ "type": "Feature", "properties": { "voltage_kv": 220.0, "from_node": 0, "to_node": 45, "length_km": 388.37159551163001, "delaunay_k": 4, "edge_set": "Delaunay4" }, "geometry": { "type": "LineString", "coordinates": [ [ 12.590332, 62.571841 ], [ 15.971375, 59.496697 ] ] } },
{ "type": "Feature", "properties": { "voltage_kv": 220.0, "from_node": 0, "to_node": 52, "length_km": 314.59824304435051, "delaunay_k": 4, "edge_set": "Delaunay4" }, "geometry": { "type": "LineString", "coordinates": [ [ 12.590332, 62.571841 ], [ 16.284446847098103, 60.370428457277711 ] ] } },
{ "type": "Feature", "properties": { "voltage_kv": 220.0, "from_node": 0, "to_node": 62, "length_km": 367.23606389485127, "delaunay_k": 4, "edge_set": "Delaunay4" }, "geometry": { "type": "LineString", "coordinates": [ [ 12.590332, 62.571841 ], [ 16.489105, 65.386291 ] ] } },
{ "type": "Feature", "properties": { "voltage_kv": 220.0, "from_node": 0, "to_node": 63, "length_km": 320.93163974266838, "delaunay_k": 4, "edge_set": "Delaunay4" }, "geometry": { "type": "LineString", "coordinates": [ [ 12.590332, 62.571841 ], [ 16.512451, 60.38672 ] ] } },
{ "type": "Feature", "properties": { "voltage_kv": 220.0, "from_node": 1, "to_node": 50, "length_km": 407.89653066798394, "delaunay_k": 4, "edge_set": "Delaunay4" }, "geometry": { "type": "LineString", "coordinates": [ [ 13.065491, 63.752742 ], [ 16.177368, 60.396897 ] ] } },
{ "type": "Feature", "properties": { "voltage_kv": 220.0, "from_node": 1, "to_node": 61, "length_km": 313.97295564146839, "delaunay_k": 4, "edge_set": "Delaunay4" }, "geometry": { "type": "LineString", "coordinates": [ [ 13.065491, 63.752742 ], [ 16.44928, 61.407894 ] ] } },
{ "type": "Feature", "properties": { "voltage_kv": 220.0, "from_node": 2, "to_node": 50, "length_km": 360.84728648139441, "delaunay_k": 4, "edge_set": "Delaunay4" }, "geometry": { "type": "LineString", "coordinates": [ [ 13.458252, 63.368755 ], [ 16.177368, 60.396897 ] ] } },
{ "type": "Feature", "properties": { "voltage_kv": 220.0, "from_node": 4, "to_node": 50, "length_km": 344.32848974255336, "delaunay_k": 4, "edge_set": "Delaunay4" }, "geometry": { "type": "LineString", "coordinates": [ [ 13.587341, 63.23239 ], [ 16.177368, 60.396897 ] ] } },
{ "type": "Feature", "properties": { "voltage_kv": 220.0, "from_node": 5, "to_node": 50, "length_km": 351.38177417623763, "delaunay_k": 4, "edge_set": "Delaunay4" }, "geometry": { "type": "LineString", "coordinates": [ [ 13.639526, 63.312066 ], [ 16.177368, 60.396897 ] ] } },
{ "type": "Feature", "properties": { "voltage_kv": 220.0, "from_node": 7, "to_node": 16, "length_km": 454.35205190728652, "delaunay_k": 4, "edge_set": "Delaunay4" }, "geometry": { "type": "LineString", "coordinates": [ [ 13.763123, 66.142743 ], [ 14.16687, 62.071739 ] ] } },
{ "type": "Feature", "properties": { "voltage_kv": 220.0, "from_node": 7, "to_node": 20, "length_km": 406.02891535463436, "delaunay_k": 4, "edge_set": "Delaunay4" }, "geometry": { "type": "LineString", "coordinates": [ [ 13.763123, 66.142743 ], [ 14.515686, 62.516121 ] ] } },
{ "type": "Feature", "properties": { "voltage_kv": 220.0, "from_node": 7, "to_node": 21, "length_km": 325.32537917131702, "delaunay_k": 4, "edge_set": "Delaunay4" }, "geometry": { "type": "LineString", "coordinates": [ [ 13.763123, 66.142743 ], [ 14.736786, 63.255266 ] ] } },
{ "type": "Feature", "properties": { "voltage_kv": 220.0, "from_node": 7, "to_node": 29, "length_km": 331.16908110003919, "delaunay_k": 4, "edge_set": "Delaunay4" }, "geometry": { "type": "LineString", "coordinates": [ [ 13.763123, 66.142743 ], [ 15.206451, 63.237956 ] ] } },
{ "type": "Feature", "properties": { "voltage_kv": 220.0, "from_node": 7, "to_node": 41, "length_km": 337.07818657739597, "delaunay_k": 4, "edge_set": "Delaunay4" }, "geometry": { "type": "LineString", "coordinates": [ [ 13.763123, 66.142743 ], [ 15.805206, 63.249085 ] ] } },
{ "type": "Feature", "properties": { "voltage_kv": 220.0, "from_node": 7, "to_node": 69, "length_km": 319.38943593446476, "delaunay_k": 4, "edge_set": "Delaunay4" }, "geometry": { "type": "LineString", "coordinates": [ [ 13.763123, 66.142743 ], [ 16.756897, 63.577288 ] ] } },
{ "type": "Feature", "properties": { "voltage_kv": 220.0, "from_node": 7, "to_node": 70, "length_km": 313.17877223906254, "delaunay_k": 4, "edge_set": "Delaunay4" }, "geometry": { "type": "LineString", "coordinates": [ [ 13.763123, 66.142743 ], [ 16.791229, 63.646259 ] ] } },
{ "type": "Feature", "properties": { "voltage_kv": 220.0, "from_node": 7, "to_node": 75, "length_km": 308.72298188424929, "delaunay_k": 4, "edge_set": "Delaunay4" }, "geometry": { "type": "LineString", "coordinates": [ [ 13.763123, 66.142743 ], [ 16.894226, 63.713846 ] ] } },
{ "type": "Feature", "properties": { "voltage_kv": 220.0, "from_node": 7, "to_node": 111, "length_km": 425.70595565442147, "delaunay_k": 4, "edge_set": "Delaunay4" }, "geometry": { "type": "LineString", "coordinates": [ [ 13.763123, 66.142743 ], [ 23.100128, 65.837089 ] ] } },
{ "type": "Feature", "properties": { "voltage_kv": 220.0, "from_node": 9, "to_node": 111, "length_km": 454.16125479302116, "delaunay_k": 4, "edge_set": "Delaunay4" }, "geometry": { "type": "LineString", "coordinates": [ [ 13.807068, 64.653876 ], [ 23.100128, 65.837089 ] ] } },
{ "type": "Feature", "properties": { "voltage_kv": 220.0, "from_node": 11, "to_node": 22, "length_km": 324.79950432506672, "delaunay_k": 4, "edge_set": "Delaunay4" }, "geometry": { "type": "LineString", "coordinates": [ [ 13.903198, 62.735859 ], [ 14.765625, 65.62429 ] ] } },
{ "type": "Feature", "properties": { "voltage_kv": 220.0, "from_node": 11, "to_node": 26, "length_km": 336.90898161743411, "delaunay_k": 4, "edge_set": "Delaunay4" }, "geometry": { "type": "LineString", "coordinates": [ [ 13.903198, 62.735859 ], [ 14.965643971847902, 65.721629736713297 ] ] } },
{ "type": "Feature", "properties": { "voltage_kv": 220.0, "from_node": 11, "to_node": 30, "length_km": 371.46237537891426, "delaunay_k": 4, "edge_set": "Delaunay4" }, "geometry": { "type": "LineString", "coordinates": [ [ 13.903198, 62.735859 ], [ 15.231171, 59.466013 ] ] } },
{ "type": "Feature", "properties": { "voltage_kv": 220.0, "from_node": 11, "to_node": 45, "length_km": 377.91276138625142, "delaunay_k": 4, "edge_set": "Delaunay4" }, "geometry": { "type": "LineString", "coordinates": [ [ 13.903198, 62.735859 ], [ 15.971375, 59.496697 ] ] } },
{ "type": "Feature", "properties": { "voltage_kv": 220.0, "from_node": 11, "to_node": 52, "length_km": 292.53266342936246, "delaunay_k": 4, "edge_set": "Delaunay4" }, "geometry": { "type": "LineString", "coordinates": [ [ 13.903198, 62.735859 ], [ 16.284446847098103, 60.370428457277711 ] ] } },
{ "type": "Feature", "properties": { "voltage_kv": 220.0, "from_node": 11, "to_node": 63, "length_km": 296.36251236166777, "delaunay_k": 4, "edge_set": "Delaunay4" }, "geometry": { "type": "LineString", "coordinates": [ [ 13.903198, 62.735859 ], [ 16.512451, 60.38672 ] ] } },
{ "type": "Feature", "properties": { "voltage_kv": 220.0, "from_node": 12, "to_node": 14, "length_km": 394.99240643921951, "delaunay_k": 4, "edge_set": "Delaunay4" }, "geometry": { "type": "LineString", "coordinates": [ [ 13.973236, 62.141768 ], [ 14.111938, 58.598318 ] ] } },
{ "type": "Feature", "properties": { "voltage_kv": 220.0, "from_node": 12, "to_node": 22, "length_km": 390.26354631619154, "delaunay_k": 4, "edge_set": "Delaunay4" }, "geometry": { "type": "LineString", "coordinates": [ [ 13.973236, 62.141768 ], [ 14.765625, 65.62429 ] ] } },
{ "type": "Feature", "properties": { "voltage_kv": 220.0, "from_node": 12, "to_node": 26, "length_km": 402.13251699719302, "delaunay_k": 4, "edge_set": "Delaunay4" }, "geometry": { "type": "LineString", "coordinates": [ [ 13.973236, 62.141768 ], [ 14.965643971847902, 65.721629736713297 ] ] } },
{ "type": "Feature", "properties": { "voltage_kv": 220.0, "from_node": 12, "to_node": 28, "length_km": 337.39116294959274, "delaunay_k": 4, "edge_set": "Delaunay4" }, "geometry": { "type": "LineString", "coordinates": [ [ 13.973236, 62.141768 ], [ 15.184479, 59.173817 ] ] } },
{ "type": "Feature", "properties": { "voltage_kv": 220.0, "from_node": 12, "to_node": 57, "length_km": 315.96377706493797, "delaunay_k": 4, "edge_set": "Delaunay4" }, "geometry": { "type": "LineString", "coordinates": [ [ 13.973236, 62.141768 ], [ 16.368256, 59.559375 ] ] } },
{ "type": "Feature", "properties": { "voltage_kv": 220.0, "from_node": 12, "to_node": 60, "length_km": 322.92008763559909, "delaunay_k": 4, "edge_set": "Delaunay4" }, "geometry": { "type": "LineString", "coordinates": [ [ 13.973236, 62.141768 ], [ 16.417694, 59.502273 ] ] } },
{ "type": "Feature", "properties": { "voltage_kv": 220.0, "from_node": 12, "to_node": 74, "length_km": 303.41544647265579, "delaunay_k": 4, "edge_set": "Delaunay4" }, "geometry": { "type": "LineString", "coordinates": [ [ 13.973236, 62.141768 ], [ 16.884613, 59.816518 ] ] } },
{ "type": "Feature", "properties": { "voltage_kv": 220.0, "from_node": 13, "to_node": 111, "length_km": 446.07124443203526, "delaunay_k": 4, "edge_set": "Delaunay4" }, "geometry": { "type": "LineString", "coordinates": [ [ 14.06662, 64.570857 ], [ 23.100128, 65.837089 ] ] } },
{ "type": "Feature", "properties": { "voltage_kv": 220.0, "from_node": 14, "to_node": 20, "length_km": 437.23369191221968, "delaunay_k": 4, "edge_set": "Delaunay4" }, "geometry": { "type": "LineString", "coordinates": [ [ 14.111938, 58.598318 ], [ 14.515686, 62.516121 ] ] } },
{ "type": "Feature", "properties": { "voltage_kv": 220.0, "from_node": 14, "to_node": 27, "length_km": 428.05021906390721, "delaunay_k": 4, "edge_set": "Delaunay4" }, "geometry": { "type": "LineString", "coordinates": [ [ 14.111938, 58.598318 ], [ 15.005951, 62.413273 ] ] } },
{ "type": "Feature", "properties": { "voltage_kv": 220.0, "from_node": 14, "to_node": 43, "length_km": 378.59336935028853, "delaunay_k": 4, "edge_set": "Delaunay4" }, "geometry": { "type": "LineString", "coordinates": [ [ 14.111938, 58.598318 ], [ 15.843658, 61.88399 ] ] } },
{ "type": "Feature", "properties": { "voltage_kv": 220.0, "from_node": 14, "to_node": 54, "length_km": 374.29374868143805, "delaunay_k": 4, "edge_set": "Delaunay4" }, "geometry": { "type": "LineString", "coordinates": [ [ 14.111938, 58.598318 ], [ 16.316071, 61.771824 ] ] } },
{ "type": "Feature", "properties": { "voltage_kv": 220.0, "from_node": 14, "to_node": 87, "length_km": 334.05927917610961, "delaunay_k": 4, "edge_set": "Delaunay4" }, "geometry": { "type": "LineString", "coordinates": [ [ 14.111938, 58.598318 ], [ 17.166138, 61.172384 ] ] } },
{ "type": "Feature", "properties": { "voltage_kv": 220.0, "from_node": 14, "to_node": 108, "length_km": 304.96705227046266, "delaunay_k": 4, "edge_set": "Delaunay4" }, "geometry": { "type": "LineString", "coordinates": [ [ 14.111938, 58.598318 ], [ 18.623199, 60.071693 ] ] } },
{ "type": "Feature", "properties": { "voltage_kv": 220.0, "from_node": 15, "to_node": 114, "length_km": 520.40896471192752, "delaunay_k": 4, "edge_set": "Delaunay4" }, "geometry": { "type": "LineString", "coordinates": [ [ 14.146271, 64.71612 ], [ 24.892273, 65.995123 ] ] } },
{ "type": "Feature", "properties": { "voltage_kv": 220.0, "from_node": 15, "to_node": 115, "length_km": 531.58216916759216, "delaunay_k": 4, "edge_set": "Delaunay4" }, "geometry": { "type": "LineString", "coordinates": [ [ 14.146271, 64.71612 ], [ 25.069427, 66.140521 ] ] } },
{ "type": "Feature", "properties": { "voltage_kv": 220.0, "from_node": 15, "to_node": 116, "length_km": 583.69982814453306, "delaunay_k": 4, "edge_set": "Delaunay4" }, "geometry": { "type": "LineString", "coordinates": [ [ 14.146271, 64.71612 ], [ 25.085907, 67.498059 ] ] } },
{ "type": "Feature", "properties": { "voltage_kv": 220.0, "from_node": 16, "to_node": 65, "length_km": 303.72991251797828, "delaunay_k": 4, "edge_set": "Delaunay4" }, "geometry": { "type": "LineString", "coordinates": [ [ 14.16687, 62.071739 ], [ 16.679993, 59.6386 ] ] } },
{ "type": "Feature", "properties": { "voltage_kv": 220.0, "from_node": 16, "to_node": 94, "length_km": 313.7322743845935, "delaunay_k": 4, "edge_set": "Delaunay4" }, "geometry": { "type": "LineString", "coordinates": [ [ 14.16687, 62.071739 ], [ 17.329559, 59.716945 ] ] } },
{ "type": "Feature", "properties": { "voltage_kv": 220.0, "from_node": 16, "to_node": 98, "length_km": 307.56532577806774, "delaunay_k": 4, "edge_set": "Delaunay4" }, "geometry": { "type": "LineString", "coordinates": [ [ 14.16687, 62.071739 ], [ 17.748413, 59.930248 ] ] } },
{ "type": "Feature", "properties": { "voltage_kv": 220.0, "from_node": 16, "to_node": 99, "length_km": 373.86502128625494, "delaunay_k": 4, "edge_set": "Delaunay4" }, "geometry": { "type": "LineString", "coordinates": [ [ 14.16687, 62.071739 ], [ 17.766266, 59.221637 ] ] } },
{ "type": "Feature", "properties": { "voltage_kv": 220.0, "from_node": 16, "to_node": 104, "length_km": 397.56298764279899, "delaunay_k": 4, "edge_set": "Delaunay4" }, "geometry": { "type": "LineString", "coordinates": [ [ 14.16687, 62.071739 ], [ 18.124695, 59.084327 ] ] } },
{ "type": "Feature", "properties": { "voltage_kv": 220.0, "from_node": 16, "to_node": 105, "length_km": 322.15928355724105, "delaunay_k": 4, "edge_set": "Delaunay4" }, "geometry": { "type": "LineString", "coordinates": [ [ 14.16687, 62.071739 ], [ 18.233185, 59.961198 ] ] } },
{ "type": "Feature", "properties": { "voltage_kv": 220.0, "from_node": 16, "to_node": 108, "length_km": 328.14621652136861, "delaunay_k": 4, "edge_set": "Delaunay4" }, "geometry": { "type": "LineString", "coordinates": [ [ 14.16687, 62.071739 ], [ 18.623199, 60.071693 ] ] } },
{ "type": "Feature", "properties": { "voltage_kv": 220.0, "from_node": 16, "to_node": 109, "length_km": 336.70577773927147, "delaunay_k": 4, "edge_set": "Delaunay4" }, "geometry": { "type": "LineString", "coordinates": [ [ 14.16687, 62.071739 ], [ 18.8237, 60.06484 ] ] } },
{ "type": "Feature", "properties": { "voltage_kv": 220.0, "from_node": 18, "to_node": 111, "length_km": 436.81789625408658, "delaunay_k": 4, "edge_set": "Delaunay4" }, "geometry": { "type": "LineString", "coordinates": [ [ 14.250641, 64.596791 ], [ 23.100128, 65.837089 ] ] } },
{ "type": "Feature", "properties": { "voltage_kv": 220.0, "from_node": 19, "to_node": 111, "length_km": 433.70605747642514, "delaunay_k": 4, "edge_set": "Delaunay4" }, "geometry": { "type": "LineString", "coordinates": [ [ 14.381104, 64.536044 ], [ 23.100128, 65.837089 ] ] } },
{ "type": "Feature", "properties": { "voltage_kv": 220.0, "from_node": 20, "to_node": 28, "length_km": 374.36151817567071, "delaunay_k": 4, "edge_set": "Delaunay4" }, "geometry": { "type": "LineString", "coordinates": [ [ 14.515686, 62.516121 ], [ 15.184479, 59.173817 ] ] } },
{ "type": "Feature", "properties": { "voltage_kv": 220.0, "from_node": 20, "to_node": 57, "length_km": 344.53132436098787, "delaunay_k": 4, "edge_set": "Delaunay4" }, "geometry": { "type": "LineString", "coordinates": [ [ 14.515686, 62.516121 ], [ 16.368256, 59.559375 ] ] } },
{ "type": "Feature", "properties": { "voltage_kv": 220.0, "from_node": 20, "to_node": 60, "length_km": 351.42777768632641, "delaunay_k": 4, "edge_set": "Delaunay4" }, "geometry": { "type": "LineString", "coordinates": [ [ 14.515686, 62.516121 ], [ 16.417694, 59.502273 ] ] } },
{ "type": "Feature", "properties": { "voltage_kv": 220.0, "from_node": 20, "to_node": 74, "length_km": 326.9131187027242, "delaunay_k": 4, "edge_set": "Delaunay4" }, "geometry": { "type": "LineString", "coordinates": [ [ 14.515686, 62.516121 ], [ 16.884613, 59.816518 ] ] } },
{ "type": "Feature", "properties": { "voltage_kv": 220.0, "from_node": 21, "to_node": 30, "length_km": 423.28444919670051, "delaunay_k": 4, "edge_set": "Delaunay4" }, "geometry": { "type": "LineString", "coordinates": [ [ 14.736786, 63.255266 ], [ 15.231171, 59.466013 ] ] } },
{ "type": "Feature", "properties": { "voltage_kv": 220.0, "from_node": 21, "to_node": 45, "length_km": 424.23922728262716, "delaunay_k": 4, "edge_set": "Delaunay4" }, "geometry": { "type": "LineString", "coordinates": [ [ 14.736786, 63.255266 ], [ 15.971375, 59.496697 ] ] } },
{ "type": "Feature", "properties": { "voltage_kv": 220.0, "from_node": 21, "to_node": 52, "length_km": 331.86867399341054, "delaunay_k": 4, "edge_set": "Delaunay4" }, "geometry": { "type": "LineString", "coordinates": [ [ 14.736786, 63.255266 ], [ 16.284446847098103, 60.370428457277711 ] ] } },
{ "type": "Feature", "properties": { "voltage_kv": 220.0, "from_node": 21, "to_node": 63, "length_km": 333.28464327325383, "delaunay_k": 4, "edge_set": "Delaunay4" }, "geometry": { "type": "LineString", "coordinates": [ [ 14.736786, 63.255266 ], [ 16.512451, 60.38672 ] ] } },
{ "type": "Feature", "properties": { "voltage_kv": 220.0, "from_node": 22, "to_node": 114, "length_km": 465.49837220017156, "delaunay_k": 4, "edge_set": "Delaunay4" }, "geometry": { "type": "LineString", "coordinates": [ [ 14.765625, 65.62429 ], [ 24.892273, 65.995123 ] ] } },
{ "type": "Feature", "properties": { "voltage_kv": 220.0, "from_node": 22, "to_node": 115, "length_km": 473.93406468796098, "delaunay_k": 4, "edge_set": "Delaunay4" }, "geometry": { "type": "LineString", "coordinates": [ [ 14.765625, 65.62429 ], [ 25.069427, 66.140521 ] ] } },
{ "type": "Feature", "properties": { "voltage_kv": 220.0, "from_node": 22, "to_node": 116, "length_km": 503.81728037044246, "delaunay_k": 4, "edge_set": "Delaunay4" }, "geometry": { "type": "LineString", "coordinates": [ [ 14.765625, 65.62429 ], [ 25.085907, 67.498059 ] ] } },
{ "type": "Feature", "properties": { "voltage_kv": 220.0, "from_node": 23, "to_node": 50, "length_km": 337.13054285822494, "delaunay_k": 4, "edge_set": "Delaunay4" }, "geometry": { "type": "LineString", "coordinates": [ [ 14.788971, 63.348433 ], [ 16.177368, 60.396897 ] ] } },
{ "type": "Feature", "properties": { "voltage_kv": 220.0, "from_node": 24, "to_node": 111, "length_km": 423.83185422999389, "delaunay_k": 4, "edge_set": "Delaunay4" }, "geometry": { "type": "LineString", "coordinates": [ [ 14.859009, 64.308372 ], [ 23.100128, 65.837089 ] ] } },
{ "type": "Feature", "properties": { "voltage_kv": 220.0, "from_node": 25, "to_node": 111, "length_km": 417.36220636806354, "delaunay_k": 4, "edge_set": "Delaunay4" }, "geometry": { "type": "LineString", "coordinates": [ [ 14.959259, 64.35061 ], [ 23.100128, 65.837089 ] ] } },
{ "type": "Feature", "properties": { "voltage_kv": 220.0, "from_node": 26, "to_node": 114, "length_km": 454.70170075547463, "delaunay_k": 4, "edge_set": "Delaunay4" }, "geometry": { "type": "LineString", "coordinates": [ [ 14.965643971847902, 65.721629736713297 ], [ 24.892273, 65.995123 ] ] } },
{ "type": "Feature", "properties": { "voltage_kv": 220.0, "from_node": 26, "to_node": 115, "length_km": 462.82083957234602, "delaunay_k": 4, "edge_set": "Delaunay4" }, "geometry": { "type": "LineString", "coordinates": [ [ 14.965643971847902, 65.721629736713297 ], [ 25.069427, 66.140521 ] ] } },
{ "type": "Feature", "properties": { "voltage_kv": 220.0, "from_node": 26, "to_node": 116, "length_km": 490.51824374974154, "delaunay_k": 4, "edge_set": "Delaunay4" }, "geometry": { "type": "LineString", "coordinates": [ [ 14.965643971847902, 65.721629736713297 ], [ 25.085907, 67.498059 ] ] } },
{ "type": "Feature", "properties": { "voltage_kv": 220.0, "from_node": 27, "to_node": 28, "length_km": 361.27960703044891, "delaunay_k": 4, "edge_set": "Delaunay4" }, "geometry": { "type": "LineString", "coordinates": [ [ 15.005951, 62.413273 ], [ 15.184479, 59.173817 ] ] } },
{ "type": "Feature", "properties": { "voltage_kv": 220.0, "from_node": 27, "to_node": 57, "length_km": 326.6582207717546, "delaunay_k": 4, "edge_set": "Delaunay4" }, "geometry": { "type": "LineString", "coordinates": [ [ 15.005951, 62.413273 ], [ 16.368256, 59.559375 ] ] } },
{ "type": "Feature", "properties": { "voltage_kv": 220.0, "from_node": 27, "to_node": 60, "length_km": 333.48399457722678, "delaunay_k": 4, "edge_set": "Delaunay4" }, "geometry": { "type": "LineString", "coordinates": [ [ 15.005951, 62.413273 ], [ 16.417694, 59.502273 ] ] } },
{ "type": "Feature", "properties": { "voltage_kv": 220.0, "from_node": 27, "to_node": 74, "length_km": 306.78492872040124, "delaunay_k": 4, "edge_set": "Delaunay4" }, "geometry": { "type": "LineString", "coordinates": [ [ 15.005951, 62.413273 ], [ 16.884613, 59.816518 ] ] } },
{ "type": "Feature", "properties": { "voltage_kv": 220.0, "from_node": 28, "to_node": 43, "length_km": 304.32682768425036, "delaunay_k": 4, "edge_set": "Delaunay4" }, "geometry": { "type": "LineString", "coordinates": [ [ 15.184479, 59.173817 ], [ 15.843658, 61.88399 ] ] } },
{ "type": "Feature", "properties": { "voltage_kv": 220.0, "from_node": 28, "to_node": 54, "length_km": 296.29069525525318, "delaunay_k": 4, "edge_set": "Delaunay4" }, "geometry": { "type": "LineString", "coordinates": [ [ 15.184479, 59.173817 ], [ 16.316071, 61.771824 ] ] } },
{ "type": "Feature", "properties": { "voltage_kv": 220.0, "from_node": 29, "to_node": 50, "length_km": 320.92998905444165, "delaunay_k": 4, "edge_set": "Delaunay4" }, "geometry": { "type": "LineString", "coordinates": [ [ 15.206451, 63.237956 ], [ 16.177368, 60.396897 ] ] } },
{ "type": "Feature", "properties": { "voltage_kv": 220.0, "from_node": 30, "to_node": 32, "length_km": 409.61349421362024, "delaunay_k": 4, "edge_set": "Delaunay4" }, "geometry": { "type": "LineString", "coordinates": [ [ 15.231171, 59.466013 ], [ 15.490723, 63.137606 ] ] } },
{ "type": "Feature", "properties": { "voltage_kv": 220.0, "from_node": 30, "to_node": 34, "length_km": 332.15712810314625, "delaunay_k": 4, "edge_set": "Delaunay4" }, "geometry": { "type": "LineString", "coordinates": [ [ 15.231171, 59.466013 ], [ 15.544281, 62.441242 ] ] } },
{ "type": "Feature", "properties": { "voltage_kv": 220.0, "from_node": 30, "to_node": 56, "length_km": 332.35881149874024, "delaunay_k": 4, "edge_set": "Delaunay4" }, "geometry": { "type": "LineString", "coordinates": [ [ 15.231171, 59.466013 ], [ 16.333923, 62.398006 ] ] } },
{ "type": "Feature", "properties": { "voltage_kv": 220.0, "from_node": 30, "to_node": 80, "length_km": 344.91094611941827, "delaunay_k": 4, "edge_set": "Delaunay4" }, "geometry": { "type": "LineString", "coordinates": [ [ 15.231171, 59.466013 ], [ 16.993103, 62.438065 ] ] } },
{ "type": "Feature", "properties": { "voltage_kv": 220.0, "from_node": 30, "to_node": 95, "length_km": 342.01817439154303, "delaunay_k": 4, "edge_set": "Delaunay4" }, "geometry": { "type": "LineString", "coordinates": [ [ 15.231171, 59.466013 ], [ 17.362518, 62.352158 ] ] } },
{ "type": "Feature", "properties": { "voltage_kv": 220.0, "from_node": 31, "to_node": 114, "length_km": 469.8748884544604, "delaunay_k": 4, "edge_set": "Delaunay4" }, "geometry": { "type": "LineString", "coordinates": [ [ 15.450897, 64.54962 ], [ 24.892273, 65.995123 ] ] } },
{ "type": "Feature", "properties": { "voltage_kv": 220.0, "from_node": 31, "to_node": 115, "length_km": 482.2043031636702, "delaunay_k": 4, "edge_set": "Delaunay4" }, "geometry": { "type": "LineString", "coordinates": [ [ 15.450897, 64.54962 ], [ 25.069427, 66.140521 ] ] } },
{ "type": "Feature", "properties": { "voltage_kv": 220.0, "from_node": 31, "to_node": 116, "length_km": 547.0619252223006, "delaunay_k": 4, "edge_set": "Delaunay4" }, "geometry": { "type": "LineString", "coordinates": [ [ 15.450897, 64.54962 ], [ 25.085907, 67.498059 ] ] } },
{ "type": "Feature", "properties": { "voltage_kv": 220.0, "from_node": 32, "to_node": 45, "length_km": 406.81939997026473, "delaunay_k": 4, "edge_set": "Delaunay4" }, "geometry": { "type": "LineString", "coordinates": [ [ 15.490723, 63.137606 ], [ 15.971375, 59.496697 ] ] } },
{ "type": "Feature", "properties": { "voltage_kv": 220.0, "from_node": 32, "to_node": 52, "length_km": 311.43649117602735, "delaunay_k": 4, "edge_set": "Delaunay4" }, "geometry": { "type": "LineString", "coordinates": [ [ 15.490723, 63.137606 ], [ 16.284446847098103, 60.370428457277711 ] ] } },
{ "type": "Feature", "properties": { "voltage_kv": 220.0, "from_node": 32, "to_node": 63, "length_km": 311.50423712486963, "delaunay_k": 4, "edge_set": "Delaunay4" }, "geometry": { "type": "LineString", "coordinates": [ [ 15.490723, 63.137606 ], [ 16.512451, 60.38672 ] ] } },
{ "type": "Feature", "properties": { "voltage_kv": 220.0, "from_node": 33, "to_node": 50, "length_km": 313.81062224688213, "delaunay_k": 4, "edge_set": "Delaunay4" }, "geometry": { "type": "LineString", "coordinates": [ [ 15.493469, 63.19216 ], [ 16.177368, 60.396897 ] ] } },
{ "type": "Feature", "properties": { "voltage_kv": 220.0, "from_node": 34, "to_node": 45, "length_km": 329.15611792668739, "delaunay_k": 4, "edge_set": "Delaunay4" }, "geometry": { "type": "LineString", "coordinates": [ [ 15.544281, 62.441242 ], [ 15.971375, 59.496697 ] ] } },
{ "type": "Feature", "properties": { "voltage_kv": 220.0, "from_node": 35, "to_node": 111, "length_km": 409.20906396861056, "delaunay_k": 4, "edge_set": "Delaunay4" }, "geometry": { "type": "LineString", "coordinates": [ [ 15.619812, 64.001858 ], [ 23.100128, 65.837089 ] ] } },
{ "type": "Feature", "properties": { "voltage_kv": 220.0, "from_node": 36, "to_node": 114, "length_km": 463.31703979419973, "delaunay_k": 4, "edge_set": "Delaunay4" }, "geometry": { "type": "LineString", "coordinates": [ [ 15.622559, 64.529548 ], [ 24.892273, 65.995123 ] ] } },
{ "type": "Feature", "properties": { "voltage_kv": 220.0, "from_node": 36, "to_node": 115, "length_km": 475.80268932633749, "delaunay_k": 4, "edge_set": "Delaunay4" }, "geometry": { "type": "LineString", "coordinates": [ [ 15.622559, 64.529548 ], [ 25.069427, 66.140521 ] ] } },
{ "type": "Feature", "properties": { "voltage_kv": 220.0, "from_node": 36, "to_node": 116, "length_km": 542.39478363705291, "delaunay_k": 4, "edge_set": "Delaunay4" }, "geometry": { "type": "LineString", "coordinates": [ [ 15.622559, 64.529548 ], [ 25.085907, 67.498059 ] ] } },
{ "type": "Feature", "properties": { "voltage_kv": 220.0, "from_node": 37, "to_node": 114, "length_km": 485.24781817074052, "delaunay_k": 4, "edge_set": "Delaunay4" }, "geometry": { "type": "LineString", "coordinates": [ [ 15.674744, 64.064393 ], [ 24.892273, 65.995123 ] ] } },
{ "type": "Feature", "properties": { "voltage_kv": 220.0, "from_node": 37, "to_node": 115, "length_km": 498.95846817769825, "delaunay_k": 4, "edge_set": "Delaunay4" }, "geometry": { "type": "LineString", "coordinates": [ [ 15.674744, 64.064393 ], [ 25.069427, 66.140521 ] ] } },
{ "type": "Feature", "properties": { "voltage_kv": 220.0, "from_node": 37, "to_node": 116, "length_km": 576.61348200778878, "delaunay_k": 4, "edge_set": "Delaunay4" }, "geometry": { "type": "LineString", "coordinates": [ [ 15.674744, 64.064393 ], [ 25.085907, 67.498059 ] ] } },
{ "type": "Feature", "properties": { "voltage_kv": 220.0, "from_node": 38, "to_node": 50, "length_km": 308.16006141023939, "delaunay_k": 4, "edge_set": "Delaunay4" }, "geometry": { "type": "LineString", "coordinates": [ [ 15.746155, 63.152495 ], [ 16.177368, 60.396897 ] ] } },
{ "type": "Feature", "properties": { "voltage_kv": 220.0, "from_node": 39, "to_node": 114, "length_km": 449.52562162453546, "delaunay_k": 4, "edge_set": "Delaunay4" }, "geometry": { "type": "LineString", "coordinates": [ [ 15.761261, 64.700279 ], [ 24.892273, 65.995123 ] ] } },
{ "type": "Feature", "properties": { "voltage_kv": 220.0, "from_node": 39, "to_node": 115, "length_km": 461.59069084643471, "delaunay_k": 4, "edge_set": "Delaunay4" }, "geometry": { "type": "LineString", "coordinates": [ [ 15.761261, 64.700279 ], [ 25.069427, 66.140521 ] ] } },
{ "type": "Feature", "properties": { "voltage_kv": 220.0, "from_node": 39, "to_node": 116, "length_km": 524.82187205935156, "delaunay_k": 4, "edge_set": "Delaunay4" }, "geometry": { "type": "LineString", "coordinates": [ [ 15.761261, 64.700279 ], [ 25.085907, 67.498059 ] ] } },
{ "type": "Feature", "properties": { "voltage_kv": 220.0, "from_node": 40, "to_node": 95, "length_km": 302.04582269986565, "delaunay_k": 4, "edge_set": "Delaunay4" }, "geometry": { "type": "LineString", "coordinates": [ [ 15.783234, 64.967159 ], [ 17.362518, 62.352158 ] ] } },
{ "type": "Feature", "properties": { "voltage_kv": 220.0, "from_node": 40, "to_node": 120, "length_km": 467.99582004501821, "delaunay_k": 4, "edge_set": "Delaunay4" }, "geometry": { "type": "LineString", "coordinates": [ [ 15.783234, 64.967159 ], [ 25.415497, 66.285642 ] ] } },
{ "type": "Feature", "properties": { "voltage_kv": 220.0, "from_node": 40, "to_node": 121, "length_km": 484.71245498652644, "delaunay_k": 4, "edge_set": "Delaunay4" }, "geometry": { "type": "LineString", "coordinates": [ [ 15.783234, 64.967159 ], [ 25.717621, 66.413451 ] ] } },
{ "type": "Feature", "properties": { "voltage_kv": 220.0, "from_node": 40, "to_node": 122, "length_km": 486.19520818279102, "delaunay_k": 4, "edge_set": "Delaunay4" }, "geometry": { "type": "LineString", "coordinates": [ [ 15.783234, 64.967159 ], [ 26.05957, 64.965416 ] ] } },
{ "type": "Feature", "properties": { "voltage_kv": 220.0, "from_node": 40, "to_node": 123, "length_km": 548.40686629460242, "delaunay_k": 4, "edge_set": "Delaunay4" }, "geometry": { "type": "LineString", "coordinates": [ [ 15.783234, 64.967159 ], [ 26.098022, 67.596139 ] ] } },
{ "type": "Feature", "properties": { "voltage_kv": 220.0, "from_node": 40, "to_node": 130, "length_km": 540.20937804176185, "delaunay_k": 4, "edge_set": "Delaunay4" }, "geometry": { "type": "LineString", "coordinates": [ [ 15.783234, 64.967159 ], [ 27.030487, 66.33089 ] ] } },
{ "type": "Feature", "properties": { "voltage_kv": 220.0, "from_node": 40, "to_node": 131, "length_km": 728.97896924605902, "delaunay_k": 4, "edge_set": "Delaunay4" }, "geometry": { "type": "LineString", "coordinates": [ [ 15.783234, 64.967159 ], [ 27.071686, 69.862801 ] ] } },
{ "type": "Feature", "properties": { "voltage_kv": 220.0, "from_node": 40, "to_node": 135, "length_km": 664.36498454277796, "delaunay_k": 4, "edge_set": "Delaunay4" }, "geometry": { "type": "LineString", "coordinates": [ [ 15.783234, 64.967159 ], [ 27.674561, 68.645556 ] ] } },
{ "type": "Feature", "properties": { "voltage_kv": 220.0, "from_node": 42, "to_node": 114, "length_km": 420.88723162486986, "delaunay_k": 4, "edge_set": "Delaunay4" }, "geometry": { "type": "LineString", "coordinates": [ [ 15.812073, 65.485626 ], [ 24.892273, 65.995123 ] ] } },
{ "type": "Feature", "properties": { "voltage_kv": 220.0, "from_node": 42, "to_node": 115, "length_km": 430.21060767705876, "delaunay_k": 4, "edge_set": "Delaunay4" }, "geometry": { "type": "LineString", "coordinates": [ [ 15.812073, 65.485626 ], [ 25.069427, 66.140521 ] ] } },
{ "type": "Feature", "properties": { "voltage_kv": 220.0, "from_node": 42, "to_node": 116, "length_km": 470.3162045825465, "delaunay_k": 4, "edge_set": "Delaunay4" }, "geometry": { "type": "LineString", "coordinates": [ [ 15.812073, 65.485626 ], [ 25.085907, 67.498059 ] ] } },
{ "type": "Feature", "properties": { "voltage_kv": 220.0, "from_node": 44, "to_node": 120, "length_km": 473.79323127311528, "delaunay_k": 4, "edge_set": "Delaunay4" }, "geometry": { "type": "LineString", "coordinates": [ [ 15.923309, 64.710254 ], [ 25.415497, 66.285642 ] ] } },
{ "type": "Feature", "properties": { "voltage_kv": 220.0, "from_node": 44, "to_node": 121, "length_km": 491.11080784955101, "delaunay_k": 4, "edge_set": "Delaunay4" }, "geometry": { "type": "LineString", "coordinates": [ [ 15.923309, 64.710254 ], [ 25.717621, 66.413451 ] ] } },
{ "type": "Feature", "properties": { "voltage_kv": 220.0, "from_node": 44, "to_node": 122, "length_km": 482.73853394249738, "delaunay_k": 4, "edge_set": "Delaunay4" }, "geometry": { "type": "LineString", "coordinates": [ [ 15.923309, 64.710254 ], [ 26.05957, 64.965416 ] ] } },
{ "type": "Feature", "properties": { "voltage_kv": 220.0, "from_node": 44, "to_node": 123, "length_km": 560.9929332021776, "delaunay_k": 4, "edge_set": "Delaunay4" }, "geometry": { "type": "LineString", "coordinates": [ [ 15.923309, 64.710254 ], [ 26.098022, 67.596139 ] ] } },
{ "type": "Feature", "properties": { "voltage_kv": 220.0, "from_node": 44, "to_node": 130, "length_km": 545.27452373209496, "delaunay_k": 4, "edge_set": "Delaunay4" }, "geometry": { "type": "LineString", "coordinates": [ [ 15.923309, 64.710254 ], [ 27.030487, 66.33089 ] ] } },
{ "type": "Feature", "properties": { "voltage_kv": 220.0, "from_node": 44, "to_node": 131, "length_km": 748.45254936187268, "delaunay_k": 4, "edge_set": "Delaunay4" }, "geometry": { "type": "LineString", "coordinates": [ [ 15.923309, 64.710254 ], [ 27.071686, 69.862801 ] ] } },
{ "type": "Feature", "properties": { "voltage_kv": 220.0, "from_node": 44, "to_node": 135, "length_km": 679.76221021216134, "delaunay_k": 4, "edge_set": "Delaunay4" }, "geometry": { "type": "LineString", "coordinates": [ [ 15.923309, 64.710254 ], [ 27.674561, 68.645556 ] ] } },
{ "type": "Feature", "properties": { "voltage_kv": 220.0, "from_node": 45, "to_node": 56, "length_km": 324.15683076483418, "delaunay_k": 4, "edge_set": "Delaunay4" }, "geometry": { "type": "LineString", "coordinates": [ [ 15.971375, 59.496697 ], [ 16.333923, 62.398006 ] ] } },
{ "type": "Feature", "properties": { "voltage_kv": 220.0, "from_node": 45, "to_node": 80, "length_km": 332.69894778883082, "delaunay_k": 4, "edge_set": "Delaunay4" }, "geometry": { "type": "LineString", "coordinates": [ [ 15.971375, 59.496697 ], [ 16.993103, 62.438065 ] ] } },
{ "type": "Feature", "properties": { "voltage_kv": 220.0, "from_node": 45, "to_node": 95, "length_km": 327.31807949548039, "delaunay_k": 4, "edge_set": "Delaunay4" }, "geometry": { "type": "LineString", "coordinates": [ [ 15.971375, 59.496697 ], [ 17.362518, 62.352158 ] ] } },
{ "type": "Feature", "properties": { "voltage_kv": 220.0, "from_node": 50, "to_node": 90, "length_km": 333.27262766924724, "delaunay_k": 4, "edge_set": "Delaunay4" }, "geometry": { "type": "LineString", "coordinates": [ [ 16.177368, 60.396897 ], [ 17.230682, 63.342889 ] ] } },
{ "type": "Feature", "properties": { "voltage_kv": 220.0, "from_node": 54, "to_node": 97, "length_km": 364.99186407939169, "delaunay_k": 4, "edge_set": "Delaunay4" }, "geometry": { "type": "LineString", "coordinates": [ [ 16.316071, 61.771824 ], [ 17.541046, 64.996778 ] ] } },
{ "type": "Feature", "properties": { "voltage_kv": 220.0, "from_node": 56, "to_node": 109, "length_km": 292.7408423292988, "delaunay_k": 4, "edge_set": "Delaunay4" }, "geometry": { "type": "LineString", "coordinates": [ [ 16.333923, 62.398006 ], [ 18.8237, 60.06484 ] ] } },
{ "type": "Feature", "properties": { "voltage_kv": 220.0, "from_node": 58, "to_node": 95, "length_km": 334.71554275812798, "delaunay_k": 4, "edge_set": "Delaunay4" }, "geometry": { "type": "LineString", "coordinates": [ [ 16.387482, 65.321005 ], [ 17.362518, 62.352158 ] ] } },
{ "type": "Feature", "properties": { "voltage_kv": 220.0, "from_node": 58, "to_node": 120, "length_km": 427.47162835711288, "delaunay_k": 4, "edge_set": "Delaunay4" }, "geometry": { "type": "LineString", "coordinates": [ [ 16.387482, 65.321005 ], [ 25.415497, 66.285642 ] ] } },
{ "type": "Feature", "properties": { "voltage_kv": 220.0, "from_node": 58, "to_node": 121, "length_km": 443.55190918221905, "delaunay_k": 4, "edge_set": "Delaunay4" }, "geometry": { "type": "LineString", "coordinates": [ [ 16.387482, 65.321005 ], [ 25.717621, 66.413451 ] ] } },
{ "type": "Feature", "properties": { "voltage_kv": 220.0, "from_node": 58, "to_node": 122, "length_km": 456.41616478159114, "delaunay_k": 4, "edge_set": "Delaunay4" }, "geometry": { "type": "LineString", "coordinates": [ [ 16.387482, 65.321005 ], [ 26.05957, 64.965416 ] ] } },
{ "type": "Feature", "properties": { "voltage_kv": 220.0, "from_node": 58, "to_node": 123, "length_km": 502.25829237490603, "delaunay_k": 4, "edge_set": "Delaunay4" }, "geometry": { "type": "LineString", "coordinates": [ [ 16.387482, 65.321005 ], [ 26.098022, 67.596139 ] ] } },
{ "type": "Feature", "properties": { "voltage_kv": 220.0, "from_node": 58, "to_node": 130, "length_km": 500.17621112004417, "delaunay_k": 4, "edge_set": "Delaunay4" }, "geometry": { "type": "LineString", "coordinates": [ [ 16.387482, 65.321005 ], [ 27.030487, 66.33089 ] ] } },
{ "type": "Feature", "properties": { "voltage_kv": 220.0, "from_node": 58, "to_node": 131, "length_km": 680.37232558732865, "delaunay_k": 4, "edge_set": "Delaunay4" }, "geometry": { "type": "LineString", "coordinates": [ [ 16.387482, 65.321005 ], [ 27.071686, 69.862801 ] ] } },
{ "type": "Feature", "properties": { "voltage_kv": 220.0, "from_node": 58, "to_node": 135, "length_km": 616.70988913302813, "delaunay_k": 4, "edge_set": "Delaunay4" }, "geometry": { "type": "LineString", "coordinates": [ [ 16.387482, 65.321005 ], [ 27.674561, 68.645556 ] ] } },
{ "type": "Feature", "properties": { "voltage_kv": 220.0, "from_node": 61, "to_node": 96, "length_km": 313.80097388789562, "delaunay_k": 4, "edge_set": "Delaunay4" }, "geometry": { "type": "LineString", "coordinates": [ [ 16.44928, 61.407894 ], [ 17.449036, 64.183063 ] ] } },
{ "type": "Feature", "properties": { "voltage_kv": 220.0, "from_node": 62, "to_node": 73, "length_km": 293.89181991510628, "delaunay_k": 4, "edge_set": "Delaunay4" }, "geometry": { "type": "LineString", "coordinates": [ [ 16.489105, 65.386291 ], [ 16.88324, 62.757869 ] ] } },
{ "type": "Feature", "properties": { "voltage_kv": 220.0, "from_node": 62, "to_node": 95, "length_km": 341.26067846843148, "delaunay_k": 4, "edge_set": "Delaunay4" }, "geometry": { "type": "LineString", "coordinates": [ [ 16.489105, 65.386291 ], [ 17.362518, 62.352158 ] ] } },
{ "type": "Feature", "properties": { "voltage_kv": 220.0, "from_node": 62, "to_node": 120, "length_km": 420.68829265186395, "delaunay_k": 4, "edge_set": "Delaunay4" }, "geometry": { "type": "LineString", "coordinates": [ [ 16.489105, 65.386291 ], [ 25.415497, 66.285642 ] ] } },
{ "type": "Feature", "properties": { "voltage_kv": 220.0, "from_node": 62, "to_node": 121, "length_km": 436.62573734606946, "delaunay_k": 4, "edge_set": "Delaunay4" }, "geometry": { "type": "LineString", "coordinates": [ [ 16.489105, 65.386291 ], [ 25.717621, 66.413451 ] ] } },
{ "type": "Feature", "properties": { "voltage_kv": 220.0, "from_node": 62, "to_node": 122, "length_km": 451.82206665570908, "delaunay_k": 4, "edge_set": "Delaunay4" }, "geometry": { "type": "LineString", "coordinates": [ [ 16.489105, 65.386291 ], [ 26.05957, 64.965416 ] ] } },
{ "type": "Feature", "properties": { "voltage_kv": 220.0, "from_node": 62, "to_node": 123, "length_km": 494.22484365597882, "delaunay_k": 4, "edge_set": "Delaunay4" }, "geometry": { "type": "LineString", "coordinates": [ [ 16.489105, 65.386291 ], [ 26.098022, 67.596139 ] ] } },
{ "type": "Feature", "properties": { "voltage_kv": 220.0, "from_node": 62, "to_node": 130, "length_km": 493.46700876517758, "delaunay_k": 4, "edge_set": "Delaunay4" }, "geometry": { "type": "LineString", "coordinates": [ [ 16.489105, 65.386291 ], [ 27.030487, 66.33089 ] ] } },
{ "type": "Feature", "properties": { "voltage_kv": 220.0, "from_node": 62, "to_node": 131, "length_km": 671.7056452712153, "delaunay_k": 4, "edge_set": "Delaunay4" }, "geometry": { "type": "LineString", "coordinates": [ [ 16.489105, 65.386291 ], [ 27.071686, 69.862801 ] ] } },
{ "type": "Feature", "properties": { "voltage_kv": 220.0, "from_node": 62, "to_node": 135, "length_km": 608.31626697491481, "delaunay_k": 4, "edge_set": "Delaunay4" }, "geometry": { "type": "LineString", "coordinates": [ [ 16.489105, 65.386291 ], [ 27.674561, 68.645556 ] ] } },
{ "type": "Feature", "properties": { "voltage_kv": 220.0, "from_node": 73, "to_node": 111, "length_km": 457.09004290831587, "delaunay_k": 4, "edge_set": "Delaunay4" }, "geometry": { "type": "LineString", "coordinates": [ [ 16.88324, 62.757869 ], [ 23.100128, 65.837089 ] ] } },
{ "type": "Feature", "properties": { "voltage_kv": 220.0, "from_node": 75, "to_node": 111, "length_km": 378.91499646285604, "delaunay_k": 4, "edge_set": "Delaunay4" }, "geometry": { "type": "LineString", "coordinates": [ [ 16.894226, 63.713846 ], [ 23.100128, 65.837089 ] ] } },
{ "type": "Feature", "properties": { "voltage_kv": 220.0, "from_node": 78, "to_node": 114, "length_km": 436.27322920816113, "delaunay_k": 4, "edge_set": "Delaunay4" }, "geometry": { "type": "LineString", "coordinates": [ [ 16.962891, 63.994031 ], [ 24.892273, 65.995123 ] ] } },
{ "type": "Feature", "properties": { "voltage_kv": 220.0, "from_node": 78, "to_node": 115, "length_km": 450.97705667918427, "delaunay_k": 4, "edge_set": "Delaunay4" }, "geometry": { "type": "LineString", "coordinates": [ [ 16.962891, 63.994031 ], [ 25.069427, 66.140521 ] ] } },
{ "type": "Feature", "properties": { "voltage_kv": 220.0, "from_node": 78, "to_node": 116, "length_km": 540.28413891012394, "delaunay_k": 4, "edge_set": "Delaunay4" }, "geometry": { "type": "LineString", "coordinates": [ [ 16.962891, 63.994031 ], [ 25.085907, 67.498059 ] ] } },
{ "type": "Feature", "properties": { "voltage_kv": 220.0, "from_node": 79, "to_node": 111, "length_km": 401.93928062704128, "delaunay_k": 4, "edge_set": "Delaunay4" }, "geometry": { "type": "LineString", "coordinates": [ [ 16.98761, 63.372448 ], [ 23.100128, 65.837089 ] ] } },
{ "type": "Feature", "properties": { "voltage_kv": 220.0, "from_node": 81, "to_node": 111, "length_km": 371.73014500352599, "delaunay_k": 4, "edge_set": "Delaunay4" }, "geometry": { "type": "LineString", "coordinates": [ [ 17.041168, 63.737555 ], [ 23.100128, 65.837089 ] ] } },
{ "type": "Feature", "properties": { "voltage_kv": 220.0, "from_node": 84, "to_node": 111, "length_km": 408.02348526004647, "delaunay_k": 4, "edge_set": "Delaunay4" }, "geometry": { "type": "LineString", "coordinates": [ [ 17.082367, 63.257738 ], [ 23.100128, 65.837089 ] ] } },
{ "type": "Feature", "properties": { "voltage_kv": 220.0, "from_node": 85, "to_node": 111, "length_km": 393.95549978993523, "delaunay_k": 4, "edge_set": "Delaunay4" }, "geometry": { "type": "LineString", "coordinates": [ [ 17.122192, 63.413656 ], [ 23.100128, 65.837089 ] ] } },
{ "type": "Feature", "properties": { "voltage_kv": 220.0, "from_node": 86, "to_node": 87, "length_km": 298.26366891583677, "delaunay_k": 4, "edge_set": "Delaunay4" }, "geometry": { "type": "LineString", "coordinates": [ [ 17.156525, 63.845512 ], [ 17.166138, 61.172384 ] ] } },
{ "type": "Feature", "properties": { "voltage_kv": 220.0, "from_node": 86, "to_node": 114, "length_km": 438.1867630362371, "delaunay_k": 4, "edge_set": "Delaunay4" }, "geometry": { "type": "LineString", "coordinates": [ [ 17.156525, 63.845512 ], [ 24.892273, 65.995123 ] ] } },
{ "type": "Feature", "properties": { "voltage_kv": 220.0, "from_node": 86, "to_node": 115, "length_km": 453.33317811296462, "delaunay_k": 4, "edge_set": "Delaunay4" }, "geometry": { "type": "LineString", "coordinates": [ [ 17.156525, 63.845512 ], [ 25.069427, 66.140521 ] ] } },
{ "type": "Feature", "properties": { "voltage_kv": 220.0, "from_node": 86, "to_node": 116, "length_km": 547.17694904967664, "delaunay_k": 4, "edge_set": "Delaunay4" }, "geometry": { "type": "LineString", "coordinates": [ [ 17.156525, 63.845512 ], [ 25.085907, 67.498059 ] ] } },
{ "type": "Feature", "properties": { "voltage_kv": 220.0, "from_node": 87, "to_node": 96, "length_km": 336.26026295268792, "delaunay_k": 4, "edge_set": "Delaunay4" }, "geometry": { "type": "LineString", "coordinates": [ [ 17.166138, 61.172384 ], [ 17.449036, 64.183063 ] ] } },
{ "type": "Feature", "properties": { "voltage_kv": 220.0, "from_node": 88, "to_node": 114, "length_km": 432.62239068741775, "delaunay_k": 4, "edge_set": "Delaunay4" }, "geometry": { "type": "LineString", "coordinates": [ [ 17.168884, 63.922284 ], [ 24.892273, 65.995123 ] ] } },
{ "type": "Feature", "properties": { "voltage_kv": 220.0, "from_node": 88, "to_node": 115, "length_km": 447.62029656826934, "delaunay_k": 4, "edge_set": "Delaunay4" }, "geometry": { "type": "LineString", "coordinates": [ [ 17.168884, 63.922284 ], [ 25.069427, 66.140521 ] ] } },
{ "type": "Feature", "properties": { "voltage_kv": 220.0, "from_node": 88, "to_node": 116, "length_km": 540.08657040891251, "delaunay_k": 4, "edge_set": "Delaunay4" }, "geometry": { "type": "LineString", "coordinates": [ [ 17.168884, 63.922284 ], [ 25.085907, 67.498059 ] ] } },
{ "type": "Feature", "properties": { "voltage_kv": 220.0, "from_node": 89, "to_node": 90, "length_km": 294.888053081436, "delaunay_k": 4, "edge_set": "Delaunay4" }, "geometry": { "type": "LineString", "coordinates": [ [ 17.179871, 60.700072 ], [ 17.230682, 63.342889 ] ] } },
{ "type": "Feature", "properties": { "voltage_kv": 220.0, "from_node": 90, "to_node": 114, "length_km": 471.14797137390195, "delaunay_k": 4, "edge_set": "Delaunay4" }, "geometry": { "type": "LineString", "coordinates": [ [ 17.230682, 63.342889 ], [ 24.892273, 65.995123 ] ] } },
{ "type": "Feature", "properties": { "voltage_kv": 220.0, "from_node": 90, "to_node": 115, "length_km": 487.20295883504883, "delaunay_k": 4, "edge_set": "Delaunay4" }, "geometry": { "type": "LineString", "coordinates": [ [ 17.230682, 63.342889 ], [ 25.069427, 66.140521 ] ] } },
{ "type": "Feature", "properties": { "voltage_kv": 220.0, "from_node": 90, "to_node": 116, "length_km": 590.18879752651799, "delaunay_k": 4, "edge_set": "Delaunay4" }, "geometry": { "type": "LineString", "coordinates": [ [ 17.230682, 63.342889 ], [ 25.085907, 67.498059 ] ] } },
{ "type": "Feature", "properties": { "voltage_kv": 220.0, "from_node": 91, "to_node": 114, "length_km": 413.77140879985149, "delaunay_k": 4, "edge_set": "Delaunay4" }, "geometry": { "type": "LineString", "coordinates": [ [ 17.271881, 64.154341 ], [ 24.892273, 65.995123 ] ] } },
{ "type": "Feature", "properties": { "voltage_kv": 220.0, "from_node": 91, "to_node": 115, "length_km": 428.32146348048741, "delaunay_k": 4, "edge_set": "Delaunay4" }, "geometry": { "type": "LineString", "coordinates": [ [ 17.271881, 64.154341 ], [ 25.069427, 66.140521 ] ] } },
{ "type": "Feature", "properties": { "voltage_kv": 220.0, "from_node": 91, "to_node": 116, "length_km": 516.87820804107832, "delaunay_k": 4, "edge_set": "Delaunay4" }, "geometry": { "type": "LineString", "coordinates": [ [ 17.271881, 64.154341 ], [ 25.085907, 67.498059 ] ] } },
{ "type": "Feature", "properties": { "voltage_kv": 220.0, "from_node": 93, "to_node": 120, "length_km": 441.17204833230284, "delaunay_k": 4, "edge_set": "Delaunay4" }, "geometry": { "type": "LineString", "coordinates": [ [ 17.310333, 64.26428 ], [ 25.415497, 66.285642 ] ] } },
{ "type": "Feature", "properties": { "voltage_kv": 220.0, "from_node": 93, "to_node": 121, "length_km": 459.81414298459129, "delaunay_k": 4, "edge_set": "Delaunay4" }, "geometry": { "type": "LineString", "coordinates": [ [ 17.310333, 64.26428 ], [ 25.717621, 66.413451 ] ] } },
{ "type": "Feature", "properties": { "voltage_kv": 220.0, "from_node": 93, "to_node": 122, "length_km": 426.88389941426203, "delaunay_k": 4, "edge_set": "Delaunay4" }, "geometry": { "type": "LineString", "coordinates": [ [ 17.310333, 64.26428 ], [ 26.05957, 64.965416 ] ] } },
{ "type": "Feature", "properties": { "voltage_kv": 220.0, "from_node": 93, "to_node": 123, "length_km": 546.54779567696426, "delaunay_k": 4, "edge_set": "Delaunay4" }, "geometry": { "type": "LineString", "coordinates": [ [ 17.310333, 64.26428 ], [ 26.098022, 67.596139 ] ] } },
{ "type": "Feature", "properties": { "voltage_kv": 220.0, "from_node": 93, "to_node": 130, "length_km": 509.50954800120445, "delaunay_k": 4, "edge_set": "Delaunay4" }, "geometry": { "type": "LineString", "coordinates": [ [ 17.310333, 64.26428 ], [ 27.030487, 66.33089 ] ] } },
{ "type": "Feature", "properties": { "voltage_kv": 220.0, "from_node": 93, "to_node": 131, "length_km": 755.07266583178705, "delaunay_k": 4, "edge_set": "Delaunay4" }, "geometry": { "type": "LineString", "coordinates": [ [ 17.310333, 64.26428 ], [ 27.071686, 69.862801 ] ] } },
{ "type": "Feature", "properties": { "voltage_kv": 220.0, "from_node": 93, "to_node": 135, "length_km": 672.82936145529163, "delaunay_k": 4, "edge_set": "Delaunay4" }, "geometry": { "type": "LineString", "coordinates": [ [ 17.310333, 64.26428 ], [ 27.674561, 68.645556 ] ] } },
{ "type": "Feature", "properties": { "voltage_kv": 220.0, "from_node": 95, "to_node": 111, "length_km": 479.44951593285953, "delaunay_k": 4, "edge_set": "Delaunay4" }, "geometry": { "type": "LineString", "coordinates": [ [ 17.362518, 62.352158 ], [ 23.100128, 65.837089 ] ] } },
{ "type": "Feature", "properties": { "voltage_kv": 220.0, "from_node": 96, "to_node": 120, "length_km": 440.88296493830802, "delaunay_k": 4, "edge_set": "Delaunay4" }, "geometry": { "type": "LineString", "coordinates": [ [ 17.449036, 64.183063 ], [ 25.415497, 66.285642 ] ] } },
{ "type": "Feature", "properties": { "voltage_kv": 220.0, "from_node": 96, "to_node": 121, "length_km": 459.6826284012032, "delaunay_k": 4, "edge_set": "Delaunay4" }, "geometry": { "type": "LineString", "coordinates": [ [ 17.449036, 64.183063 ], [ 25.717621, 66.413451 ] ] } },
{ "type": "Feature", "properties": { "voltage_kv": 220.0, "from_node": 96, "to_node": 122, "length_km": 422.7560164066075, "delaunay_k": 4, "edge_set": "Delaunay4" }, "geometry": { "type": "LineString", "coordinates": [ [ 17.449036, 64.183063 ], [ 26.05957, 64.965416 ] ] } },
{ "type": "Feature", "properties": { "voltage_kv": 220.0, "from_node": 96, "to_node": 123, "length_km": 548.6723798635096, "delaunay_k": 4, "edge_set": "Delaunay4" }, "geometry": { "type": "LineString", "coordinates": [ [ 17.449036, 64.183063 ], [ 26.098022, 67.596139 ] ] } },
{ "type": "Feature", "properties": { "voltage_kv": 220.0, "from_node": 96, "to_node": 130, "length_km": 508.58952895889701, "delaunay_k": 4, "edge_set": "Delaunay4" }, "geometry": { "type": "LineString", "coordinates": [ [ 17.449036, 64.183063 ], [ 27.030487, 66.33089 ] ] } },
{ "type": "Feature", "properties": { "voltage_kv": 220.0, "from_node": 96, "to_node": 131, "length_km": 759.68291720831496, "delaunay_k": 4, "edge_set": "Delaunay4" }, "geometry": { "type": "LineString", "coordinates": [ [ 17.449036, 64.183063 ], [ 27.071686, 69.862801 ] ] } },
{ "type": "Feature", "properties": { "voltage_kv": 220.0, "from_node": 96, "to_node": 135, "length_km": 675.78935196424959, "delaunay_k": 4, "edge_set": "Delaunay4" }, "geometry": { "type": "LineString", "coordinates": [ [ 17.449036, 64.183063 ], [ 27.674561, 68.645556 ] ] } },
{ "type": "Feature", "properties": { "voltage_kv": 220.0, "from_node": 97, "to_node": 112, "length_km": 299.66879619097824, "delaunay_k": 4, "edge_set": "Delaunay4" }, "geometry": { "type": "LineString", "coordinates": [ [ 17.541046, 64.996778 ], [ 23.1427, 63.842485 ] ] } },
{ "type": "Feature", "properties": { "voltage_kv": 220.0, "from_node": 97, "to_node": 119, "length_km": 389.79814498623222, "delaunay_k": 4, "edge_set": "Delaunay4" }, "geometry": { "type": "LineString", "coordinates": [ [ 17.541046, 64.996778 ], [ 25.333099, 64.045767 ] ] } },
{ "type": "Feature", "properties": { "voltage_kv": 220.0, "from_node": 97, "to_node": 124, "length_km": 407.93665545830447, "delaunay_k": 4, "edge_set": "Delaunay4" }, "geometry": { "type": "LineString", "coordinates": [ [ 17.541046, 64.996778 ], [ 26.115875, 64.778222 ] ] } },
{ "type": "Feature", "properties": { "voltage_kv": 220.0, "from_node": 97, "to_node": 126, "length_km": 427.31038662047791, "delaunay_k": 4, "edge_set": "Delaunay4" }, "geometry": { "type": "LineString", "coordinates": [ [ 17.541046, 64.996778 ], [ 26.51825, 64.759489 ] ] } },
{ "type": "Feature", "properties": { "voltage_kv": 220.0, "from_node": 97, "to_node": 127, "length_km": 452.14875283600435, "delaunay_k": 4, "edge_set": "Delaunay4" }, "geometry": { "type": "LineString", "coordinates": [ [ 17.541046, 64.996778 ], [ 26.769562, 66.378809 ] ] } },
{ "type": "Feature", "properties": { "voltage_kv": 220.0, "from_node": 97, "to_node": 128, "length_km": 508.3977146444405, "delaunay_k": 4, "edge_set": "Delaunay4" }, "geometry": { "type": "LineString", "coordinates": [ [ 17.541046, 64.996778 ], [ 26.820374, 67.602419 ] ] } },
{ "type": "Feature", "properties": { "voltage_kv": 220.0, "from_node": 97, "to_node": 132, "length_km": 679.90822860717662, "delaunay_k": 4, "edge_set": "Delaunay4" }, "geometry": { "type": "LineString", "coordinates": [ [ 17.541046, 64.996778 ], [ 27.239227, 69.817839 ] ] } },
{ "type": "Feature", "properties": { "voltage_kv": 220.0, "from_node": 97, "to_node": 133, "length_km": 511.15670897563626, "delaunay_k": 4, "edge_set": "Delaunay4" }, "geometry": { "type": "LineString", "coordinates": [ [ 17.541046, 64.996778 ], [ 27.387543, 67.23753 ] ] } },
{ "type": "Feature", "properties": { "voltage_kv": 220.0, "from_node": 97, "to_node": 134, "length_km": 481.52353045560301, "delaunay_k": 4, "edge_set": "Delaunay4" }, "geometry": { "type": "LineString", "coordinates": [ [ 17.541046, 64.996778 ], [ 27.398529, 66.450241 ] ] } },
{ "type": "Feature", "properties": { "voltage_kv": 220.0, "from_node": 97, "to_node": 136, "length_km": 522.2158019495854, "delaunay_k": 4, "edge_set": "Delaunay4" }, "geometry": { "type": "LineString", "coordinates": [ [ 17.541046, 64.996778 ], [ 28.45047, 64.58147 ] ] } },
{ "type": "Feature", "properties": { "voltage_kv": 220.0, "from_node": 97, "to_node": 137, "length_km": 743.23876071152836, "delaunay_k": 4, "edge_set": "Delaunay4" }, "geometry": { "type": "LineString", "coordinates": [ [ 17.541046, 64.996778 ], [ 28.572693, 70.163212 ] ] } },
{ "type": "Feature", "properties": { "voltage_kv": 220.0, "from_node": 110, "to_node": 111, "length_km": 341.74563942688644, "delaunay_k": 4, "edge_set": "Delaunay4" }, "geometry": { "type": "LineString", "coordinates": [ [ 22.633209, 62.789912 ], [ 23.100128, 65.837089 ] ] } },
{ "type": "Feature", "properties": { "voltage_kv": 220.0, "from_node": 110, "to_node": 115, "length_km": 393.13869038514491, "delaunay_k": 4, "edge_set": "Delaunay4" }, "geometry": { "type": "LineString", "coordinates": [ [ 22.633209, 62.789912 ], [ 25.069427, 66.140521 ] ] } },
{ "type": "Feature", "properties": { "voltage_kv": 220.0, "from_node": 110, "to_node": 120, "length_km": 413.69648240170949, "delaunay_k": 4, "edge_set": "Delaunay4" }, "geometry": { "type": "LineString", "coordinates": [ [ 22.633209, 62.789912 ], [ 25.415497, 66.285642 ] ] } },
{ "type": "Feature", "properties": { "voltage_kv": 220.0, "from_node": 110, "to_node": 127, "length_km": 448.45809468539562, "delaunay_k": 4, "edge_set": "Delaunay4" }, "geometry": { "type": "LineString", "coordinates": [ [ 22.633209, 62.789912 ], [ 26.769562, 66.378809 ] ] } },
{ "type": "Feature", "properties": { "voltage_kv": 220.0, "from_node": 110, "to_node": 134, "length_km": 469.53401153996805, "delaunay_k": 4, "edge_set": "Delaunay4" }, "geometry": { "type": "LineString", "coordinates": [ [ 22.633209, 62.789912 ], [ 27.398529, 66.450241 ] ] } },
{ "type": "Feature", "properties": { "voltage_kv": 220.0, "from_node": 111, "to_node": 113, "length_km": 325.39362976242967, "delaunay_k": 4, "edge_set": "Delaunay4" }, "geometry": { "type": "LineString", "coordinates": [ [ 23.100128, 65.837089 ], [ 24.285278, 62.976446 ] ] } },
{ "type": "Feature", "properties": { "voltage_kv": 220.0, "from_node": 111, "to_node": 117, "length_km": 413.28384735544347, "delaunay_k": 4, "edge_set": "Delaunay4" }, "geometry": { "type": "LineString", "coordinates": [ [ 23.100128, 65.837089 ], [ 25.180664, 62.261532 ] ] } },
{ "type": "Feature", "properties": { "voltage_kv": 220.0, "from_node": 112, "to_node": 116, "length_km": 418.97084480866613, "delaunay_k": 4, "edge_set": "Delaunay4" }, "geometry": { "type": "LineString", "coordinates": [ [ 23.1427, 63.842485 ], [ 25.085907, 67.498059 ] ] } },
{ "type": "Feature", "properties": { "voltage_kv": 220.0, "from_node": 112, "to_node": 121, "length_km": 312.45408452481627, "delaunay_k": 4, "edge_set": "Delaunay4" }, "geometry": { "type": "LineString", "coordinates": [ [ 23.1427, 63.842485 ], [ 25.717621, 66.413451 ] ] } },
{ "type": "Feature", "properties": { "voltage_kv": 220.0, "from_node": 112, "to_node": 133, "length_km": 428.25742904976863, "delaunay_k": 4, "edge_set": "Delaunay4" }, "geometry": { "type": "LineString", "coordinates": [ [ 23.1427, 63.842485 ], [ 27.387543, 67.23753 ] ] } },
{ "type": "Feature", "properties": { "voltage_kv": 220.0, "from_node": 113, "to_node": 115, "length_km": 356.50187380537011, "delaunay_k": 4, "edge_set": "Delaunay4" }, "geometry": { "type": "LineString", "coordinates": [ [ 24.285278, 62.976446 ], [ 25.069427, 66.140521 ] ] } },
{ "type": "Feature", "properties": { "voltage_kv": 220.0, "from_node": 113, "to_node": 120, "length_km": 374.73988362421511, "delaunay_k": 4, "edge_set": "Delaunay4" }, "geometry": { "type": "LineString", "coordinates": [ [ 24.285278, 62.976446 ], [ 25.415497, 66.285642 ] ] } },
{ "type": "Feature", "properties": { "voltage_kv": 220.0, "from_node": 113, "to_node": 127, "length_km": 399.54578867516489, "delaunay_k": 4, "edge_set": "Delaunay4" }, "geometry": { "type": "LineString", "coordinates": [ [ 24.285278, 62.976446 ], [ 26.769562, 66.378809 ] ] } },
{ "type": "Feature", "properties": { "voltage_kv": 220.0, "from_node": 113, "to_node": 133, "length_km": 499.54086673129177, "delaunay_k": 4, "edge_set": "Delaunay4" }, "geometry": { "type": "LineString", "coordinates": [ [ 24.285278, 62.976446 ], [ 27.387543, 67.23753 ] ] } },
{ "type": "Feature", "properties": { "voltage_kv": 220.0, "from_node": 114, "to_node": 118, "length_km": 461.60758176180445, "delaunay_k": 4, "edge_set": "Delaunay4" }, "geometry": { "type": "LineString", "coordinates": [ [ 24.892273, 65.995123 ], [ 25.252075, 61.880107 ] ] } },
{ "type": "Feature", "properties": { "voltage_kv": 220.0, "from_node": 114, "to_node": 132, "length_km": 439.52258690490834, "delaunay_k": 4, "edge_set": "Delaunay4" }, "geometry": { "type": "LineString", "coordinates": [ [ 24.892273, 65.995123 ], [ 27.239227, 69.817839 ] ] } },
{ "type": "Feature", "properties": { "voltage_kv": 220.0, "from_node": 114, "to_node": 137, "length_km": 491.71304920172201, "delaunay_k": 4, "edge_set": "Delaunay4" }, "geometry": { "type": "LineString", "coordinates": [ [ 24.892273, 65.995123 ], [ 28.572693, 70.163212 ] ] } },
{ "type": "Feature", "properties": { "voltage_kv": 220.0, "from_node": 115, "to_node": 117, "length_km": 434.82907291678583, "delaunay_k": 4, "edge_set": "Delaunay4" }, "geometry": { "type": "LineString", "coordinates": [ [ 25.069427, 66.140521 ], [ 25.180664, 62.261532 ] ] } },
{ "type": "Feature", "properties": { "voltage_kv": 220.0, "from_node": 116, "to_node": 119, "length_km": 387.00471159154358, "delaunay_k": 4, "edge_set": "Delaunay4" }, "geometry": { "type": "LineString", "coordinates": [ [ 25.085907, 67.498059 ], [ 25.333099, 64.045767 ] ] } },
{ "type": "Feature", "properties": { "voltage_kv": 220.0, "from_node": 116, "to_node": 124, "length_km": 308.37699571271781, "delaunay_k": 4, "edge_set": "Delaunay4" }, "geometry": { "type": "LineString", "coordinates": [ [ 25.085907, 67.498059 ], [ 26.115875, 64.778222 ] ] } },
{ "type": "Feature", "properties": { "voltage_kv": 220.0, "from_node": 116, "to_node": 125, "length_km": 318.66700884917367, "delaunay_k": 4, "edge_set": "Delaunay4" }, "geometry": { "type": "LineString", "coordinates": [ [ 25.085907, 67.498059 ], [ 26.455078, 64.709668 ] ] } },
{ "type": "Feature", "properties": { "voltage_kv": 220.0, "from_node": 116, "to_node": 129, "length_km": 339.3872166447058, "delaunay_k": 4, "edge_set": "Delaunay4" }, "geometry": { "type": "LineString", "coordinates": [ [ 25.085907, 67.498059 ], [ 26.843719, 64.556111 ] ] } },
{ "type": "Feature", "properties": { "voltage_kv": 220.0, "from_node": 117, "to_node": 120, "length_km": 451.25264146155155, "delaunay_k": 4, "edge_set": "Delaunay4" }, "geometry": { "type": "LineString", "coordinates": [ [ 25.180664, 62.261532 ], [ 25.415497, 66.285642 ] ] } },
{ "type": "Feature", "properties": { "voltage_kv": 220.0, "from_node": 117, "to_node": 127, "length_km": 468.16215325308963, "delaunay_k": 4, "edge_set": "Delaunay4" }, "geometry": { "type": "LineString", "coordinates": [ [ 25.180664, 62.261532 ], [ 26.769562, 66.378809 ] ] } },
{ "type": "Feature", "properties": { "voltage_kv": 220.0, "from_node": 117, "to_node": 133, "length_km": 567.95903132431965, "delaunay_k": 4, "edge_set": "Delaunay4" }, "geometry": { "type": "LineString", "coordinates": [ [ 25.180664, 62.261532 ], [ 27.387543, 67.23753 ] ] } },
{ "type": "Feature", "properties": { "voltage_kv": 220.0, "from_node": 118, "to_node": 126, "length_km": 329.25527639460154, "delaunay_k": 4, "edge_set": "Delaunay4" }, "geometry": { "type": "LineString", "coordinates": [ [ 25.252075, 61.880107 ], [ 26.51825, 64.759489 ] ] } },
{ "type": "Feature", "properties": { "voltage_kv": 220.0, "from_node": 118, "to_node": 130, "length_km": 506.78327812135205, "delaunay_k": 4, "edge_set": "Delaunay4" }, "geometry": { "type": "LineString", "coordinates": [ [ 25.252075, 61.880107 ], [ 27.030487, 66.33089 ] ] } },
{ "type": "Feature", "properties": { "voltage_kv": 220.0, "from_node": 118, "to_node": 134, "length_km": 523.29846125412337, "delaunay_k": 4, "edge_set": "Delaunay4" }, "geometry": { "type": "LineString", "coordinates": [ [ 25.252075, 61.880107 ], [ 27.398529, 66.450241 ] ] } },
{ "type": "Feature", "properties": { "voltage_kv": 220.0, "from_node": 119, "to_node": 123, "length_km": 399.49428017978767, "delaunay_k": 4, "edge_set": "Delaunay4" }, "geometry": { "type": "LineString", "coordinates": [ [ 25.333099, 64.045767 ], [ 26.098022, 67.596139 ] ] } },
{ "type": "Feature", "properties": { "voltage_kv": 220.0, "from_node": 119, "to_node": 128, "length_km": 404.53933410710408, "delaunay_k": 4, "edge_set": "Delaunay4" }, "geometry": { "type": "LineString", "coordinates": [ [ 25.333099, 64.045767 ], [ 26.820374, 67.602419 ] ] } },
{ "type": "Feature", "properties": { "voltage_kv": 220.0, "from_node": 119, "to_node": 135, "length_km": 526.32896098837762, "delaunay_k": 4, "edge_set": "Delaunay4" }, "geometry": { "type": "LineString", "coordinates": [ [ 25.333099, 64.045767 ], [ 27.674561, 68.645556 ] ] } },
{ "type": "Feature", "properties": { "voltage_kv": 220.0, "from_node": 122, "to_node": 123, "length_km": 294.91997825261637, "delaunay_k": 4, "edge_set": "Delaunay4" }, "geometry": { "type": "LineString", "coordinates": [ [ 26.05957, 64.965416 ], [ 26.098022, 67.596139 ] ] } },
{ "type": "Feature", "properties": { "voltage_kv": 220.0, "from_node": 122, "to_node": 128, "length_km": 297.672193246093, "delaunay_k": 4, "edge_set": "Delaunay4" }, "geometry": { "type": "LineString", "coordinates": [ [ 26.05957, 64.965416 ], [ 26.820374, 67.602419 ] ] } },
{ "type": "Feature", "properties": { "voltage_kv": 220.0, "from_node": 122, "to_node": 131, "length_km": 550.70223614362828, "delaunay_k": 4, "edge_set": "Delaunay4" }, "geometry": { "type": "LineString", "coordinates": [ [ 26.05957, 64.965416 ], [ 27.071686, 69.862801 ] ] } },
{ "type": "Feature", "properties": { "voltage_kv": 220.0, "from_node": 122, "to_node": 135, "length_km": 418.79525824978606, "delaunay_k": 4, "edge_set": "Delaunay4" }, "geometry": { "type": "LineString", "coordinates": [ [ 26.05957, 64.965416 ], [ 27.674561, 68.645556 ] ] } },
{ "type": "Feature", "properties": { "voltage_kv": 220.0, "from_node": 123, "to_node": 126, "length_km": 318.63430897455322, "delaunay_k": 4, "edge_set": "Delaunay4" }, "geometry": { "type": "LineString", "coordinates": [ [ 26.098022, 67.596139 ], [ 26.51825, 64.759489 ] ] } },
{ "type": "Feature", "properties": { "voltage_kv": 220.0, "from_node": 123, "to_node": 129, "length_km": 342.60530547352192, "delaunay_k": 4, "edge_set": "Delaunay4" }, "geometry": { "type": "LineString", "coordinates": [ [ 26.098022, 67.596139 ], [ 26.843719, 64.556111 ] ] } },
{ "type": "Feature", "properties": { "voltage_kv": 220.0, "from_node": 126, "to_node": 128, "length_km": 319.14067150050289, "delaunay_k": 4, "edge_set": "Delaunay4" }, "geometry": { "type": "LineString", "coordinates": [ [ 26.51825, 64.759489 ], [ 26.820374, 67.602419 ] ] } },
{ "type": "Feature", "properties": { "voltage_kv": 220.0, "from_node": 126, "to_node": 131, "length_km": 572.68850071271231, "delaunay_k": 4, "edge_set": "Delaunay4" }, "geometry": { "type": "LineString", "coordinates": [ [ 26.51825, 64.759489 ], [ 27.071686, 69.862801 ] ] } },
{ "type": "Feature", "properties": { "voltage_kv": 220.0, "from_node": 126, "to_node": 135, "length_km": 438.87996609577613, "delaunay_k": 4, "edge_set": "Delaunay4" }, "geometry": { "type": "LineString", "coordinates": [ [ 26.51825, 64.759489 ], [ 27.674561, 68.645556 ] ] } },
{ "type": "Feature", "properties": { "voltage_kv": 220.0, "from_node": 128, "to_node": 129, "length_km": 341.71505076357278, "delaunay_k": 4, "edge_set": "Delaunay4" }, "geometry": { "type": "LineString", "coordinates": [ [ 26.820374, 67.602419 ], [ 26.843719, 64.556111 ] ] } },
{ "type": "Feature", "properties": { "voltage_kv": 220.0, "from_node": 129, "to_node": 135, "length_km": 460.25655329147673, "delaunay_k": 4, "edge_set": "Delaunay4" }, "geometry": { "type": "LineString", "coordinates": [ [ 26.843719, 64.556111 ], [ 27.674561, 68.645556 ] ] } },
{ "type": "Feature", "properties": { "voltage_kv": 220.0, "from_node": 130, "to_node": 132, "length_km": 391.05647210552951, "delaunay_k": 4, "edge_set": "Delaunay4" }, "geometry": { "type": "LineString", "coordinates": [ [ 27.030487, 66.33089 ], [ 27.239227, 69.817839 ] ] } },
{ "type": "Feature", "properties": { "voltage_kv": 220.0, "from_node": 130, "to_node": 137, "length_km": 434.55148789245942, "delaunay_k": 4, "edge_set": "Delaunay4" }, "geometry": { "type": "LineString", "coordinates": [ [ 27.030487, 66.33089 ], [ 28.572693, 70.163212 ] ] } },
{ "type": "Feature", "properties": { "voltage_kv": 220.0, "from_node": 131, "to_node": 136, "length_km": 595.6202475091676, "delaunay_k": 4, "edge_set": "Delaunay4" }, "geometry": { "type": "LineString", "coordinates": [ [ 27.071686, 69.862801 ], [ 28.45047, 64.58147 ] ] } },
{ "type": "Feature", "properties": { "voltage_kv": 220.0, "from_node": 132, "to_node": 136, "length_km": 589.95411251556527, "delaunay_k": 4, "edge_set": "Delaunay4" }, "geometry": { "type": "LineString", "coordinates": [ [ 27.239227, 69.817839 ], [ 28.45047, 64.58147 ] ] } },
{ "type": "Feature", "properties": { "voltage_kv": 220.0, "from_node": 136, "to_node": 137, "length_km": 626.6204834330556, "delaunay_k": 4, "edge_set": "Delaunay4" }, "geometry": { "type": "LineString", "coordinates": [ [ 28.45047, 64.58147 ], [ 28.572693, 70.163212 ] ] } }
]
}
