{
"type": "FeatureCollection",
"name": "n490_380kv_delaunay4_removed_length",
"crs": { "type": "name", "properties": { "name": "urn:ogc:def:crs:OGC:1.3:CRS84" } },
"features": [
{ "type": "Feature", "properties": { "voltage_kv": 380.0, "from_node": 0, "to_node": 61, "length_km": 498.49345916699656, "delaunay_k": 4, "edge_set": "Delaunay4" }, "geometry": { "type": "LineString", "coordinates": [ [ 6.156464, 60.504583 ], [ 13.458252, 63.368755 ] ] } },
{ "type": "Feature", "properties": { "voltage_kv": 380.0, "from_node": 0, "to_node": 64, "length_km": 787.74839054474819, "delaunay_k": 4, "edge_set": "Delaunay4" }, "geometry": { "type": "LineString", "coordinates": [ [ 6.156464, 60.504583 ], [ 13.807068, 66.707884 ] ] } },
{ "type": "Feature", "properties": { "voltage_kv": 380.0, "from_node": 0, "to_node": 66, "length_km": 757.90477840995447, "delaunay_k": 4, "edge_set": "Delaunay4" }, "geometry": { "type": "LineString", "coordinates": [ [ 6.156464, 60.504583 ], [ 14.191589, 66.282328 ] ] } },
{ "type": "Feature", "properties": { "voltage_kv": 380.0, "from_node": 0, "to_node": 69, "length_km": 497.91456975444248, "delaunay_k": 4, "edge_set": "Delaunay4" }, "geometry": { "type": "LineString", "coordinates": [ [ 6.156464, 60.504583 ], [ 14.515686, 62.516121 ] ] } },
{ "type": "Feature", "properties": { "voltage_kv": 380.0, "from_node": 0, "to_node": 77, "length_km": 496.82660247041338, "delaunay_k": 4, "edge_set": "Delaunay4" }, "geometry": { "type": "LineString", "coordinates": [ [ 6.156464, 60.504583 ], [ 15.188599, 60.415208 ] ] } },
{ "type": "Feature", "properties": { "voltage_kv": 380.0, "from_node": 0, "to_node": 94, "length_km": 761.68231267746626, "delaunay_k": 4, "edge_set": "Delaunay4" }, "geometry": { "type": "LineString", "coordinates": [ [ 6.156464, 60.504583 ], [ 16.876373, 65.299207 ] ] } },
{ "type": "Feature", "properties": { "voltage_kv": 380.0, "from_node": 1, "to_node": 51, "length_km": 525.1163564765277, "delaunay_k": 4, "edge_set": "Delaunay4" }, "geometry": { "type": "LineString", "coordinates": [ [ 6.432495, 59.667741 ], [ 12.568359, 63.361367 ] ] } },
{ "type": "Feature", "properties": { "voltage_kv": 380.0, "from_node": 1, "to_node": 63, "length_km": 811.20452232765876, "delaunay_k": 4, "edge_set": "Delaunay4" }, "geometry": { "type": "LineString", "coordinates": [ [ 6.432495, 59.667741 ], [ 13.763123, 66.142743 ] ] } },
{ "type": "Feature", "properties": { "voltage_kv": 380.0, "from_node": 2, "to_node": 35, "length_km": 487.40109133455178, "delaunay_k": 4, "edge_set": "Delaunay4" }, "geometry": { "type": "LineString", "coordinates": [ [ 6.491547, 59.460431 ], [ 11.727905, 63.035662 ] ] } },
{ "type": "Feature", "properties": { "voltage_kv": 380.0, "from_node": 2, "to_node": 51, "length_km": 542.14278483309101, "delaunay_k": 4, "edge_set": "Delaunay4" }, "geometry": { "type": "LineString", "coordinates": [ [ 6.491547, 59.460431 ], [ 12.568359, 63.361367 ] ] } },
{ "type": "Feature", "properties": { "voltage_kv": 380.0, "from_node": 2, "to_node": 63, "length_km": 831.01683885855107, "delaunay_k": 4, "edge_set": "Delaunay4" }, "geometry": { "type": "LineString", "coordinates": [ [ 6.491547, 59.460431 ], [ 13.763123, 66.142743 ] ] } },
{ "type": "Feature", "properties": { "voltage_kv": 380.0, "from_node": 4, "to_node": 69, "length_km": 525.51808979808322, "delaunay_k": 4, "edge_set": "Delaunay4" }, "geometry": { "type": "LineString", "coordinates": [ [ 6.992798, 59.523872 ], [ 14.515686, 62.516121 ] ] } },
{ "type": "Feature", "properties": { "voltage_kv": 380.0, "from_node": 5, "to_node": 54, "length_km": 475.61915223870324, "delaunay_k": 4, "edge_set": "Delaunay4" }, "geometry": { "type": "LineString", "coordinates": [ [ 7.033997, 62.47807 ], [ 12.9776, 59.337392 ] ] } },
{ "type": "Feature", "properties": { "voltage_kv": 380.0, "from_node": 5, "to_node": 81, "length_km": 522.94702375783072, "delaunay_k": 4, "edge_set": "Delaunay4" }, "geometry": { "type": "LineString", "coordinates": [ [ 7.033997, 62.47807 ], [ 15.387726, 60.052503 ] ] } },
{ "type": "Feature", "properties": { "voltage_kv": 380.0, "from_node": 5, "to_node": 82, "length_km": 504.13496846850029, "delaunay_k": 4, "edge_set": "Delaunay4" }, "geometry": { "type": "LineString", "coordinates": [ [ 7.033997, 62.47807 ], [ 15.442657, 60.406393 ] ] } },
{ "type": "Feature", "properties": { "voltage_kv": 380.0, "from_node": 5, "to_node": 84, "length_km": 675.93420448851509, "delaunay_k": 4, "edge_set": "Delaunay4" }, "geometry": { "type": "LineString", "coordinates": [ [ 7.033997, 62.47807 ], [ 15.757141, 67.288485 ] ] } },
{ "type": "Feature", "properties": { "voltage_kv": 380.0, "from_node": 5, "to_node": 86, "length_km": 704.68348799095338, "delaunay_k": 4, "edge_set": "Delaunay4" }, "geometry": { "type": "LineString", "coordinates": [ [ 7.033997, 62.47807 ], [ 15.850525, 67.598233 ] ] } },
{ "type": "Feature", "properties": { "voltage_kv": 380.0, "from_node": 5, "to_node": 96, "length_km": 561.50923428979456, "delaunay_k": 4, "edge_set": "Delaunay4" }, "geometry": { "type": "LineString", "coordinates": [ [ 7.033997, 62.47807 ], [ 16.931305, 60.692679 ] ] } },
{ "type": "Feature", "properties": { "voltage_kv": 380.0, "from_node": 5, "to_node": 100, "length_km": 579.05596509597638, "delaunay_k": 4, "edge_set": "Delaunay4" }, "geometry": { "type": "LineString", "coordinates": [ [ 7.033997, 62.47807 ], [ 17.049408, 65.221045 ] ] } },
{ "type": "Feature", "properties": { "voltage_kv": 380.0, "from_node": 5, "to_node": 108, "length_km": 829.53656575749358, "delaunay_k": 4, "edge_set": "Delaunay4" }, "geometry": { "type": "LineString", "coordinates": [ [ 7.033997, 62.47807 ], [ 17.579498, 68.517173 ] ] } },
{ "type": "Feature", "properties": { "voltage_kv": 380.0, "from_node": 5, "to_node": 121, "length_km": 744.34986396229442, "delaunay_k": 4, "edge_set": "Delaunay4" }, "geometry": { "type": "LineString", "coordinates": [ [ 7.033997, 62.47807 ], [ 18.639679, 66.970387 ] ] } },
{ "type": "Feature", "properties": { "voltage_kv": 380.0, "from_node": 5, "to_node": 130, "length_km": 782.83879309677889, "delaunay_k": 4, "edge_set": "Delaunay4" }, "geometry": { "type": "LineString", "coordinates": [ [ 7.033997, 62.47807 ], [ 20.429077, 66.505049 ] ] } },
{ "type": "Feature", "properties": { "voltage_kv": 380.0, "from_node": 6, "to_node": 63, "length_km": 708.37977975453384, "delaunay_k": 4, "edge_set": "Delaunay4" }, "geometry": { "type": "LineString", "coordinates": [ [ 7.108154, 60.527563 ], [ 13.763123, 66.142743 ] ] } },
{ "type": "Feature", "properties": { "voltage_kv": 380.0, "from_node": 7, "to_node": 63, "length_km": 663.35665018377858, "delaunay_k": 4, "edge_set": "Delaunay4" }, "geometry": { "type": "LineString", "coordinates": [ [ 7.216644, 60.950443 ], [ 13.763123, 66.142743 ] ] } },
{ "type": "Feature", "properties": { "voltage_kv": 380.0, "from_node": 8, "to_node": 63, "length_km": 709.73575720900067, "delaunay_k": 4, "edge_set": "Delaunay4" }, "geometry": { "type": "LineString", "coordinates": [ [ 7.23587, 60.484968 ], [ 13.763123, 66.142743 ] ] } },
{ "type": "Feature", "properties": { "voltage_kv": 380.0, "from_node": 9, "to_node": 64, "length_km": 689.59775734488755, "delaunay_k": 4, "edge_set": "Delaunay4" }, "geometry": { "type": "LineString", "coordinates": [ [ 7.338867, 61.206798 ], [ 13.807068, 66.707884 ] ] } },
{ "type": "Feature", "properties": { "voltage_kv": 380.0, "from_node": 9, "to_node": 66, "length_km": 658.50370495347147, "delaunay_k": 4, "edge_set": "Delaunay4" }, "geometry": { "type": "LineString", "coordinates": [ [ 7.338867, 61.206798 ], [ 14.191589, 66.282328 ] ] } },
{ "type": "Feature", "properties": { "voltage_kv": 380.0, "from_node": 9, "to_node": 85, "length_km": 513.01817340253263, "delaunay_k": 4, "edge_set": "Delaunay4" }, "geometry": { "type": "LineString", "coordinates": [ [ 7.338867, 61.206798 ], [ 15.846405, 63.582177 ] ] } },
{ "type": "Feature", "properties": { "voltage_kv": 380.0, "from_node": 9, "to_node": 94, "length_km": 660.42569670200146, "delaunay_k": 4, "edge_set": "Delaunay4" }, "geometry": { "type": "LineString", "coordinates": [ [ 7.338867, 61.206798 ], [ 16.876373, 65.299207 ] ] } },
{ "type": "Feature", "properties": { "voltage_kv": 380.0, "from_node": 9, "to_node": 96, "length_km": 522.6711180787122, "delaunay_k": 4, "edge_set": "Delaunay4" }, "geometry": { "type": "LineString", "coordinates": [ [ 7.338867, 61.206798 ], [ 16.931305, 60.692679 ] ] } },
{ "type": "Feature", "properties": { "voltage_kv": 380.0, "from_node": 10, "to_node": 63, "length_km": 654.40852455240383, "delaunay_k": 4, "edge_set": "Delaunay4" }, "geometry": { "type": "LineString", "coordinates": [ [ 7.395172, 60.997087 ], [ 13.763123, 66.142743 ] ] } },
{ "type": "Feature", "properties": { "voltage_kv": 380.0, "from_node": 11, "to_node": 51, "length_km": 511.06979338616469, "delaunay_k": 4, "edge_set": "Delaunay4" }, "geometry": { "type": "LineString", "coordinates": [ [ 7.462463, 59.479266 ], [ 12.568359, 63.361367 ] ] } },
{ "type": "Feature", "properties": { "voltage_kv": 380.0, "from_node": 11, "to_node": 61, "length_km": 538.41612306682919, "delaunay_k": 4, "edge_set": "Delaunay4" }, "geometry": { "type": "LineString", "coordinates": [ [ 7.462463, 59.479266 ], [ 13.458252, 63.368755 ] ] } },
{ "type": "Feature", "properties": { "voltage_kv": 380.0, "from_node": 11, "to_node": 71, "length_km": 519.69380268221209, "delaunay_k": 4, "edge_set": "Delaunay4" }, "geometry": { "type": "LineString", "coordinates": [ [ 7.462463, 59.479266 ], [ 14.734039, 62.533228 ] ] } },
{ "type": "Feature", "properties": { "voltage_kv": 380.0, "from_node": 11, "to_node": 79, "length_km": 588.47482173900426, "delaunay_k": 4, "edge_set": "Delaunay4" }, "geometry": { "type": "LineString", "coordinates": [ [ 7.462463, 59.479266 ], [ 15.206451, 63.237956 ] ] } },
{ "type": "Feature", "properties": { "voltage_kv": 380.0, "from_node": 11, "to_node": 96, "length_km": 543.69077617043502, "delaunay_k": 4, "edge_set": "Delaunay4" }, "geometry": { "type": "LineString", "coordinates": [ [ 7.462463, 59.479266 ], [ 16.931305, 60.692679 ] ] } },
{ "type": "Feature", "properties": { "voltage_kv": 380.0, "from_node": 12, "to_node": 63, "length_km": 659.37238231674189, "delaunay_k": 4, "edge_set": "Delaunay4" }, "geometry": { "type": "LineString", "coordinates": [ [ 7.462463, 60.931767 ], [ 13.763123, 66.142743 ] ] } },
{ "type": "Feature", "properties": { "voltage_kv": 380.0, "from_node": 12, "to_node": 79, "length_km": 478.97785486220107, "delaunay_k": 4, "edge_set": "Delaunay4" }, "geometry": { "type": "LineString", "coordinates": [ [ 7.462463, 60.931767 ], [ 15.206451, 63.237956 ] ] } },
{ "type": "Feature", "properties": { "voltage_kv": 380.0, "from_node": 12, "to_node": 96, "length_km": 515.75252795902645, "delaunay_k": 4, "edge_set": "Delaunay4" }, "geometry": { "type": "LineString", "coordinates": [ [ 7.462463, 60.931767 ], [ 16.931305, 60.692679 ] ] } },
{ "type": "Feature", "properties": { "voltage_kv": 380.0, "from_node": 13, "to_node": 26, "length_km": 501.45576762755024, "delaunay_k": 4, "edge_set": "Delaunay4" }, "geometry": { "type": "LineString", "coordinates": [ [ 7.727509, 58.974791 ], [ 10.457611, 63.276888 ] ] } },
{ "type": "Feature", "properties": { "voltage_kv": 380.0, "from_node": 13, "to_node": 35, "length_km": 501.44458402623405, "delaunay_k": 4, "edge_set": "Delaunay4" }, "geometry": { "type": "LineString", "coordinates": [ [ 7.727509, 58.974791 ], [ 11.727905, 63.035662 ] ] } },
{ "type": "Feature", "properties": { "voltage_kv": 380.0, "from_node": 13, "to_node": 69, "length_km": 540.62500582054304, "delaunay_k": 4, "edge_set": "Delaunay4" }, "geometry": { "type": "LineString", "coordinates": [ [ 7.727509, 58.974791 ], [ 14.515686, 62.516121 ] ] } },
{ "type": "Feature", "properties": { "voltage_kv": 380.0, "from_node": 14, "to_node": 18, "length_km": 477.56936227786508, "delaunay_k": 4, "edge_set": "Delaunay4" }, "geometry": { "type": "LineString", "coordinates": [ [ 7.7948, 62.526259 ], [ 8.102417, 58.2445 ] ] } },
{ "type": "Feature", "properties": { "voltage_kv": 380.0, "from_node": 14, "to_node": 64, "length_km": 547.33568567611348, "delaunay_k": 4, "edge_set": "Delaunay4" }, "geometry": { "type": "LineString", "coordinates": [ [ 7.7948, 62.526259 ], [ 13.807068, 66.707884 ] ] } },
{ "type": "Feature", "properties": { "voltage_kv": 380.0, "from_node": 14, "to_node": 66, "length_km": 519.61506608964601, "delaunay_k": 4, "edge_set": "Delaunay4" }, "geometry": { "type": "LineString", "coordinates": [ [ 7.7948, 62.526259 ], [ 14.191589, 66.282328 ] ] } },
{ "type": "Feature", "properties": { "voltage_kv": 380.0, "from_node": 14, "to_node": 81, "length_km": 491.25351567429163, "delaunay_k": 4, "edge_set": "Delaunay4" }, "geometry": { "type": "LineString", "coordinates": [ [ 7.7948, 62.526259 ], [ 15.387726, 60.052503 ] ] } },
{ "type": "Feature", "properties": { "voltage_kv": 380.0, "from_node": 14, "to_node": 94, "length_km": 541.78271832717508, "delaunay_k": 4, "edge_set": "Delaunay4" }, "geometry": { "type": "LineString", "coordinates": [ [ 7.7948, 62.526259 ], [ 16.876373, 65.299207 ] ] } },
{ "type": "Feature", "properties": { "voltage_kv": 380.0, "from_node": 14, "to_node": 96, "length_km": 525.72560916848033, "delaunay_k": 4, "edge_set": "Delaunay4" }, "geometry": { "type": "LineString", "coordinates": [ [ 7.7948, 62.526259 ], [ 16.931305, 60.692679 ] ] } },
{ "type": "Feature", "properties": { "voltage_kv": 380.0, "from_node": 15, "to_node": 63, "length_km": 680.29888709871261, "delaunay_k": 4, "edge_set": "Delaunay4" }, "geometry": { "type": "LineString", "coordinates": [ [ 7.893677, 60.630775 ], [ 13.763123, 66.142743 ] ] } },
{ "type": "Feature", "properties": { "voltage_kv": 380.0, "from_node": 15, "to_node": 79, "length_km": 481.14566056051427, "delaunay_k": 4, "edge_set": "Delaunay4" }, "geometry": { "type": "LineString", "coordinates": [ [ 7.893677, 60.630775 ], [ 15.206451, 63.237956 ] ] } },
{ "type": "Feature", "properties": { "voltage_kv": 380.0, "from_node": 15, "to_node": 96, "length_km": 494.00090273739238, "delaunay_k": 4, "edge_set": "Delaunay4" }, "geometry": { "type": "LineString", "coordinates": [ [ 7.893677, 60.630775 ], [ 16.931305, 60.692679 ] ] } },
{ "type": "Feature", "properties": { "voltage_kv": 380.0, "from_node": 16, "to_node": 64, "length_km": 729.48969674384659, "delaunay_k": 4, "edge_set": "Delaunay4" }, "geometry": { "type": "LineString", "coordinates": [ [ 8.084564, 60.670488 ], [ 13.807068, 66.707884 ] ] } },
{ "type": "Feature", "properties": { "voltage_kv": 380.0, "from_node": 16, "to_node": 66, "length_km": 695.00742861480364, "delaunay_k": 4, "edge_set": "Delaunay4" }, "geometry": { "type": "LineString", "coordinates": [ [ 8.084564, 60.670488 ], [ 14.191589, 66.282328 ] ] } },
{ "type": "Feature", "properties": { "voltage_kv": 380.0, "from_node": 16, "to_node": 85, "length_km": 518.48682129002054, "delaunay_k": 4, "edge_set": "Delaunay4" }, "geometry": { "type": "LineString", "coordinates": [ [ 8.084564, 60.670488 ], [ 15.846405, 63.582177 ] ] } },
{ "type": "Feature", "properties": { "voltage_kv": 380.0, "from_node": 16, "to_node": 89, "length_km": 531.69119936428865, "delaunay_k": 4, "edge_set": "Delaunay4" }, "geometry": { "type": "LineString", "coordinates": [ [ 8.084564, 60.670488 ], [ 16.254272, 63.524685 ] ] } },
{ "type": "Feature", "properties": { "voltage_kv": 380.0, "from_node": 16, "to_node": 94, "length_km": 680.73211974948708, "delaunay_k": 4, "edge_set": "Delaunay4" }, "geometry": { "type": "LineString", "coordinates": [ [ 8.084564, 60.670488 ], [ 16.876373, 65.299207 ] ] } },
{ "type": "Feature", "properties": { "voltage_kv": 380.0, "from_node": 16, "to_node": 97, "length_km": 486.53833732904542, "delaunay_k": 4, "edge_set": "Delaunay4" }, "geometry": { "type": "LineString", "coordinates": [ [ 8.084564, 60.670488 ], [ 16.972504, 60.570102 ] ] } },
{ "type": "Feature", "properties": { "voltage_kv": 380.0, "from_node": 16, "to_node": 98, "length_km": 517.83374620249083, "delaunay_k": 4, "edge_set": "Delaunay4" }, "geometry": { "type": "LineString", "coordinates": [ [ 8.084564, 60.670488 ], [ 17.024689, 62.540828 ] ] } },
{ "type": "Feature", "properties": { "voltage_kv": 380.0, "from_node": 16, "to_node": 99, "length_km": 490.00224902560319, "delaunay_k": 4, "edge_set": "Delaunay4" }, "geometry": { "type": "LineString", "coordinates": [ [ 8.084564, 60.670488 ], [ 17.045288, 60.624713 ] ] } },
{ "type": "Feature", "properties": { "voltage_kv": 380.0, "from_node": 16, "to_node": 102, "length_km": 552.69493121960693, "delaunay_k": 4, "edge_set": "Delaunay4" }, "geometry": { "type": "LineString", "coordinates": [ [ 8.084564, 60.670488 ], [ 17.167511, 63.184727 ] ] } },
{ "type": "Feature", "properties": { "voltage_kv": 380.0, "from_node": 16, "to_node": 105, "length_km": 523.45807532982144, "delaunay_k": 4, "edge_set": "Delaunay4" }, "geometry": { "type": "LineString", "coordinates": [ [ 8.084564, 60.670488 ], [ 17.329559, 59.716945 ] ] } },
{ "type": "Feature", "properties": { "voltage_kv": 380.0, "from_node": 16, "to_node": 106, "length_km": 536.64450099312944, "delaunay_k": 4, "edge_set": "Delaunay4" }, "geometry": { "type": "LineString", "coordinates": [ [ 8.084564, 60.670488 ], [ 17.468262, 62.460297 ] ] } },
{ "type": "Feature", "properties": { "voltage_kv": 380.0, "from_node": 16, "to_node": 113, "length_km": 544.25017711062014, "delaunay_k": 4, "edge_set": "Delaunay4" }, "geometry": { "type": "LineString", "coordinates": [ [ 8.084564, 60.670488 ], [ 18.020325, 60.532293 ] ] } },
{ "type": "Feature", "properties": { "voltage_kv": 380.0, "from_node": 17, "to_node": 63, "length_km": 688.5231626687488, "delaunay_k": 4, "edge_set": "Delaunay4" }, "geometry": { "type": "LineString", "coordinates": [ [ 8.088684, 60.511343 ], [ 13.763123, 66.142743 ] ] } },
{ "type": "Feature", "properties": { "voltage_kv": 380.0, "from_node": 17, "to_node": 79, "length_km": 481.87103603837738, "delaunay_k": 4, "edge_set": "Delaunay4" }, "geometry": { "type": "LineString", "coordinates": [ [ 8.088684, 60.511343 ], [ 15.206451, 63.237956 ] ] } },
{ "type": "Feature", "properties": { "voltage_kv": 380.0, "from_node": 17, "to_node": 96, "length_km": 484.62444289842165, "delaunay_k": 4, "edge_set": "Delaunay4" }, "geometry": { "type": "LineString", "coordinates": [ [ 8.088684, 60.511343 ], [ 16.931305, 60.692679 ] ] } },
{ "type": "Feature", "properties": { "voltage_kv": 380.0, "from_node": 18, "to_node": 19, "length_km": 494.78831491138095, "delaunay_k": 4, "edge_set": "Delaunay4" }, "geometry": { "type": "LineString", "coordinates": [ [ 8.102417, 58.2445 ], [ 8.480072, 62.679816 ] ] } },
{ "type": "Feature", "properties": { "voltage_kv": 380.0, "from_node": 18, "to_node": 26, "length_km": 575.25424132764363, "delaunay_k": 4, "edge_set": "Delaunay4" }, "geometry": { "type": "LineString", "coordinates": [ [ 8.102417, 58.2445 ], [ 10.457611, 63.276888 ] ] } },
{ "type": "Feature", "properties": { "voltage_kv": 380.0, "from_node": 18, "to_node": 35, "length_km": 569.3704275356813, "delaunay_k": 4, "edge_set": "Delaunay4" }, "geometry": { "type": "LineString", "coordinates": [ [ 8.102417, 58.2445 ], [ 11.727905, 63.035662 ] ] } },
{ "type": "Feature", "properties": { "voltage_kv": 380.0, "from_node": 18, "to_node": 69, "length_km": 592.4960209409054, "delaunay_k": 4, "edge_set": "Delaunay4" }, "geometry": { "type": "LineString", "coordinates": [ [ 8.102417, 58.2445 ], [ 14.515686, 62.516121 ] ] } },
{ "type": "Feature", "properties": { "voltage_kv": 380.0, "from_node": 19, "to_node": 44, "length_km": 530.60314572819391, "delaunay_k": 4, "edge_set": "Delaunay4" }, "geometry": { "type": "LineString", "coordinates": [ [ 8.480072, 62.679816 ], [ 12.299194, 58.304438 ] ] } },
{ "type": "Feature", "properties": { "voltage_kv": 380.0, "from_node": 19, "to_node": 65, "length_km": 545.51150372933171, "delaunay_k": 4, "edge_set": "Delaunay4" }, "geometry": { "type": "LineString", "coordinates": [ [ 8.480072, 62.679816 ], [ 13.878479, 58.56109 ] ] } },
{ "type": "Feature", "properties": { "voltage_kv": 380.0, "from_node": 19, "to_node": 75, "length_km": 541.64574979211943, "delaunay_k": 4, "edge_set": "Delaunay4" }, "geometry": { "type": "LineString", "coordinates": [ [ 8.480072, 62.679816 ], [ 15.125427, 59.05115 ] ] } },
{ "type": "Feature", "properties": { "voltage_kv": 380.0, "from_node": 19, "to_node": 76, "length_km": 533.24820720301329, "delaunay_k": 4, "edge_set": "Delaunay4" }, "geometry": { "type": "LineString", "coordinates": [ [ 8.480072, 62.679816 ], [ 15.184479, 59.173817 ] ] } },
{ "type": "Feature", "properties": { "voltage_kv": 380.0, "from_node": 19, "to_node": 80, "length_km": 510.54626211895476, "delaunay_k": 4, "edge_set": "Delaunay4" }, "geometry": { "type": "LineString", "coordinates": [ [ 8.480072, 62.679816 ], [ 15.231171, 59.466013 ] ] } },
{ "type": "Feature", "properties": { "voltage_kv": 380.0, "from_node": 19, "to_node": 84, "length_km": 617.28595906729629, "delaunay_k": 4, "edge_set": "Delaunay4" }, "geometry": { "type": "LineString", "coordinates": [ [ 8.480072, 62.679816 ], [ 15.757141, 67.288485 ] ] } },
{ "type": "Feature", "properties": { "voltage_kv": 380.0, "from_node": 19, "to_node": 86, "length_km": 647.481343048025, "delaunay_k": 4, "edge_set": "Delaunay4" }, "geometry": { "type": "LineString", "coordinates": [ [ 8.480072, 62.679816 ], [ 15.850525, 67.598233 ] ] } },
{ "type": "Feature", "properties": { "voltage_kv": 380.0, "from_node": 19, "to_node": 97, "length_km": 507.72794015403173, "delaunay_k": 4, "edge_set": "Delaunay4" }, "geometry": { "type": "LineString", "coordinates": [ [ 8.480072, 62.679816 ], [ 16.972504, 60.570102 ] ] } },
{ "type": "Feature", "properties": { "voltage_kv": 380.0, "from_node": 19, "to_node": 99, "length_km": 508.03129911434615, "delaunay_k": 4, "edge_set": "Delaunay4" }, "geometry": { "type": "LineString", "coordinates": [ [ 8.480072, 62.679816 ], [ 17.045288, 60.624713 ] ] } },
{ "type": "Feature", "properties": { "voltage_kv": 380.0, "from_node": 19, "to_node": 100, "length_km": 506.11917986772954, "delaunay_k": 4, "edge_set": "Delaunay4" }, "geometry": { "type": "LineString", "coordinates": [ [ 8.480072, 62.679816 ], [ 17.049408, 65.221045 ] ] } },
{ "type": "Feature", "properties": { "voltage_kv": 380.0, "from_node": 19, "to_node": 105, "length_km": 578.59069304361049, "delaunay_k": 4, "edge_set": "Delaunay4" }, "geometry": { "type": "LineString", "coordinates": [ [ 8.480072, 62.679816 ], [ 17.329559, 59.716945 ] ] } },
{ "type": "Feature", "properties": { "voltage_kv": 380.0, "from_node": 19, "to_node": 107, "length_km": 514.78981665786762, "delaunay_k": 4, "edge_set": "Delaunay4" }, "geometry": { "type": "LineString", "coordinates": [ [ 8.480072, 62.679816 ], [ 17.541046, 64.996778 ] ] } },
{ "type": "Feature", "properties": { "voltage_kv": 380.0, "from_node": 19, "to_node": 108, "length_km": 772.85161946607252, "delaunay_k": 4, "edge_set": "Delaunay4" }, "geometry": { "type": "LineString", "coordinates": [ [ 8.480072, 62.679816 ], [ 17.579498, 68.517173 ] ] } },
{ "type": "Feature", "properties": { "voltage_kv": 380.0, "from_node": 19, "to_node": 113, "length_km": 559.57051238990209, "delaunay_k": 4, "edge_set": "Delaunay4" }, "geometry": { "type": "LineString", "coordinates": [ [ 8.480072, 62.679816 ], [ 18.020325, 60.532293 ] ] } },
{ "type": "Feature", "properties": { "voltage_kv": 380.0, "from_node": 19, "to_node": 121, "length_km": 678.05412956371345, "delaunay_k": 4, "edge_set": "Delaunay4" }, "geometry": { "type": "LineString", "coordinates": [ [ 8.480072, 62.679816 ], [ 18.639679, 66.970387 ] ] } },
{ "type": "Feature", "properties": { "voltage_kv": 380.0, "from_node": 19, "to_node": 130, "length_km": 712.17233411447717, "delaunay_k": 4, "edge_set": "Delaunay4" }, "geometry": { "type": "LineString", "coordinates": [ [ 8.480072, 62.679816 ], [ 20.429077, 66.505049 ] ] } },
{ "type": "Feature", "properties": { "voltage_kv": 380.0, "from_node": 20, "to_node": 63, "length_km": 694.62448377779663, "delaunay_k": 4, "edge_set": "Delaunay4" }, "geometry": { "type": "LineString", "coordinates": [ [ 8.596802, 60.357527 ], [ 13.763123, 66.142743 ] ] } },
{ "type": "Feature", "properties": { "voltage_kv": 380.0, "from_node": 20, "to_node": 85, "length_km": 522.71380458908641, "delaunay_k": 4, "edge_set": "Delaunay4" }, "geometry": { "type": "LineString", "coordinates": [ [ 8.596802, 60.357527 ], [ 15.846405, 63.582177 ] ] } },
{ "type": "Feature", "properties": { "voltage_kv": 380.0, "from_node": 20, "to_node": 89, "length_km": 534.45654113188687, "delaunay_k": 4, "edge_set": "Delaunay4" }, "geometry": { "type": "LineString", "coordinates": [ [ 8.596802, 60.357527 ], [ 16.254272, 63.524685 ] ] } },
{ "type": "Feature", "properties": { "voltage_kv": 380.0, "from_node": 20, "to_node": 94, "length_km": 692.86118435181845, "delaunay_k": 4, "edge_set": "Delaunay4" }, "geometry": { "type": "LineString", "coordinates": [ [ 8.596802, 60.357527 ], [ 16.876373, 65.299207 ] ] } },
{ "type": "Feature", "properties": { "voltage_kv": 380.0, "from_node": 20, "to_node": 98, "length_km": 510.76897742120167, "delaunay_k": 4, "edge_set": "Delaunay4" }, "geometry": { "type": "LineString", "coordinates": [ [ 8.596802, 60.357527 ], [ 17.024689, 62.540828 ] ] } },
{ "type": "Feature", "properties": { "voltage_kv": 380.0, "from_node": 20, "to_node": 102, "length_km": 550.7978789846369, "delaunay_k": 4, "edge_set": "Delaunay4" }, "geometry": { "type": "LineString", "coordinates": [ [ 8.596802, 60.357527 ], [ 17.167511, 63.184727 ] ] } },
{ "type": "Feature", "properties": { "voltage_kv": 380.0, "from_node": 20, "to_node": 105, "length_km": 491.74581101479737, "delaunay_k": 4, "edge_set": "Delaunay4" }, "geometry": { "type": "LineString", "coordinates": [ [ 8.596802, 60.357527 ], [ 17.329559, 59.716945 ] ] } },
{ "type": "Feature", "properties": { "voltage_kv": 380.0, "from_node": 20, "to_node": 106, "length_km": 528.17824105641853, "delaunay_k": 4, "edge_set": "Delaunay4" }, "geometry": { "type": "LineString", "coordinates": [ [ 8.596802, 60.357527 ], [ 17.468262, 62.460297 ] ] } },
{ "type": "Feature", "properties": { "voltage_kv": 380.0, "from_node": 20, "to_node": 113, "length_km": 518.89804989427705, "delaunay_k": 4, "edge_set": "Delaunay4" }, "geometry": { "type": "LineString", "coordinates": [ [ 8.596802, 60.357527 ], [ 18.020325, 60.532293 ] ] } },
{ "type": "Feature", "properties": { "voltage_kv": 380.0, "from_node": 21, "to_node": 63, "length_km": 700.12722239592244, "delaunay_k": 4, "edge_set": "Delaunay4" }, "geometry": { "type": "LineString", "coordinates": [ [ 9.026642, 60.232994 ], [ 13.763123, 66.142743 ] ] } },
{ "type": "Feature", "properties": { "voltage_kv": 380.0, "from_node": 21, "to_node": 85, "length_km": 517.03770279190837, "delaunay_k": 4, "edge_set": "Delaunay4" }, "geometry": { "type": "LineString", "coordinates": [ [ 9.026642, 60.232994 ], [ 15.846405, 63.582177 ] ] } },
{ "type": "Feature", "properties": { "voltage_kv": 380.0, "from_node": 21, "to_node": 89, "length_km": 527.85911026389465, "delaunay_k": 4, "edge_set": "Delaunay4" }, "geometry": { "type": "LineString", "coordinates": [ [ 9.026642, 60.232994 ], [ 16.254272, 63.524685 ] ] } },
{ "type": "Feature", "properties": { "voltage_kv": 380.0, "from_node": 21, "to_node": 94, "length_km": 691.6069273452614, "delaunay_k": 4, "edge_set": "Delaunay4" }, "geometry": { "type": "LineString", "coordinates": [ [ 9.026642, 60.232994 ], [ 16.876373, 65.299207 ] ] } },
{ "type": "Feature", "properties": { "voltage_kv": 380.0, "from_node": 21, "to_node": 98, "length_km": 498.50881097780876, "delaunay_k": 4, "edge_set": "Delaunay4" }, "geometry": { "type": "LineString", "coordinates": [ [ 9.026642, 60.232994 ], [ 17.024689, 62.540828 ] ] } },
{ "type": "Feature", "properties": { "voltage_kv": 380.0, "from_node": 21, "to_node": 102, "length_km": 541.38733443630122, "delaunay_k": 4, "edge_set": "Delaunay4" }, "geometry": { "type": "LineString", "coordinates": [ [ 9.026642, 60.232994 ], [ 17.167511, 63.184727 ] ] } },
{ "type": "Feature", "properties": { "voltage_kv": 380.0, "from_node": 21, "to_node": 106, "length_km": 515.07163178825238, "delaunay_k": 4, "edge_set": "Delaunay4" }, "geometry": { "type": "LineString", "coordinates": [ [ 9.026642, 60.232994 ], [ 17.468262, 62.460297 ] ] } },
{ "type": "Feature", "properties": { "voltage_kv": 380.0, "from_node": 21, "to_node": 113, "length_km": 496.98656568088364, "delaunay_k": 4, "edge_set": "Delaunay4" }, "geometry": { "type": "LineString", "coordinates": [ [ 9.026642, 60.232994 ], [ 18.020325, 60.532293 ] ] } },
{ "type": "Feature", "properties": { "voltage_kv": 380.0, "from_node": 22, "to_node": 51, "length_km": 481.57776406439365, "delaunay_k": 4, "edge_set": "Delaunay4" }, "geometry": { "type": "LineString", "coordinates": [ [ 9.593811, 59.282019 ], [ 12.568359, 63.361367 ] ] } },
{ "type": "Feature", "properties": { "voltage_kv": 380.0, "from_node": 22, "to_node": 61, "length_km": 500.03241083196849, "delaunay_k": 4, "edge_set": "Delaunay4" }, "geometry": { "type": "LineString", "coordinates": [ [ 9.593811, 59.282019 ], [ 13.458252, 63.368755 ] ] } },
{ "type": "Feature", "properties": { "voltage_kv": 380.0, "from_node": 22, "to_node": 79, "length_km": 533.53998656699923, "delaunay_k": 4, "edge_set": "Delaunay4" }, "geometry": { "type": "LineString", "coordinates": [ [ 9.593811, 59.282019 ], [ 15.206451, 63.237956 ] ] } },
{ "type": "Feature", "properties": { "voltage_kv": 380.0, "from_node": 23, "to_node": 63, "length_km": 687.66153322809316, "delaunay_k": 4, "edge_set": "Delaunay4" }, "geometry": { "type": "LineString", "coordinates": [ [ 10.092316, 60.198203 ], [ 13.763123, 66.142743 ] ] } },
{ "type": "Feature", "properties": { "voltage_kv": 380.0, "from_node": 23, "to_node": 85, "length_km": 483.21196454770876, "delaunay_k": 4, "edge_set": "Delaunay4" }, "geometry": { "type": "LineString", "coordinates": [ [ 10.092316, 60.198203 ], [ 15.846405, 63.582177 ] ] } },
{ "type": "Feature", "properties": { "voltage_kv": 380.0, "from_node": 23, "to_node": 89, "length_km": 492.24569963353952, "delaunay_k": 4, "edge_set": "Delaunay4" }, "geometry": { "type": "LineString", "coordinates": [ [ 10.092316, 60.198203 ], [ 16.254272, 63.524685 ] ] } },
{ "type": "Feature", "properties": { "voltage_kv": 380.0, "from_node": 23, "to_node": 94, "length_km": 665.25822264788656, "delaunay_k": 4, "edge_set": "Delaunay4" }, "geometry": { "type": "LineString", "coordinates": [ [ 10.092316, 60.198203 ], [ 16.876373, 65.299207 ] ] } },
{ "type": "Feature", "properties": { "voltage_kv": 380.0, "from_node": 23, "to_node": 102, "length_km": 500.64813307505278, "delaunay_k": 4, "edge_set": "Delaunay4" }, "geometry": { "type": "LineString", "coordinates": [ [ 10.092316, 60.198203 ], [ 17.167511, 63.184727 ] ] } },
{ "type": "Feature", "properties": { "voltage_kv": 380.0, "from_node": 24, "to_node": 64, "length_km": 733.58429177304038, "delaunay_k": 4, "edge_set": "Delaunay4" }, "geometry": { "type": "LineString", "coordinates": [ [ 10.214539, 60.322868 ], [ 13.807068, 66.707884 ] ] } },
{ "type": "Feature", "properties": { "voltage_kv": 380.0, "from_node": 24, "to_node": 66, "length_km": 693.2672558787126, "delaunay_k": 4, "edge_set": "Delaunay4" }, "geometry": { "type": "LineString", "coordinates": [ [ 10.214539, 60.322868 ], [ 14.191589, 66.282328 ] ] } },
{ "type": "Feature", "properties": { "voltage_kv": 380.0, "from_node": 24, "to_node": 92, "length_km": 488.7797523103564, "delaunay_k": 4, "edge_set": "Delaunay4" }, "geometry": { "type": "LineString", "coordinates": [ [ 10.214539, 60.322868 ], [ 16.663513, 63.486702 ] ] } },
{ "type": "Feature", "properties": { "voltage_kv": 380.0, "from_node": 24, "to_node": 93, "length_km": 505.66206410114711, "delaunay_k": 4, "edge_set": "Delaunay4" }, "geometry": { "type": "LineString", "coordinates": [ [ 10.214539, 60.322868 ], [ 16.791229, 63.646259 ] ] } },
{ "type": "Feature", "properties": { "voltage_kv": 380.0, "from_node": 24, "to_node": 95, "length_km": 502.99742688028516, "delaunay_k": 4, "edge_set": "Delaunay4" }, "geometry": { "type": "LineString", "coordinates": [ [ 10.214539, 60.322868 ], [ 16.923065, 63.549164 ] ] } },
{ "type": "Feature", "properties": { "voltage_kv": 380.0, "from_node": 24, "to_node": 100, "length_km": 647.34653226832006, "delaunay_k": 4, "edge_set": "Delaunay4" }, "geometry": { "type": "LineString", "coordinates": [ [ 10.214539, 60.322868 ], [ 17.049408, 65.221045 ] ] } },
{ "type": "Feature", "properties": { "voltage_kv": 380.0, "from_node": 24, "to_node": 107, "length_km": 641.53202143541012, "delaunay_k": 4, "edge_set": "Delaunay4" }, "geometry": { "type": "LineString", "coordinates": [ [ 10.214539, 60.322868 ], [ 17.541046, 64.996778 ] ] } },
{ "type": "Feature", "properties": { "voltage_kv": 380.0, "from_node": 24, "to_node": 119, "length_km": 543.86986687936428, "delaunay_k": 4, "edge_set": "Delaunay4" }, "geometry": { "type": "LineString", "coordinates": [ [ 10.214539, 60.322868 ], [ 18.242798, 63.401361 ] ] } },
{ "type": "Feature", "properties": { "voltage_kv": 380.0, "from_node": 24, "to_node": 121, "length_km": 849.13880144950974, "delaunay_k": 4, "edge_set": "Delaunay4" }, "geometry": { "type": "LineString", "coordinates": [ [ 10.214539, 60.322868 ], [ 18.639679, 66.970387 ] ] } },
{ "type": "Feature", "properties": { "voltage_kv": 380.0, "from_node": 24, "to_node": 130, "length_km": 855.72792064175871, "delaunay_k": 4, "edge_set": "Delaunay4" }, "geometry": { "type": "LineString", "coordinates": [ [ 10.214539, 60.322868 ], [ 20.429077, 66.505049 ] ] } },
{ "type": "Feature", "properties": { "voltage_kv": 380.0, "from_node": 25, "to_node": 106, "length_km": 480.87150405798394, "delaunay_k": 4, "edge_set": "Delaunay4" }, "geometry": { "type": "LineString", "coordinates": [ [ 10.288696, 59.88687 ], [ 17.468262, 62.460297 ] ] } },
{ "type": "Feature", "properties": { "voltage_kv": 380.0, "from_node": 26, "to_node": 104, "length_km": 627.51858406879853, "delaunay_k": 4, "edge_set": "Delaunay4" }, "geometry": { "type": "LineString", "coordinates": [ [ 10.457611, 63.276888 ], [ 17.288361, 68.158786 ] ] } },
{ "type": "Feature", "properties": { "voltage_kv": 380.0, "from_node": 26, "to_node": 112, "length_km": 595.66635919658529, "delaunay_k": 4, "edge_set": "Delaunay4" }, "geometry": { "type": "LineString", "coordinates": [ [ 10.457611, 63.276888 ], [ 17.992859, 67.610267 ] ] } },
{ "type": "Feature", "properties": { "voltage_kv": 380.0, "from_node": 26, "to_node": 120, "length_km": 596.07731206969459, "delaunay_k": 4, "edge_set": "Delaunay4" }, "geometry": { "type": "LineString", "coordinates": [ [ 10.457611, 63.276888 ], [ 18.366394, 67.492803 ] ] } },
{ "type": "Feature", "properties": { "voltage_kv": 380.0, "from_node": 26, "to_node": 122, "length_km": 744.85453561768588, "delaunay_k": 4, "edge_set": "Delaunay4" }, "geometry": { "type": "LineString", "coordinates": [ [ 10.457611, 63.276888 ], [ 18.864899, 69.038124 ] ] } },
{ "type": "Feature", "properties": { "voltage_kv": 380.0, "from_node": 26, "to_node": 125, "length_km": 491.83850323087387, "delaunay_k": 4, "edge_set": "Delaunay4" }, "geometry": { "type": "LineString", "coordinates": [ [ 10.457611, 63.276888 ], [ 19.736938, 65.032742 ] ] } },
{ "type": "Feature", "properties": { "voltage_kv": 380.0, "from_node": 26, "to_node": 126, "length_km": 594.33222654614519, "delaunay_k": 4, "edge_set": "Delaunay4" }, "geometry": { "type": "LineString", "coordinates": [ [ 10.457611, 63.276888 ], [ 19.864655, 66.843267 ] ] } },
{ "type": "Feature", "properties": { "voltage_kv": 380.0, "from_node": 26, "to_node": 127, "length_km": 603.46881919913449, "delaunay_k": 4, "edge_set": "Delaunay4" }, "geometry": { "type": "LineString", "coordinates": [ [ 10.457611, 63.276888 ], [ 19.866028, 66.975221 ] ] } },
{ "type": "Feature", "properties": { "voltage_kv": 380.0, "from_node": 26, "to_node": 128, "length_km": 592.85075044103087, "delaunay_k": 4, "edge_set": "Delaunay4" }, "geometry": { "type": "LineString", "coordinates": [ [ 10.457611, 63.276888 ], [ 20.037689, 66.729595 ] ] } },
{ "type": "Feature", "properties": { "voltage_kv": 380.0, "from_node": 26, "to_node": 131, "length_km": 604.02229421142601, "delaunay_k": 4, "edge_set": "Delaunay4" }, "geometry": { "type": "LineString", "coordinates": [ [ 10.457611, 63.276888 ], [ 20.452423, 66.669299 ] ] } },
{ "type": "Feature", "properties": { "voltage_kv": 380.0, "from_node": 26, "to_node": 135, "length_km": 607.06457886819499, "delaunay_k": 4, "edge_set": "Delaunay4" }, "geometry": { "type": "LineString", "coordinates": [ [ 10.457611, 63.276888 ], [ 21.656799, 65.826407 ] ] } },
{ "type": "Feature", "properties": { "voltage_kv": 380.0, "from_node": 26, "to_node": 145, "length_km": 671.92263025476973, "delaunay_k": 4, "edge_set": "Delaunay4" }, "geometry": { "type": "LineString", "coordinates": [ [ 10.457611, 63.276888 ], [ 23.072662, 65.938074 ] ] } },
{ "type": "Feature", "properties": { "voltage_kv": 380.0, "from_node": 29, "to_node": 63, "length_km": 704.84090773944899, "delaunay_k": 4, "edge_set": "Delaunay4" }, "geometry": { "type": "LineString", "coordinates": [ [ 10.839386, 59.958448 ], [ 13.763123, 66.142743 ] ] } },
{ "type": "Feature", "properties": { "voltage_kv": 380.0, "from_node": 29, "to_node": 85, "length_km": 482.43371372130827, "delaunay_k": 4, "edge_set": "Delaunay4" }, "geometry": { "type": "LineString", "coordinates": [ [ 10.839386, 59.958448 ], [ 15.846405, 63.582177 ] ] } },
{ "type": "Feature", "properties": { "voltage_kv": 380.0, "from_node": 29, "to_node": 89, "length_km": 489.46858084801363, "delaunay_k": 4, "edge_set": "Delaunay4" }, "geometry": { "type": "LineString", "coordinates": [ [ 10.839386, 59.958448 ], [ 16.254272, 63.524685 ] ] } },
{ "type": "Feature", "properties": { "voltage_kv": 380.0, "from_node": 29, "to_node": 94, "length_km": 670.52981693065431, "delaunay_k": 4, "edge_set": "Delaunay4" }, "geometry": { "type": "LineString", "coordinates": [ [ 10.839386, 59.958448 ], [ 16.876373, 65.299207 ] ] } },
{ "type": "Feature", "properties": { "voltage_kv": 380.0, "from_node": 29, "to_node": 102, "length_km": 491.98450063697521, "delaunay_k": 4, "edge_set": "Delaunay4" }, "geometry": { "type": "LineString", "coordinates": [ [ 10.839386, 59.958448 ], [ 17.167511, 63.184727 ] ] } },
{ "type": "Feature", "properties": { "voltage_kv": 380.0, "from_node": 29, "to_node": 119, "length_km": 548.13510133568536, "delaunay_k": 4, "edge_set": "Delaunay4" }, "geometry": { "type": "LineString", "coordinates": [ [ 10.839386, 59.958448 ], [ 18.242798, 63.401361 ] ] } },
{ "type": "Feature", "properties": { "voltage_kv": 380.0, "from_node": 31, "to_node": 79, "length_km": 487.12853269921783, "delaunay_k": 4, "edge_set": "Delaunay4" }, "geometry": { "type": "LineString", "coordinates": [ [ 11.181335, 59.317776 ], [ 15.206451, 63.237956 ] ] } },
{ "type": "Feature", "properties": { "voltage_kv": 380.0, "from_node": 31, "to_node": 98, "length_km": 478.74597119109751, "delaunay_k": 4, "edge_set": "Delaunay4" }, "geometry": { "type": "LineString", "coordinates": [ [ 11.181335, 59.317776 ], [ 17.024689, 62.540828 ] ] } },
{ "type": "Feature", "properties": { "voltage_kv": 380.0, "from_node": 31, "to_node": 106, "length_km": 488.8057666965729, "delaunay_k": 4, "edge_set": "Delaunay4" }, "geometry": { "type": "LineString", "coordinates": [ [ 11.181335, 59.317776 ], [ 17.468262, 62.460297 ] ] } },
{ "type": "Feature", "properties": { "voltage_kv": 380.0, "from_node": 33, "to_node": 61, "length_km": 483.00423369312404, "delaunay_k": 4, "edge_set": "Delaunay4" }, "geometry": { "type": "LineString", "coordinates": [ [ 11.409302, 59.147769 ], [ 13.458252, 63.368755 ] ] } },
{ "type": "Feature", "properties": { "voltage_kv": 380.0, "from_node": 33, "to_node": 79, "length_km": 499.31186181404371, "delaunay_k": 4, "edge_set": "Delaunay4" }, "geometry": { "type": "LineString", "coordinates": [ [ 11.409302, 59.147769 ], [ 15.206451, 63.237956 ] ] } },
{ "type": "Feature", "properties": { "voltage_kv": 380.0, "from_node": 33, "to_node": 98, "length_km": 485.78575273624153, "delaunay_k": 4, "edge_set": "Delaunay4" }, "geometry": { "type": "LineString", "coordinates": [ [ 11.409302, 59.147769 ], [ 17.024689, 62.540828 ] ] } },
{ "type": "Feature", "properties": { "voltage_kv": 380.0, "from_node": 33, "to_node": 106, "length_km": 494.82054958656613, "delaunay_k": 4, "edge_set": "Delaunay4" }, "geometry": { "type": "LineString", "coordinates": [ [ 11.409302, 59.147769 ], [ 17.468262, 62.460297 ] ] } },
{ "type": "Feature", "properties": { "voltage_kv": 380.0, "from_node": 34, "to_node": 61, "length_km": 519.07799750357071, "delaunay_k": 4, "edge_set": "Delaunay4" }, "geometry": { "type": "LineString", "coordinates": [ [ 11.629028, 58.795248 ], [ 13.458252, 63.368755 ] ] } },
{ "type": "Feature", "properties": { "voltage_kv": 380.0, "from_node": 34, "to_node": 79, "length_km": 531.40313164196039, "delaunay_k": 4, "edge_set": "Delaunay4" }, "geometry": { "type": "LineString", "coordinates": [ [ 11.629028, 58.795248 ], [ 15.206451, 63.237956 ] ] } },
{ "type": "Feature", "properties": { "voltage_kv": 380.0, "from_node": 34, "to_node": 98, "length_km": 510.9006263169656, "delaunay_k": 4, "edge_set": "Delaunay4" }, "geometry": { "type": "LineString", "coordinates": [ [ 11.629028, 58.795248 ], [ 17.024689, 62.540828 ] ] } },
{ "type": "Feature", "properties": { "voltage_kv": 380.0, "from_node": 34, "to_node": 106, "length_km": 518.40058439884706, "delaunay_k": 4, "edge_set": "Delaunay4" }, "geometry": { "type": "LineString", "coordinates": [ [ 11.629028, 58.795248 ], [ 17.468262, 62.460297 ] ] } },
{ "type": "Feature", "properties": { "voltage_kv": 380.0, "from_node": 35, "to_node": 44, "length_km": 528.10136845303623, "delaunay_k": 4, "edge_set": "Delaunay4" }, "geometry": { "type": "LineString", "coordinates": [ [ 11.727905, 63.035662 ], [ 12.299194, 58.304438 ] ] } },
{ "type": "Feature", "properties": { "voltage_kv": 380.0, "from_node": 35, "to_node": 65, "length_km": 512.13192317340304, "delaunay_k": 4, "edge_set": "Delaunay4" }, "geometry": { "type": "LineString", "coordinates": [ [ 11.727905, 63.035662 ], [ 13.878479, 58.56109 ] ] } },
{ "type": "Feature", "properties": { "voltage_kv": 380.0, "from_node": 35, "to_node": 75, "length_km": 480.39528040689169, "delaunay_k": 4, "edge_set": "Delaunay4" }, "geometry": { "type": "LineString", "coordinates": [ [ 11.727905, 63.035662 ], [ 15.125427, 59.05115 ] ] } },
{ "type": "Feature", "properties": { "voltage_kv": 380.0, "from_node": 35, "to_node": 84, "length_km": 510.25612152510621, "delaunay_k": 4, "edge_set": "Delaunay4" }, "geometry": { "type": "LineString", "coordinates": [ [ 11.727905, 63.035662 ], [ 15.757141, 67.288485 ] ] } },
{ "type": "Feature", "properties": { "voltage_kv": 380.0, "from_node": 35, "to_node": 86, "length_km": 543.61385329438428, "delaunay_k": 4, "edge_set": "Delaunay4" }, "geometry": { "type": "LineString", "coordinates": [ [ 11.727905, 63.035662 ], [ 15.850525, 67.598233 ] ] } },
{ "type": "Feature", "properties": { "voltage_kv": 380.0, "from_node": 35, "to_node": 105, "length_km": 475.77694852588957, "delaunay_k": 4, "edge_set": "Delaunay4" }, "geometry": { "type": "LineString", "coordinates": [ [ 11.727905, 63.035662 ], [ 17.329559, 59.716945 ] ] } },
{ "type": "Feature", "properties": { "voltage_kv": 380.0, "from_node": 35, "to_node": 108, "length_km": 666.89735092476883, "delaunay_k": 4, "edge_set": "Delaunay4" }, "geometry": { "type": "LineString", "coordinates": [ [ 11.727905, 63.035662 ], [ 17.579498, 68.517173 ] ] } },
{ "type": "Feature", "properties": { "voltage_kv": 380.0, "from_node": 35, "to_node": 112, "length_km": 587.27985668220981, "delaunay_k": 4, "edge_set": "Delaunay4" }, "geometry": { "type": "LineString", "coordinates": [ [ 11.727905, 63.035662 ], [ 17.992859, 67.610267 ] ] } },
{ "type": "Feature", "properties": { "voltage_kv": 380.0, "from_node": 35, "to_node": 120, "length_km": 585.29067227500639, "delaunay_k": 4, "edge_set": "Delaunay4" }, "geometry": { "type": "LineString", "coordinates": [ [ 11.727905, 63.035662 ], [ 18.366394, 67.492803 ] ] } },
{ "type": "Feature", "properties": { "voltage_kv": 380.0, "from_node": 35, "to_node": 126, "length_km": 572.38197254501767, "delaunay_k": 4, "edge_set": "Delaunay4" }, "geometry": { "type": "LineString", "coordinates": [ [ 11.727905, 63.035662 ], [ 19.864655, 66.843267 ] ] } },
{ "type": "Feature", "properties": { "voltage_kv": 380.0, "from_node": 35, "to_node": 127, "length_km": 582.75866588722704, "delaunay_k": 4, "edge_set": "Delaunay4" }, "geometry": { "type": "LineString", "coordinates": [ [ 11.727905, 63.035662 ], [ 19.866028, 66.975221 ] ] } },
{ "type": "Feature", "properties": { "voltage_kv": 380.0, "from_node": 35, "to_node": 128, "length_km": 569.25148617117986, "delaunay_k": 4, "edge_set": "Delaunay4" }, "geometry": { "type": "LineString", "coordinates": [ [ 11.727905, 63.035662 ], [ 20.037689, 66.729595 ] ] } },
{ "type": "Feature", "properties": { "voltage_kv": 380.0, "from_node": 35, "to_node": 131, "length_km": 578.57903348276818, "delaunay_k": 4, "edge_set": "Delaunay4" }, "geometry": { "type": "LineString", "coordinates": [ [ 11.727905, 63.035662 ], [ 20.452423, 66.669299 ] ] } },
{ "type": "Feature", "properties": { "voltage_kv": 380.0, "from_node": 35, "to_node": 135, "length_km": 570.19594861690655, "delaunay_k": 4, "edge_set": "Delaunay4" }, "geometry": { "type": "LineString", "coordinates": [ [ 11.727905, 63.035662 ], [ 21.656799, 65.826407 ] ] } },
{ "type": "Feature", "properties": { "voltage_kv": 380.0, "from_node": 35, "to_node": 145, "length_km": 633.62812157977032, "delaunay_k": 4, "edge_set": "Delaunay4" }, "geometry": { "type": "LineString", "coordinates": [ [ 11.727905, 63.035662 ], [ 23.072662, 65.938074 ] ] } },
{ "type": "Feature", "properties": { "voltage_kv": 380.0, "from_node": 37, "to_node": 69, "length_km": 552.31151417454339, "delaunay_k": 4, "edge_set": "Delaunay4" }, "geometry": { "type": "LineString", "coordinates": [ [ 11.954498, 57.726153 ], [ 14.515686, 62.516121 ] ] } },
{ "type": "Feature", "properties": { "voltage_kv": 380.0, "from_node": 37, "to_node": 71, "length_km": 557.37599346729962, "delaunay_k": 4, "edge_set": "Delaunay4" }, "geometry": { "type": "LineString", "coordinates": [ [ 11.954498, 57.726153 ], [ 14.734039, 62.533228 ] ] } },
{ "type": "Feature", "properties": { "voltage_kv": 380.0, "from_node": 43, "to_node": 69, "length_km": 522.514004214171, "delaunay_k": 4, "edge_set": "Delaunay4" }, "geometry": { "type": "LineString", "coordinates": [ [ 12.244263, 57.964417 ], [ 14.515686, 62.516121 ] ] } },
{ "type": "Feature", "properties": { "voltage_kv": 380.0, "from_node": 43, "to_node": 71, "length_km": 527.38203324307096, "delaunay_k": 4, "edge_set": "Delaunay4" }, "geometry": { "type": "LineString", "coordinates": [ [ 12.244263, 57.964417 ], [ 14.734039, 62.533228 ] ] } },
{ "type": "Feature", "properties": { "voltage_kv": 380.0, "from_node": 44, "to_node": 61, "length_km": 567.83476310028186, "delaunay_k": 4, "edge_set": "Delaunay4" }, "geometry": { "type": "LineString", "coordinates": [ [ 12.299194, 58.304438 ], [ 13.458252, 63.368755 ] ] } },
{ "type": "Feature", "properties": { "voltage_kv": 380.0, "from_node": 44, "to_node": 79, "length_km": 572.07319266293428, "delaunay_k": 4, "edge_set": "Delaunay4" }, "geometry": { "type": "LineString", "coordinates": [ [ 12.299194, 58.304438 ], [ 15.206451, 63.237956 ] ] } },
{ "type": "Feature", "properties": { "voltage_kv": 380.0, "from_node": 44, "to_node": 98, "length_km": 538.95255782293805, "delaunay_k": 4, "edge_set": "Delaunay4" }, "geometry": { "type": "LineString", "coordinates": [ [ 12.299194, 58.304438 ], [ 17.024689, 62.540828 ] ] } },
{ "type": "Feature", "properties": { "voltage_kv": 380.0, "from_node": 44, "to_node": 106, "length_km": 543.67114020098279, "delaunay_k": 4, "edge_set": "Delaunay4" }, "geometry": { "type": "LineString", "coordinates": [ [ 12.299194, 58.304438 ], [ 17.468262, 62.460297 ] ] } },
{ "type": "Feature", "properties": { "voltage_kv": 380.0, "from_node": 47, "to_node": 69, "length_km": 536.57910337068677, "delaunay_k": 4, "edge_set": "Delaunay4" }, "geometry": { "type": "LineString", "coordinates": [ [ 12.407684, 57.816235 ], [ 14.515686, 62.516121 ] ] } },
{ "type": "Feature", "properties": { "voltage_kv": 380.0, "from_node": 47, "to_node": 71, "length_km": 541.19116635262048, "delaunay_k": 4, "edge_set": "Delaunay4" }, "geometry": { "type": "LineString", "coordinates": [ [ 12.407684, 57.816235 ], [ 14.734039, 62.533228 ] ] } },
{ "type": "Feature", "properties": { "voltage_kv": 380.0, "from_node": 51, "to_node": 104, "length_km": 576.81382010401694, "delaunay_k": 4, "edge_set": "Delaunay4" }, "geometry": { "type": "LineString", "coordinates": [ [ 12.568359, 63.361367 ], [ 17.288361, 68.158786 ] ] } },
{ "type": "Feature", "properties": { "voltage_kv": 380.0, "from_node": 51, "to_node": 112, "length_km": 536.02450623000198, "delaunay_k": 4, "edge_set": "Delaunay4" }, "geometry": { "type": "LineString", "coordinates": [ [ 12.568359, 63.361367 ], [ 17.992859, 67.610267 ] ] } },
{ "type": "Feature", "properties": { "voltage_kv": 380.0, "from_node": 51, "to_node": 120, "length_km": 533.26726678787566, "delaunay_k": 4, "edge_set": "Delaunay4" }, "geometry": { "type": "LineString", "coordinates": [ [ 12.568359, 63.361367 ], [ 18.366394, 67.492803 ] ] } },
{ "type": "Feature", "properties": { "voltage_kv": 380.0, "from_node": 51, "to_node": 122, "length_km": 693.15807458583947, "delaunay_k": 4, "edge_set": "Delaunay4" }, "geometry": { "type": "LineString", "coordinates": [ [ 12.568359, 63.361367 ], [ 18.864899, 69.038124 ] ] } },
{ "type": "Feature", "properties": { "voltage_kv": 380.0, "from_node": 51, "to_node": 126, "length_km": 517.66791734228775, "delaunay_k": 4, "edge_set": "Delaunay4" }, "geometry": { "type": "LineString", "coordinates": [ [ 12.568359, 63.361367 ], [ 19.864655, 66.843267 ] ] } },
{ "type": "Feature", "properties": { "voltage_kv": 380.0, "from_node": 51, "to_node": 127, "length_km": 528.25539948752453, "delaunay_k": 4, "edge_set": "Delaunay4" }, "geometry": { "type": "LineString", "coordinates": [ [ 12.568359, 63.361367 ], [ 19.866028, 66.975221 ] ] } },
{ "type": "Feature", "properties": { "voltage_kv": 380.0, "from_node": 51, "to_node": 128, "length_km": 514.27296742821841, "delaunay_k": 4, "edge_set": "Delaunay4" }, "geometry": { "type": "LineString", "coordinates": [ [ 12.568359, 63.361367 ], [ 20.037689, 66.729595 ] ] } },
{ "type": "Feature", "properties": { "voltage_kv": 380.0, "from_node": 51, "to_node": 131, "length_km": 523.33715813966444, "delaunay_k": 4, "edge_set": "Delaunay4" }, "geometry": { "type": "LineString", "coordinates": [ [ 12.568359, 63.361367 ], [ 20.452423, 66.669299 ] ] } },
{ "type": "Feature", "properties": { "voltage_kv": 380.0, "from_node": 51, "to_node": 135, "length_km": 514.56915449072096, "delaunay_k": 4, "edge_set": "Delaunay4" }, "geometry": { "type": "LineString", "coordinates": [ [ 12.568359, 63.361367 ], [ 21.656799, 65.826407 ] ] } },
{ "type": "Feature", "properties": { "voltage_kv": 380.0, "from_node": 51, "to_node": 145, "length_km": 578.14098617104685, "delaunay_k": 4, "edge_set": "Delaunay4" }, "geometry": { "type": "LineString", "coordinates": [ [ 12.568359, 63.361367 ], [ 23.072662, 65.938074 ] ] } },
{ "type": "Feature", "properties": { "voltage_kv": 380.0, "from_node": 54, "to_node": 63, "length_km": 759.65280886136634, "delaunay_k": 4, "edge_set": "Delaunay4" }, "geometry": { "type": "LineString", "coordinates": [ [ 12.9776, 59.337392 ], [ 13.763123, 66.142743 ] ] } },
{ "type": "Feature", "properties": { "voltage_kv": 380.0, "from_node": 54, "to_node": 85, "length_km": 497.18866477592189, "delaunay_k": 4, "edge_set": "Delaunay4" }, "geometry": { "type": "LineString", "coordinates": [ [ 12.9776, 59.337392 ], [ 15.846405, 63.582177 ] ] } },
{ "type": "Feature", "properties": { "voltage_kv": 380.0, "from_node": 54, "to_node": 89, "length_km": 498.34513391635062, "delaunay_k": 4, "edge_set": "Delaunay4" }, "geometry": { "type": "LineString", "coordinates": [ [ 12.9776, 59.337392 ], [ 16.254272, 63.524685 ] ] } },
{ "type": "Feature", "properties": { "voltage_kv": 380.0, "from_node": 54, "to_node": 94, "length_km": 694.48240929116594, "delaunay_k": 4, "edge_set": "Delaunay4" }, "geometry": { "type": "LineString", "coordinates": [ [ 12.9776, 59.337392 ], [ 16.876373, 65.299207 ] ] } },
{ "type": "Feature", "properties": { "voltage_kv": 380.0, "from_node": 54, "to_node": 102, "length_km": 484.11742513862839, "delaunay_k": 4, "edge_set": "Delaunay4" }, "geometry": { "type": "LineString", "coordinates": [ [ 12.9776, 59.337392 ], [ 17.167511, 63.184727 ] ] } },
{ "type": "Feature", "properties": { "voltage_kv": 380.0, "from_node": 54, "to_node": 119, "length_km": 533.2355799973584, "delaunay_k": 4, "edge_set": "Delaunay4" }, "geometry": { "type": "LineString", "coordinates": [ [ 12.9776, 59.337392 ], [ 18.242798, 63.401361 ] ] } },
{ "type": "Feature", "properties": { "voltage_kv": 380.0, "from_node": 60, "to_node": 69, "length_km": 558.06619435853634, "delaunay_k": 4, "edge_set": "Delaunay4" }, "geometry": { "type": "LineString", "coordinates": [ [ 13.414307, 57.53868 ], [ 14.515686, 62.516121 ] ] } },
{ "type": "Feature", "properties": { "voltage_kv": 380.0, "from_node": 60, "to_node": 71, "length_km": 561.42801128551105, "delaunay_k": 4, "edge_set": "Delaunay4" }, "geometry": { "type": "LineString", "coordinates": [ [ 13.414307, 57.53868 ], [ 14.734039, 62.533228 ] ] } },
{ "type": "Feature", "properties": { "voltage_kv": 380.0, "from_node": 61, "to_node": 65, "length_km": 536.30267769681393, "delaunay_k": 4, "edge_set": "Delaunay4" }, "geometry": { "type": "LineString", "coordinates": [ [ 13.458252, 63.368755 ], [ 13.878479, 58.56109 ] ] } },
{ "type": "Feature", "properties": { "voltage_kv": 380.0, "from_node": 61, "to_node": 75, "length_km": 489.52098045657971, "delaunay_k": 4, "edge_set": "Delaunay4" }, "geometry": { "type": "LineString", "coordinates": [ [ 13.458252, 63.368755 ], [ 15.125427, 59.05115 ] ] } },
{ "type": "Feature", "properties": { "voltage_kv": 380.0, "from_node": 61, "to_node": 76, "length_km": 476.66303131919528, "delaunay_k": 4, "edge_set": "Delaunay4" }, "geometry": { "type": "LineString", "coordinates": [ [ 13.458252, 63.368755 ], [ 15.184479, 59.173817 ] ] } },
{ "type": "Feature", "properties": { "voltage_kv": 380.0, "from_node": 61, "to_node": 104, "length_km": 562.17520512335034, "delaunay_k": 4, "edge_set": "Delaunay4" }, "geometry": { "type": "LineString", "coordinates": [ [ 13.458252, 63.368755 ], [ 17.288361, 68.158786 ] ] } },
{ "type": "Feature", "properties": { "voltage_kv": 380.0, "from_node": 61, "to_node": 122, "length_km": 677.23571742924412, "delaunay_k": 4, "edge_set": "Delaunay4" }, "geometry": { "type": "LineString", "coordinates": [ [ 13.458252, 63.368755 ], [ 18.864899, 69.038124 ] ] } },
{ "type": "Feature", "properties": { "voltage_kv": 380.0, "from_node": 61, "to_node": 124, "length_km": 698.27803172673373, "delaunay_k": 4, "edge_set": "Delaunay4" }, "geometry": { "type": "LineString", "coordinates": [ [ 13.458252, 63.368755 ], [ 19.24942, 69.183065 ] ] } },
{ "type": "Feature", "properties": { "voltage_kv": 380.0, "from_node": 61, "to_node": 153, "length_km": 589.81529059753939, "delaunay_k": 4, "edge_set": "Delaunay4" }, "geometry": { "type": "LineString", "coordinates": [ [ 13.458252, 63.368755 ], [ 24.411621, 65.781941 ] ] } },
{ "type": "Feature", "properties": { "voltage_kv": 380.0, "from_node": 61, "to_node": 155, "length_km": 602.3859028796428, "delaunay_k": 4, "edge_set": "Delaunay4" }, "geometry": { "type": "LineString", "coordinates": [ [ 13.458252, 63.368755 ], [ 24.612122, 65.877531 ] ] } },
{ "type": "Feature", "properties": { "voltage_kv": 380.0, "from_node": 61, "to_node": 163, "length_km": 654.03465915684433, "delaunay_k": 4, "edge_set": "Delaunay4" }, "geometry": { "type": "LineString", "coordinates": [ [ 13.458252, 63.368755 ], [ 25.415497, 66.285642 ] ] } },
{ "type": "Feature", "properties": { "voltage_kv": 380.0, "from_node": 63, "to_node": 81, "length_km": 683.96849136540197, "delaunay_k": 4, "edge_set": "Delaunay4" }, "geometry": { "type": "LineString", "coordinates": [ [ 13.763123, 66.142743 ], [ 15.387726, 60.052503 ] ] } },
{ "type": "Feature", "properties": { "voltage_kv": 380.0, "from_node": 63, "to_node": 82, "length_km": 645.11896411952841, "delaunay_k": 4, "edge_set": "Delaunay4" }, "geometry": { "type": "LineString", "coordinates": [ [ 13.763123, 66.142743 ], [ 15.442657, 60.406393 ] ] } },
{ "type": "Feature", "properties": { "voltage_kv": 380.0, "from_node": 63, "to_node": 96, "length_km": 627.94214299789553, "delaunay_k": 4, "edge_set": "Delaunay4" }, "geometry": { "type": "LineString", "coordinates": [ [ 13.763123, 66.142743 ], [ 16.931305, 60.692679 ] ] } },
{ "type": "Feature", "properties": { "voltage_kv": 380.0, "from_node": 63, "to_node": 153, "length_km": 486.1437365867107, "delaunay_k": 4, "edge_set": "Delaunay4" }, "geometry": { "type": "LineString", "coordinates": [ [ 13.763123, 66.142743 ], [ 24.411621, 65.781941 ] ] } },
{ "type": "Feature", "properties": { "voltage_kv": 380.0, "from_node": 63, "to_node": 155, "length_km": 493.56076389989113, "delaunay_k": 4, "edge_set": "Delaunay4" }, "geometry": { "type": "LineString", "coordinates": [ [ 13.763123, 66.142743 ], [ 24.612122, 65.877531 ] ] } },
{ "type": "Feature", "properties": { "voltage_kv": 380.0, "from_node": 63, "to_node": 163, "length_km": 525.1385303370497, "delaunay_k": 4, "edge_set": "Delaunay4" }, "geometry": { "type": "LineString", "coordinates": [ [ 13.763123, 66.142743 ], [ 25.415497, 66.285642 ] ] } },
{ "type": "Feature", "properties": { "voltage_kv": 380.0, "from_node": 64, "to_node": 77, "length_km": 704.99023881562368, "delaunay_k": 4, "edge_set": "Delaunay4" }, "geometry": { "type": "LineString", "coordinates": [ [ 13.807068, 66.707884 ], [ 15.188599, 60.415208 ] ] } },
{ "type": "Feature", "properties": { "voltage_kv": 380.0, "from_node": 64, "to_node": 98, "length_km": 489.51204711505358, "delaunay_k": 4, "edge_set": "Delaunay4" }, "geometry": { "type": "LineString", "coordinates": [ [ 13.807068, 66.707884 ], [ 17.024689, 62.540828 ] ] } },
{ "type": "Feature", "properties": { "voltage_kv": 380.0, "from_node": 64, "to_node": 163, "length_km": 519.196871429064, "delaunay_k": 4, "edge_set": "Delaunay4" }, "geometry": { "type": "LineString", "coordinates": [ [ 13.807068, 66.707884 ], [ 25.415497, 66.285642 ] ] } },
{ "type": "Feature", "properties": { "voltage_kv": 380.0, "from_node": 64, "to_node": 171, "length_km": 589.94548509763376, "delaunay_k": 4, "edge_set": "Delaunay4" }, "geometry": { "type": "LineString", "coordinates": [ [ 13.807068, 66.707884 ], [ 27.030487, 66.33089 ] ] } },
{ "type": "Feature", "properties": { "voltage_kv": 380.0, "from_node": 65, "to_node": 79, "length_km": 526.25824635221079, "delaunay_k": 4, "edge_set": "Delaunay4" }, "geometry": { "type": "LineString", "coordinates": [ [ 13.878479, 58.56109 ], [ 15.206451, 63.237956 ] ] } },
{ "type": "Feature", "properties": { "voltage_kv": 380.0, "from_node": 65, "to_node": 98, "length_km": 476.00902997558626, "delaunay_k": 4, "edge_set": "Delaunay4" }, "geometry": { "type": "LineString", "coordinates": [ [ 13.878479, 58.56109 ], [ 17.024689, 62.540828 ] ] } },
{ "type": "Feature", "properties": { "voltage_kv": 380.0, "from_node": 65, "to_node": 106, "length_km": 477.2809489351967, "delaunay_k": 4, "edge_set": "Delaunay4" }, "geometry": { "type": "LineString", "coordinates": [ [ 13.878479, 58.56109 ], [ 17.468262, 62.460297 ] ] } },
{ "type": "Feature", "properties": { "voltage_kv": 380.0, "from_node": 66, "to_node": 77, "length_km": 656.11422541379477, "delaunay_k": 4, "edge_set": "Delaunay4" }, "geometry": { "type": "LineString", "coordinates": [ [ 14.191589, 66.282328 ], [ 15.188599, 60.415208 ] ] } },
{ "type": "Feature", "properties": { "voltage_kv": 380.0, "from_node": 66, "to_node": 155, "length_km": 474.14688675885975, "delaunay_k": 4, "edge_set": "Delaunay4" }, "geometry": { "type": "LineString", "coordinates": [ [ 14.191589, 66.282328 ], [ 24.612122, 65.877531 ] ] } },
{ "type": "Feature", "properties": { "voltage_kv": 380.0, "from_node": 66, "to_node": 165, "length_km": 538.86511043166013, "delaunay_k": 4, "edge_set": "Delaunay4" }, "geometry": { "type": "LineString", "coordinates": [ [ 14.191589, 66.282328 ], [ 25.694275, 65.279688 ] ] } },
{ "type": "Feature", "properties": { "voltage_kv": 380.0, "from_node": 66, "to_node": 171, "length_km": 576.35259656463427, "delaunay_k": 4, "edge_set": "Delaunay4" }, "geometry": { "type": "LineString", "coordinates": [ [ 14.191589, 66.282328 ], [ 27.030487, 66.33089 ] ] } },
{ "type": "Feature", "properties": { "voltage_kv": 380.0, "from_node": 67, "to_node": 69, "length_km": 534.96806695734119, "delaunay_k": 4, "edge_set": "Delaunay4" }, "geometry": { "type": "LineString", "coordinates": [ [ 14.197083, 57.718819 ], [ 14.515686, 62.516121 ] ] } },
{ "type": "Feature", "properties": { "voltage_kv": 380.0, "from_node": 67, "to_node": 71, "length_km": 537.42126405014335, "delaunay_k": 4, "edge_set": "Delaunay4" }, "geometry": { "type": "LineString", "coordinates": [ [ 14.197083, 57.718819 ], [ 14.734039, 62.533228 ] ] } },
{ "type": "Feature", "properties": { "voltage_kv": 380.0, "from_node": 69, "to_node": 70, "length_km": 525.8431322022534, "delaunay_k": 4, "edge_set": "Delaunay4" }, "geometry": { "type": "LineString", "coordinates": [ [ 14.515686, 62.516121 ], [ 14.625549, 57.798676 ] ] } },
{ "type": "Feature", "properties": { "voltage_kv": 380.0, "from_node": 69, "to_node": 84, "length_km": 535.49619525798789, "delaunay_k": 4, "edge_set": "Delaunay4" }, "geometry": { "type": "LineString", "coordinates": [ [ 14.515686, 62.516121 ], [ 15.757141, 67.288485 ] ] } },
{ "type": "Feature", "properties": { "voltage_kv": 380.0, "from_node": 69, "to_node": 86, "length_km": 570.2877144848851, "delaunay_k": 4, "edge_set": "Delaunay4" }, "geometry": { "type": "LineString", "coordinates": [ [ 14.515686, 62.516121 ], [ 15.850525, 67.598233 ] ] } },
{ "type": "Feature", "properties": { "voltage_kv": 380.0, "from_node": 69, "to_node": 108, "length_km": 684.13359187792332, "delaunay_k": 4, "edge_set": "Delaunay4" }, "geometry": { "type": "LineString", "coordinates": [ [ 14.515686, 62.516121 ], [ 17.579498, 68.517173 ] ] } },
{ "type": "Feature", "properties": { "voltage_kv": 380.0, "from_node": 69, "to_node": 112, "length_km": 591.21751362967154, "delaunay_k": 4, "edge_set": "Delaunay4" }, "geometry": { "type": "LineString", "coordinates": [ [ 14.515686, 62.516121 ], [ 17.992859, 67.610267 ] ] } },
{ "type": "Feature", "properties": { "voltage_kv": 380.0, "from_node": 69, "to_node": 120, "length_km": 583.96342099910203, "delaunay_k": 4, "edge_set": "Delaunay4" }, "geometry": { "type": "LineString", "coordinates": [ [ 14.515686, 62.516121 ], [ 18.366394, 67.492803 ] ] } },
{ "type": "Feature", "properties": { "voltage_kv": 380.0, "from_node": 69, "to_node": 126, "length_km": 545.90755522408654, "delaunay_k": 4, "edge_set": "Delaunay4" }, "geometry": { "type": "LineString", "coordinates": [ [ 14.515686, 62.516121 ], [ 19.864655, 66.843267 ] ] } },
{ "type": "Feature", "properties": { "voltage_kv": 380.0, "from_node": 69, "to_node": 127, "length_km": 558.69525892417175, "delaunay_k": 4, "edge_set": "Delaunay4" }, "geometry": { "type": "LineString", "coordinates": [ [ 14.515686, 62.516121 ], [ 19.866028, 66.975221 ] ] } },
{ "type": "Feature", "properties": { "voltage_kv": 380.0, "from_node": 69, "to_node": 128, "length_km": 538.99869036027712, "delaunay_k": 4, "edge_set": "Delaunay4" }, "geometry": { "type": "LineString", "coordinates": [ [ 14.515686, 62.516121 ], [ 20.037689, 66.729595 ] ] } },
{ "type": "Feature", "properties": { "voltage_kv": 380.0, "from_node": 69, "to_node": 131, "length_km": 543.40185563452758, "delaunay_k": 4, "edge_set": "Delaunay4" }, "geometry": { "type": "LineString", "coordinates": [ [ 14.515686, 62.516121 ], [ 20.452423, 66.669299 ] ] } },
{ "type": "Feature", "properties": { "voltage_kv": 380.0, "from_node": 69, "to_node": 135, "length_km": 506.84282330560512, "delaunay_k": 4, "edge_set": "Delaunay4" }, "geometry": { "type": "LineString", "coordinates": [ [ 14.515686, 62.516121 ], [ 21.656799, 65.826407 ] ] } },
{ "type": "Feature", "properties": { "voltage_kv": 380.0, "from_node": 69, "to_node": 145, "length_km": 563.98092906766772, "delaunay_k": 4, "edge_set": "Delaunay4" }, "geometry": { "type": "LineString", "coordinates": [ [ 14.515686, 62.516121 ], [ 23.072662, 65.938074 ] ] } },
{ "type": "Feature", "properties": { "voltage_kv": 380.0, "from_node": 70, "to_node": 71, "length_km": 527.76247658072703, "delaunay_k": 4, "edge_set": "Delaunay4" }, "geometry": { "type": "LineString", "coordinates": [ [ 14.625549, 57.798676 ], [ 14.734039, 62.533228 ] ] } },
{ "type": "Feature", "properties": { "voltage_kv": 380.0, "from_node": 71, "to_node": 78, "length_km": 474.33989731755787, "delaunay_k": 4, "edge_set": "Delaunay4" }, "geometry": { "type": "LineString", "coordinates": [ [ 14.734039, 62.533228 ], [ 15.195465, 58.28423 ] ] } },
{ "type": "Feature", "properties": { "voltage_kv": 380.0, "from_node": 71, "to_node": 121, "length_km": 528.65381479658186, "delaunay_k": 4, "edge_set": "Delaunay4" }, "geometry": { "type": "LineString", "coordinates": [ [ 14.734039, 62.533228 ], [ 18.639679, 66.970387 ] ] } },
{ "type": "Feature", "properties": { "voltage_kv": 380.0, "from_node": 71, "to_node": 130, "length_km": 520.55820730944947, "delaunay_k": 4, "edge_set": "Delaunay4" }, "geometry": { "type": "LineString", "coordinates": [ [ 14.734039, 62.533228 ], [ 20.429077, 66.505049 ] ] } },
{ "type": "Feature", "properties": { "voltage_kv": 380.0, "from_node": 77, "to_node": 100, "length_km": 544.32034732588204, "delaunay_k": 4, "edge_set": "Delaunay4" }, "geometry": { "type": "LineString", "coordinates": [ [ 15.188599, 60.415208 ], [ 17.049408, 65.221045 ] ] } },
{ "type": "Feature", "properties": { "voltage_kv": 380.0, "from_node": 77, "to_node": 107, "length_km": 524.97739965866992, "delaunay_k": 4, "edge_set": "Delaunay4" }, "geometry": { "type": "LineString", "coordinates": [ [ 15.188599, 60.415208 ], [ 17.541046, 64.996778 ] ] } },
{ "type": "Feature", "properties": { "voltage_kv": 380.0, "from_node": 77, "to_node": 121, "length_km": 750.77618639461969, "delaunay_k": 4, "edge_set": "Delaunay4" }, "geometry": { "type": "LineString", "coordinates": [ [ 15.188599, 60.415208 ], [ 18.639679, 66.970387 ] ] } },
{ "type": "Feature", "properties": { "voltage_kv": 380.0, "from_node": 77, "to_node": 123, "length_km": 490.84699897547199, "delaunay_k": 4, "edge_set": "Delaunay4" }, "geometry": { "type": "LineString", "coordinates": [ [ 15.188599, 60.415208 ], [ 19.029694, 64.440225 ] ] } },
{ "type": "Feature", "properties": { "voltage_kv": 380.0, "from_node": 77, "to_node": 130, "length_km": 727.6813626052666, "delaunay_k": 4, "edge_set": "Delaunay4" }, "geometry": { "type": "LineString", "coordinates": [ [ 15.188599, 60.415208 ], [ 20.429077, 66.505049 ] ] } },
{ "type": "Feature", "properties": { "voltage_kv": 380.0, "from_node": 79, "to_node": 86, "length_km": 487.30539745476955, "delaunay_k": 4, "edge_set": "Delaunay4" }, "geometry": { "type": "LineString", "coordinates": [ [ 15.206451, 63.237956 ], [ 15.850525, 67.598233 ] ] } },
{ "type": "Feature", "properties": { "voltage_kv": 380.0, "from_node": 79, "to_node": 108, "length_km": 598.8009163358289, "delaunay_k": 4, "edge_set": "Delaunay4" }, "geometry": { "type": "LineString", "coordinates": [ [ 15.206451, 63.237956 ], [ 17.579498, 68.517173 ] ] } },
{ "type": "Feature", "properties": { "voltage_kv": 380.0, "from_node": 79, "to_node": 112, "length_km": 504.61407072736353, "delaunay_k": 4, "edge_set": "Delaunay4" }, "geometry": { "type": "LineString", "coordinates": [ [ 15.206451, 63.237956 ], [ 17.992859, 67.610267 ] ] } },
{ "type": "Feature", "properties": { "voltage_kv": 380.0, "from_node": 79, "to_node": 120, "length_km": 496.89510983022353, "delaunay_k": 4, "edge_set": "Delaunay4" }, "geometry": { "type": "LineString", "coordinates": [ [ 15.206451, 63.237956 ], [ 18.366394, 67.492803 ] ] } },
{ "type": "Feature", "properties": { "voltage_kv": 380.0, "from_node": 79, "to_node": 145, "length_km": 482.54317560387193, "delaunay_k": 4, "edge_set": "Delaunay4" }, "geometry": { "type": "LineString", "coordinates": [ [ 15.206451, 63.237956 ], [ 23.072662, 65.938074 ] ] } },
{ "type": "Feature", "properties": { "voltage_kv": 380.0, "from_node": 81, "to_node": 94, "length_km": 590.11938574366684, "delaunay_k": 4, "edge_set": "Delaunay4" }, "geometry": { "type": "LineString", "coordinates": [ [ 15.387726, 60.052503 ], [ 16.876373, 65.299207 ] ] } },
{ "type": "Feature", "properties": { "voltage_kv": 380.0, "from_node": 82, "to_node": 94, "length_km": 550.58151333992726, "delaunay_k": 4, "edge_set": "Delaunay4" }, "geometry": { "type": "LineString", "coordinates": [ [ 15.442657, 60.406393 ], [ 16.876373, 65.299207 ] ] } },
{ "type": "Feature", "properties": { "voltage_kv": 380.0, "from_node": 82, "to_node": 123, "length_km": 486.64801797417618, "delaunay_k": 4, "edge_set": "Delaunay4" }, "geometry": { "type": "LineString", "coordinates": [ [ 15.442657, 60.406393 ], [ 19.029694, 64.440225 ] ] } },
{ "type": "Feature", "properties": { "voltage_kv": 380.0, "from_node": 84, "to_node": 165, "length_km": 499.72817248488684, "delaunay_k": 4, "edge_set": "Delaunay4" }, "geometry": { "type": "LineString", "coordinates": [ [ 15.757141, 67.288485 ], [ 25.694275, 65.279688 ] ] } },
{ "type": "Feature", "properties": { "voltage_kv": 380.0, "from_node": 84, "to_node": 171, "length_km": 507.56267328059346, "delaunay_k": 4, "edge_set": "Delaunay4" }, "geometry": { "type": "LineString", "coordinates": [ [ 15.757141, 67.288485 ], [ 27.030487, 66.33089 ] ] } },
{ "type": "Feature", "properties": { "voltage_kv": 380.0, "from_node": 85, "to_node": 104, "length_km": 514.86102690261873, "delaunay_k": 4, "edge_set": "Delaunay4" }, "geometry": { "type": "LineString", "coordinates": [ [ 15.846405, 63.582177 ], [ 17.288361, 68.158786 ] ] } },
{ "type": "Feature", "properties": { "voltage_kv": 380.0, "from_node": 85, "to_node": 108, "length_km": 556.20846958613413, "delaunay_k": 4, "edge_set": "Delaunay4" }, "geometry": { "type": "LineString", "coordinates": [ [ 15.846405, 63.582177 ], [ 17.579498, 68.517173 ] ] } },
{ "type": "Feature", "properties": { "voltage_kv": 380.0, "from_node": 85, "to_node": 122, "length_km": 623.63094352505641, "delaunay_k": 4, "edge_set": "Delaunay4" }, "geometry": { "type": "LineString", "coordinates": [ [ 15.846405, 63.582177 ], [ 18.864899, 69.038124 ] ] } },
{ "type": "Feature", "properties": { "voltage_kv": 380.0, "from_node": 85, "to_node": 124, "length_km": 643.18220356873758, "delaunay_k": 4, "edge_set": "Delaunay4" }, "geometry": { "type": "LineString", "coordinates": [ [ 15.846405, 63.582177 ], [ 19.24942, 69.183065 ] ] } },
{ "type": "Feature", "properties": { "voltage_kv": 380.0, "from_node": 85, "to_node": 153, "length_km": 477.25408673809898, "delaunay_k": 4, "edge_set": "Delaunay4" }, "geometry": { "type": "LineString", "coordinates": [ [ 15.846405, 63.582177 ], [ 24.411621, 65.781941 ] ] } },
{ "type": "Feature", "properties": { "voltage_kv": 380.0, "from_node": 85, "to_node": 155, "length_km": 490.33048117924449, "delaunay_k": 4, "edge_set": "Delaunay4" }, "geometry": { "type": "LineString", "coordinates": [ [ 15.846405, 63.582177 ], [ 24.612122, 65.877531 ] ] } },
{ "type": "Feature", "properties": { "voltage_kv": 380.0, "from_node": 85, "to_node": 163, "length_km": 544.16409924382572, "delaunay_k": 4, "edge_set": "Delaunay4" }, "geometry": { "type": "LineString", "coordinates": [ [ 15.846405, 63.582177 ], [ 25.415497, 66.285642 ] ] } },
{ "type": "Feature", "properties": { "voltage_kv": 380.0, "from_node": 86, "to_node": 171, "length_km": 508.98928056656746, "delaunay_k": 4, "edge_set": "Delaunay4" }, "geometry": { "type": "LineString", "coordinates": [ [ 15.850525, 67.598233 ], [ 27.030487, 66.33089 ] ] } },
{ "type": "Feature", "properties": { "voltage_kv": 380.0, "from_node": 94, "to_node": 96, "length_km": 513.96595119370102, "delaunay_k": 4, "edge_set": "Delaunay4" }, "geometry": { "type": "LineString", "coordinates": [ [ 16.876373, 65.299207 ], [ 16.931305, 60.692679 ] ] } },
{ "type": "Feature", "properties": { "voltage_kv": 380.0, "from_node": 94, "to_node": 171, "length_km": 479.26884660396217, "delaunay_k": 4, "edge_set": "Delaunay4" }, "geometry": { "type": "LineString", "coordinates": [ [ 16.876373, 65.299207 ], [ 27.030487, 66.33089 ] ] } },
{ "type": "Feature", "properties": { "voltage_kv": 380.0, "from_node": 96, "to_node": 100, "length_km": 505.2856130450262, "delaunay_k": 4, "edge_set": "Delaunay4" }, "geometry": { "type": "LineString", "coordinates": [ [ 16.931305, 60.692679 ], [ 17.049408, 65.221045 ] ] } },
{ "type": "Feature", "properties": { "voltage_kv": 380.0, "from_node": 96, "to_node": 107, "length_km": 481.26317992618021, "delaunay_k": 4, "edge_set": "Delaunay4" }, "geometry": { "type": "LineString", "coordinates": [ [ 16.931305, 60.692679 ], [ 17.541046, 64.996778 ] ] } },
{ "type": "Feature", "properties": { "voltage_kv": 380.0, "from_node": 96, "to_node": 125, "length_km": 505.03488174051171, "delaunay_k": 4, "edge_set": "Delaunay4" }, "geometry": { "type": "LineString", "coordinates": [ [ 16.931305, 60.692679 ], [ 19.736938, 65.032742 ] ] } },
{ "type": "Feature", "properties": { "voltage_kv": 380.0, "from_node": 96, "to_node": 132, "length_km": 554.36826102829355, "delaunay_k": 4, "edge_set": "Delaunay4" }, "geometry": { "type": "LineString", "coordinates": [ [ 16.931305, 60.692679 ], [ 21.169281, 65.270498 ] ] } },
{ "type": "Feature", "properties": { "voltage_kv": 380.0, "from_node": 98, "to_node": 121, "length_km": 500.33059374251656, "delaunay_k": 4, "edge_set": "Delaunay4" }, "geometry": { "type": "LineString", "coordinates": [ [ 17.024689, 62.540828 ], [ 18.639679, 66.970387 ] ] } },
{ "type": "Feature", "properties": { "voltage_kv": 380.0, "from_node": 100, "to_node": 171, "length_km": 474.48581661402056, "delaunay_k": 4, "edge_set": "Delaunay4" }, "geometry": { "type": "LineString", "coordinates": [ [ 17.049408, 65.221045 ], [ 27.030487, 66.33089 ] ] } },
{ "type": "Feature", "properties": { "voltage_kv": 380.0, "from_node": 106, "to_node": 145, "length_km": 474.45191505019238, "delaunay_k": 4, "edge_set": "Delaunay4" }, "geometry": { "type": "LineString", "coordinates": [ [ 17.468262, 62.460297 ], [ 23.072662, 65.938074 ] ] } },
{ "type": "Feature", "properties": { "voltage_kv": 380.0, "from_node": 108, "to_node": 165, "length_km": 507.29992499921548, "delaunay_k": 4, "edge_set": "Delaunay4" }, "geometry": { "type": "LineString", "coordinates": [ [ 17.579498, 68.517173 ], [ 25.694275, 65.279688 ] ] } },
{ "type": "Feature", "properties": { "voltage_kv": 380.0, "from_node": 108, "to_node": 168, "length_km": 545.3335238433142, "delaunay_k": 4, "edge_set": "Delaunay4" }, "geometry": { "type": "LineString", "coordinates": [ [ 17.579498, 68.517173 ], [ 26.05957, 64.965416 ] ] } },
{ "type": "Feature", "properties": { "voltage_kv": 380.0, "from_node": 108, "to_node": 173, "length_km": 655.68945153880054, "delaunay_k": 4, "edge_set": "Delaunay4" }, "geometry": { "type": "LineString", "coordinates": [ [ 17.579498, 68.517173 ], [ 27.204895, 64.101606 ] ] } },
{ "type": "Feature", "properties": { "voltage_kv": 380.0, "from_node": 108, "to_node": 175, "length_km": 753.65993900214596, "delaunay_k": 4, "edge_set": "Delaunay4" }, "geometry": { "type": "LineString", "coordinates": [ [ 17.579498, 68.517173 ], [ 27.585297, 63.154975 ] ] } },
{ "type": "Feature", "properties": { "voltage_kv": 380.0, "from_node": 108, "to_node": 176, "length_km": 844.13606166680052, "delaunay_k": 4, "edge_set": "Delaunay4" }, "geometry": { "type": "LineString", "coordinates": [ [ 17.579498, 68.517173 ], [ 27.766571, 62.262171 ] ] } },
{ "type": "Feature", "properties": { "voltage_kv": 380.0, "from_node": 120, "to_node": 173, "length_km": 554.84966277144781, "delaunay_k": 4, "edge_set": "Delaunay4" }, "geometry": { "type": "LineString", "coordinates": [ [ 18.366394, 67.492803 ], [ 27.204895, 64.101606 ] ] } },
{ "type": "Feature", "properties": { "voltage_kv": 380.0, "from_node": 120, "to_node": 175, "length_km": 648.26287532684944, "delaunay_k": 4, "edge_set": "Delaunay4" }, "geometry": { "type": "LineString", "coordinates": [ [ 18.366394, 67.492803 ], [ 27.585297, 63.154975 ] ] } },
{ "type": "Feature", "properties": { "voltage_kv": 380.0, "from_node": 120, "to_node": 176, "length_km": 735.41634063783101, "delaunay_k": 4, "edge_set": "Delaunay4" }, "geometry": { "type": "LineString", "coordinates": [ [ 18.366394, 67.492803 ], [ 27.766571, 62.262171 ] ] } },
{ "type": "Feature", "properties": { "voltage_kv": 380.0, "from_node": 121, "to_node": 173, "length_km": 510.22934555431385, "delaunay_k": 4, "edge_set": "Delaunay4" }, "geometry": { "type": "LineString", "coordinates": [ [ 18.639679, 66.970387 ], [ 27.204895, 64.101606 ] ] } },
{ "type": "Feature", "properties": { "voltage_kv": 380.0, "from_node": 121, "to_node": 175, "length_km": 599.95504758420952, "delaunay_k": 4, "edge_set": "Delaunay4" }, "geometry": { "type": "LineString", "coordinates": [ [ 18.639679, 66.970387 ], [ 27.585297, 63.154975 ] ] } },
{ "type": "Feature", "properties": { "voltage_kv": 380.0, "from_node": 121, "to_node": 176, "length_km": 684.50539129184585, "delaunay_k": 4, "edge_set": "Delaunay4" }, "geometry": { "type": "LineString", "coordinates": [ [ 18.639679, 66.970387 ], [ 27.766571, 62.262171 ] ] } },
{ "type": "Feature", "properties": { "voltage_kv": 380.0, "from_node": 122, "to_node": 151, "length_km": 720.75310909824259, "delaunay_k": 4, "edge_set": "Delaunay4" }, "geometry": { "type": "LineString", "coordinates": [ [ 18.864899, 69.038124 ], [ 24.285278, 62.976446 ] ] } },
{ "type": "Feature", "properties": { "voltage_kv": 380.0, "from_node": 122, "to_node": 154, "length_km": 572.90813708595783, "delaunay_k": 4, "edge_set": "Delaunay4" }, "geometry": { "type": "LineString", "coordinates": [ [ 18.864899, 69.038124 ], [ 24.517365, 64.423037 ] ] } },
{ "type": "Feature", "properties": { "voltage_kv": 380.0, "from_node": 122, "to_node": 159, "length_km": 624.2166380037504, "delaunay_k": 4, "edge_set": "Delaunay4" }, "geometry": { "type": "LineString", "coordinates": [ [ 18.864899, 69.038124 ], [ 24.965057, 64.008479 ] ] } },
{ "type": "Feature", "properties": { "voltage_kv": 380.0, "from_node": 122, "to_node": 166, "length_km": 546.26350126694695, "delaunay_k": 4, "edge_set": "Delaunay4" }, "geometry": { "type": "LineString", "coordinates": [ [ 18.864899, 69.038124 ], [ 25.808258, 64.971807 ] ] } },
{ "type": "Feature", "properties": { "voltage_kv": 380.0, "from_node": 122, "to_node": 167, "length_km": 817.9070644345112, "delaunay_k": 4, "edge_set": "Delaunay4" }, "geometry": { "type": "LineString", "coordinates": [ [ 18.864899, 69.038124 ], [ 26.032104, 62.340686 ] ] } },
{ "type": "Feature", "properties": { "voltage_kv": 380.0, "from_node": 122, "to_node": 174, "length_km": 931.48746711769559, "delaunay_k": 4, "edge_set": "Delaunay4" }, "geometry": { "type": "LineString", "coordinates": [ [ 18.864899, 69.038124 ], [ 27.305145, 61.489282 ] ] } },
{ "type": "Feature", "properties": { "voltage_kv": 380.0, "from_node": 122, "to_node": 177, "length_km": 1006.0344263730532, "delaunay_k": 4, "edge_set": "Delaunay4" }, "geometry": { "type": "LineString", "coordinates": [ [ 18.864899, 69.038124 ], [ 27.919006, 60.893713 ] ] } },
{ "type": "Feature", "properties": { "voltage_kv": 380.0, "from_node": 124, "to_node": 129, "length_km": 591.61188187938353, "delaunay_k": 4, "edge_set": "Delaunay4" }, "geometry": { "type": "LineString", "coordinates": [ [ 19.24942, 69.183065 ], [ 20.047302, 63.896314 ] ] } },
{ "type": "Feature", "properties": { "voltage_kv": 380.0, "from_node": 124, "to_node": 141, "length_km": 730.81293089607209, "delaunay_k": 4, "edge_set": "Delaunay4" }, "geometry": { "type": "LineString", "coordinates": [ [ 19.24942, 69.183065 ], [ 22.633209, 62.789912 ] ] } },
{ "type": "Feature", "properties": { "voltage_kv": 380.0, "from_node": 124, "to_node": 144, "length_km": 625.25210489923006, "delaunay_k": 4, "edge_set": "Delaunay4" }, "geometry": { "type": "LineString", "coordinates": [ [ 19.24942, 69.183065 ], [ 23.047943, 63.797043 ] ] } },
{ "type": "Feature", "properties": { "voltage_kv": 380.0, "from_node": 124, "to_node": 146, "length_km": 621.49199699074813, "delaunay_k": 4, "edge_set": "Delaunay4" }, "geometry": { "type": "LineString", "coordinates": [ [ 19.24942, 69.183065 ], [ 23.1427, 63.842485 ] ] } },
{ "type": "Feature", "properties": { "voltage_kv": 380.0, "from_node": 124, "to_node": 149, "length_km": 886.08371673544229, "delaunay_k": 4, "edge_set": "Delaunay4" }, "geometry": { "type": "LineString", "coordinates": [ [ 19.24942, 69.183065 ], [ 24.083405, 61.516146 ] ] } },
{ "type": "Feature", "properties": { "voltage_kv": 380.0, "from_node": 124, "to_node": 161, "length_km": 863.58800597062145, "delaunay_k": 4, "edge_set": "Delaunay4" }, "geometry": { "type": "LineString", "coordinates": [ [ 19.24942, 69.183065 ], [ 25.158691, 61.855501 ] ] } },
{ "type": "Feature", "properties": { "voltage_kv": 380.0, "from_node": 124, "to_node": 169, "length_km": 1035.6576722818045, "delaunay_k": 4, "edge_set": "Delaunay4" }, "geometry": { "type": "LineString", "coordinates": [ [ 19.24942, 69.183065 ], [ 26.294403, 60.418598 ] ] } },
{ "type": "Feature", "properties": { "voltage_kv": 380.0, "from_node": 124, "to_node": 170, "length_km": 992.83474188940488, "delaunay_k": 4, "edge_set": "Delaunay4" }, "geometry": { "type": "LineString", "coordinates": [ [ 19.24942, 69.183065 ], [ 26.621246, 60.865644 ] ] } },
{ "type": "Feature", "properties": { "voltage_kv": 380.0, "from_node": 124, "to_node": 172, "length_km": 1014.0779231803216, "delaunay_k": 4, "edge_set": "Delaunay4" }, "geometry": { "type": "LineString", "coordinates": [ [ 19.24942, 69.183065 ], [ 27.063446, 60.737015 ] ] } },
{ "type": "Feature", "properties": { "voltage_kv": 380.0, "from_node": 126, "to_node": 175, "length_km": 551.04938199319304, "delaunay_k": 4, "edge_set": "Delaunay4" }, "geometry": { "type": "LineString", "coordinates": [ [ 19.864655, 66.843267 ], [ 27.585297, 63.154975 ] ] } },
{ "type": "Feature", "properties": { "voltage_kv": 380.0, "from_node": 126, "to_node": 176, "length_km": 638.04012007155904, "delaunay_k": 4, "edge_set": "Delaunay4" }, "geometry": { "type": "LineString", "coordinates": [ [ 19.864655, 66.843267 ], [ 27.766571, 62.262171 ] ] } },
{ "type": "Feature", "properties": { "voltage_kv": 380.0, "from_node": 127, "to_node": 151, "length_km": 493.59809259252211, "delaunay_k": 4, "edge_set": "Delaunay4" }, "geometry": { "type": "LineString", "coordinates": [ [ 19.866028, 66.975221 ], [ 24.285278, 62.976446 ] ] } },
{ "type": "Feature", "properties": { "voltage_kv": 380.0, "from_node": 127, "to_node": 167, "length_km": 596.56685220340762, "delaunay_k": 4, "edge_set": "Delaunay4" }, "geometry": { "type": "LineString", "coordinates": [ [ 19.866028, 66.975221 ], [ 26.032104, 62.340686 ] ] } },
{ "type": "Feature", "properties": { "voltage_kv": 380.0, "from_node": 127, "to_node": 174, "length_km": 712.47821422943071, "delaunay_k": 4, "edge_set": "Delaunay4" }, "geometry": { "type": "LineString", "coordinates": [ [ 19.866028, 66.975221 ], [ 27.305145, 61.489282 ] ] } },
{ "type": "Feature", "properties": { "voltage_kv": 380.0, "from_node": 127, "to_node": 177, "length_km": 787.28410159552152, "delaunay_k": 4, "edge_set": "Delaunay4" }, "geometry": { "type": "LineString", "coordinates": [ [ 19.866028, 66.975221 ], [ 27.919006, 60.893713 ] ] } },
{ "type": "Feature", "properties": { "voltage_kv": 380.0, "from_node": 128, "to_node": 175, "length_km": 536.68111574850445, "delaunay_k": 4, "edge_set": "Delaunay4" }, "geometry": { "type": "LineString", "coordinates": [ [ 20.037689, 66.729595 ], [ 27.585297, 63.154975 ] ] } },
{ "type": "Feature", "properties": { "voltage_kv": 380.0, "from_node": 128, "to_node": 176, "length_km": 623.4122553031284, "delaunay_k": 4, "edge_set": "Delaunay4" }, "geometry": { "type": "LineString", "coordinates": [ [ 20.037689, 66.729595 ], [ 27.766571, 62.262171 ] ] } },
{ "type": "Feature", "properties": { "voltage_kv": 380.0, "from_node": 130, "to_node": 175, "length_km": 506.68703239338436, "delaunay_k": 4, "edge_set": "Delaunay4" }, "geometry": { "type": "LineString", "coordinates": [ [ 20.429077, 66.505049 ], [ 27.585297, 63.154975 ] ] } },
{ "type": "Feature", "properties": { "voltage_kv": 380.0, "from_node": 130, "to_node": 176, "length_km": 593.02910313826737, "delaunay_k": 4, "edge_set": "Delaunay4" }, "geometry": { "type": "LineString", "coordinates": [ [ 20.429077, 66.505049 ], [ 27.766571, 62.262171 ] ] } },
{ "type": "Feature", "properties": { "voltage_kv": 380.0, "from_node": 131, "to_node": 167, "length_km": 553.90953187400532, "delaunay_k": 4, "edge_set": "Delaunay4" }, "geometry": { "type": "LineString", "coordinates": [ [ 20.452423, 66.669299 ], [ 26.032104, 62.340686 ] ] } },
{ "type": "Feature", "properties": { "voltage_kv": 380.0, "from_node": 131, "to_node": 174, "length_km": 669.73568824852828, "delaunay_k": 4, "edge_set": "Delaunay4" }, "geometry": { "type": "LineString", "coordinates": [ [ 20.452423, 66.669299 ], [ 27.305145, 61.489282 ] ] } },
{ "type": "Feature", "properties": { "voltage_kv": 380.0, "from_node": 131, "to_node": 177, "length_km": 744.54488980162728, "delaunay_k": 4, "edge_set": "Delaunay4" }, "geometry": { "type": "LineString", "coordinates": [ [ 20.452423, 66.669299 ], [ 27.919006, 60.893713 ] ] } },
{ "type": "Feature", "properties": { "voltage_kv": 380.0, "from_node": 134, "to_node": 171, "length_km": 533.94997242260024, "delaunay_k": 4, "edge_set": "Delaunay4" }, "geometry": { "type": "LineString", "coordinates": [ [ 21.604614, 62.184091 ], [ 27.030487, 66.33089 ] ] } },
{ "type": "Feature", "properties": { "voltage_kv": 380.0, "from_node": 135, "to_node": 176, "length_km": 499.21842145605069, "delaunay_k": 4, "edge_set": "Delaunay4" }, "geometry": { "type": "LineString", "coordinates": [ [ 21.656799, 65.826407 ], [ 27.766571, 62.262171 ] ] } },
{ "type": "Feature", "properties": { "voltage_kv": 380.0, "from_node": 139, "to_node": 171, "length_km": 594.65808492164444, "delaunay_k": 4, "edge_set": "Delaunay4" }, "geometry": { "type": "LineString", "coordinates": [ [ 22.105865, 61.482071 ], [ 27.030487, 66.33089 ] ] } },
{ "type": "Feature", "properties": { "voltage_kv": 380.0, "from_node": 142, "to_node": 171, "length_km": 613.61587712542064, "delaunay_k": 4, "edge_set": "Delaunay4" }, "geometry": { "type": "LineString", "coordinates": [ [ 22.822723, 61.179005 ], [ 27.030487, 66.33089 ] ] } },
{ "type": "Feature", "properties": { "voltage_kv": 380.0, "from_node": 145, "to_node": 174, "length_km": 541.14975413110187, "delaunay_k": 4, "edge_set": "Delaunay4" }, "geometry": { "type": "LineString", "coordinates": [ [ 23.072662, 65.938074 ], [ 27.305145, 61.489282 ] ] } },
{ "type": "Feature", "properties": { "voltage_kv": 380.0, "from_node": 145, "to_node": 177, "length_km": 615.66356133379395, "delaunay_k": 4, "edge_set": "Delaunay4" }, "geometry": { "type": "LineString", "coordinates": [ [ 23.072662, 65.938074 ], [ 27.919006, 60.893713 ] ] } },
{ "type": "Feature", "properties": { "voltage_kv": 380.0, "from_node": 147, "to_node": 166, "length_km": 477.89373455733732, "delaunay_k": 4, "edge_set": "Delaunay4" }, "geometry": { "type": "LineString", "coordinates": [ [ 23.579407, 60.830188 ], [ 25.808258, 64.971807 ] ] } },
{ "type": "Feature", "properties": { "voltage_kv": 380.0, "from_node": 147, "to_node": 168, "length_km": 480.46070903757419, "delaunay_k": 4, "edge_set": "Delaunay4" }, "geometry": { "type": "LineString", "coordinates": [ [ 23.579407, 60.830188 ], [ 26.05957, 64.965416 ] ] } },
{ "type": "Feature", "properties": { "voltage_kv": 380.0, "from_node": 147, "to_node": 171, "length_km": 640.06149506862914, "delaunay_k": 4, "edge_set": "Delaunay4" }, "geometry": { "type": "LineString", "coordinates": [ [ 23.579407, 60.830188 ], [ 27.030487, 66.33089 ] ] } },
{ "type": "Feature", "properties": { "voltage_kv": 380.0, "from_node": 148, "to_node": 171, "length_km": 722.80485364925198, "delaunay_k": 4, "edge_set": "Delaunay4" }, "geometry": { "type": "LineString", "coordinates": [ [ 23.819733, 60.047704 ], [ 27.030487, 66.33089 ] ] } },
{ "type": "Feature", "properties": { "voltage_kv": 380.0, "from_node": 149, "to_node": 163, "length_km": 538.46337079938871, "delaunay_k": 4, "edge_set": "Delaunay4" }, "geometry": { "type": "LineString", "coordinates": [ [ 24.083405, 61.516146 ], [ 25.415497, 66.285642 ] ] } },
{ "type": "Feature", "properties": { "voltage_kv": 380.0, "from_node": 152, "to_node": 171, "length_km": 574.67728595459562, "delaunay_k": 4, "edge_set": "Delaunay4" }, "geometry": { "type": "LineString", "coordinates": [ [ 24.403381, 61.338151 ], [ 27.030487, 66.33089 ] ] } },
{ "type": "Feature", "properties": { "voltage_kv": 380.0, "from_node": 155, "to_node": 174, "length_km": 510.17538466210544, "delaunay_k": 4, "edge_set": "Delaunay4" }, "geometry": { "type": "LineString", "coordinates": [ [ 24.612122, 65.877531 ], [ 27.305145, 61.489282 ] ] } },
{ "type": "Feature", "properties": { "voltage_kv": 380.0, "from_node": 155, "to_node": 177, "length_km": 583.46248137471127, "delaunay_k": 4, "edge_set": "Delaunay4" }, "geometry": { "type": "LineString", "coordinates": [ [ 24.612122, 65.877531 ], [ 27.919006, 60.893713 ] ] } },
{ "type": "Feature", "properties": { "voltage_kv": 380.0, "from_node": 156, "to_node": 171, "length_km": 697.3316299477957, "delaunay_k": 4, "edge_set": "Delaunay4" }, "geometry": { "type": "LineString", "coordinates": [ [ 24.656067, 60.20571 ], [ 27.030487, 66.33089 ] ] } },
{ "type": "Feature", "properties": { "voltage_kv": 380.0, "from_node": 157, "to_node": 171, "length_km": 617.48338007771099, "delaunay_k": 4, "edge_set": "Delaunay4" }, "geometry": { "type": "LineString", "coordinates": [ [ 24.915619, 60.906402 ], [ 27.030487, 66.33089 ] ] } },
{ "type": "Feature", "properties": { "voltage_kv": 380.0, "from_node": 161, "to_node": 163, "length_km": 496.80586983200709, "delaunay_k": 4, "edge_set": "Delaunay4" }, "geometry": { "type": "LineString", "coordinates": [ [ 25.158691, 61.855501 ], [ 25.415497, 66.285642 ] ] } },
{ "type": "Feature", "properties": { "voltage_kv": 380.0, "from_node": 162, "to_node": 171, "length_km": 674.03795666464362, "delaunay_k": 4, "edge_set": "Delaunay4" }, "geometry": { "type": "LineString", "coordinates": [ [ 25.209503, 60.378575 ], [ 27.030487, 66.33089 ] ] } },
{ "type": "Feature", "properties": { "voltage_kv": 380.0, "from_node": 163, "to_node": 169, "length_km": 659.6942493895051, "delaunay_k": 4, "edge_set": "Delaunay4" }, "geometry": { "type": "LineString", "coordinates": [ [ 25.415497, 66.285642 ], [ 26.294403, 60.418598 ] ] } },
{ "type": "Feature", "properties": { "voltage_kv": 380.0, "from_node": 163, "to_node": 170, "length_km": 611.07313906645993, "delaunay_k": 4, "edge_set": "Delaunay4" }, "geometry": { "type": "LineString", "coordinates": [ [ 25.415497, 66.285642 ], [ 26.621246, 60.865644 ] ] } },
{ "type": "Feature", "properties": { "voltage_kv": 380.0, "from_node": 163, "to_node": 172, "length_km": 628.10440098863933, "delaunay_k": 4, "edge_set": "Delaunay4" }, "geometry": { "type": "LineString", "coordinates": [ [ 25.415497, 66.285642 ], [ 27.063446, 60.737015 ] ] } },
{ "type": "Feature", "properties": { "voltage_kv": 380.0, "from_node": 164, "to_node": 171, "length_km": 661.34879775389118, "delaunay_k": 4, "edge_set": "Delaunay4" }, "geometry": { "type": "LineString", "coordinates": [ [ 25.659943, 60.469404 ], [ 27.030487, 66.33089 ] ] } },
{ "type": "Feature", "properties": { "voltage_kv": 380.0, "from_node": 165, "to_node": 169, "length_km": 546.36563157030298, "delaunay_k": 4, "edge_set": "Delaunay4" }, "geometry": { "type": "LineString", "coordinates": [ [ 25.694275, 65.279688 ], [ 26.294403, 60.418598 ] ] } },
{ "type": "Feature", "properties": { "voltage_kv": 380.0, "from_node": 165, "to_node": 170, "length_km": 497.60872341277036, "delaunay_k": 4, "edge_set": "Delaunay4" }, "geometry": { "type": "LineString", "coordinates": [ [ 25.694275, 65.279688 ], [ 26.621246, 60.865644 ] ] } },
{ "type": "Feature", "properties": { "voltage_kv": 380.0, "from_node": 165, "to_node": 172, "length_km": 514.67463291679019, "delaunay_k": 4, "edge_set": "Delaunay4" }, "geometry": { "type": "LineString", "coordinates": [ [ 25.694275, 65.279688 ], [ 27.063446, 60.737015 ] ] } },
{ "type": "Feature", "properties": { "voltage_kv": 380.0, "from_node": 168, "to_node": 169, "length_km": 510.48135845280348, "delaunay_k": 4, "edge_set": "Delaunay4" }, "geometry": { "type": "LineString", "coordinates": [ [ 26.05957, 64.965416 ], [ 26.294403, 60.418598 ] ] } },
{ "type": "Feature", "properties": { "voltage_kv": 380.0, "from_node": 168, "to_node": 172, "length_km": 477.5302493139954, "delaunay_k": 4, "edge_set": "Delaunay4" }, "geometry": { "type": "LineString", "coordinates": [ [ 26.05957, 64.965416 ], [ 27.063446, 60.737015 ] ] } }
]
}
