{
"type": "FeatureCollection",
"name": "n490_132kv_delaunay5",
"crs": { "type": "name", "properties": { "name": "urn:ogc:def:crs:OGC:1.3:CRS84" } },
"features": [
{ "type": "Feature", "properties": { "voltage_kv": 132.0, "from_node": 10, "to_node": 51, "length_km": 80.349742611367333, "delaunay_k": 5, "edge_set": "Delaunay5" }, "geometry": { "type": "LineString", "coordinates": [ [ 11.089325, 55.66132 ], [ 12.362366, 55.613262 ] ] } },
{ "type": "Feature", "properties": { "voltage_kv": 132.0, "from_node": 10, "to_node": 54, "length_km": 88.191880156312607, "delaunay_k": 5, "edge_set": "Delaunay5" }, "geometry": { "type": "LineString", "coordinates": [ [ 11.089325, 55.66132 ], [ 12.490645134825497, 55.671527244775099 ] ] } },
{ "type": "Feature", "properties": { "voltage_kv": 132.0, "from_node": 10, "to_node": 56, "length_km": 90.779254082378614, "delaunay_k": 5, "edge_set": "Delaunay5" }, "geometry": { "type": "LineString", "coordinates": [ [ 11.089325, 55.66132 ], [ 12.527161, 55.734843 ] ] } },
{ "type": "Feature", "properties": { "voltage_kv": 132.0, "from_node": 10, "to_node": 57, "length_km": 93.871764697701039, "delaunay_k": 5, "edge_set": "Delaunay5" }, "geometry": { "type": "LineString", "coordinates": [ [ 11.089325, 55.66132 ], [ 12.56424, 55.795877 ] ] } },
{ "type": "Feature", "properties": { "voltage_kv": 132.0, "from_node": 10, "to_node": 59, "length_km": 94.127223023495773, "delaunay_k": 5, "edge_set": "Delaunay5" }, "geometry": { "type": "LineString", "coordinates": [ [ 11.089325, 55.66132 ], [ 12.580719, 55.73407 ] ] } },
{ "type": "Feature", "properties": { "voltage_kv": 132.0, "from_node": 12, "to_node": 30, "length_km": 98.140479646176402, "delaunay_k": 5, "edge_set": "Delaunay5" }, "geometry": { "type": "LineString", "coordinates": [ [ 11.190948, 54.867915 ], [ 11.877594, 55.657447 ] ] } },
{ "type": "Feature", "properties": { "voltage_kv": 132.0, "from_node": 12, "to_node": 31, "length_km": 114.46150153348967, "delaunay_k": 5, "edge_set": "Delaunay5" }, "geometry": { "type": "LineString", "coordinates": [ [ 11.190948, 54.867915 ], [ 11.885834, 55.816715 ] ] } },
{ "type": "Feature", "properties": { "voltage_kv": 132.0, "from_node": 12, "to_node": 37, "length_km": 90.956073850259514, "delaunay_k": 5, "edge_set": "Delaunay5" }, "geometry": { "type": "LineString", "coordinates": [ [ 11.190948, 54.867915 ], [ 11.949005, 55.560486 ] ] } },
{ "type": "Feature", "properties": { "voltage_kv": 132.0, "from_node": 12, "to_node": 40, "length_km": 86.702944051061792, "delaunay_k": 5, "edge_set": "Delaunay5" }, "geometry": { "type": "LineString", "coordinates": [ [ 11.190948, 54.867915 ], [ 11.990204, 55.498305 ] ] } },
{ "type": "Feature", "properties": { "voltage_kv": 132.0, "from_node": 12, "to_node": 43, "length_km": 101.30116748553293, "delaunay_k": 5, "edge_set": "Delaunay5" }, "geometry": { "type": "LineString", "coordinates": [ [ 11.190948, 54.867915 ], [ 12.108307, 55.611711 ] ] } },
{ "type": "Feature", "properties": { "voltage_kv": 132.0, "from_node": 12, "to_node": 50, "length_km": 114.27824904432931, "delaunay_k": 5, "edge_set": "Delaunay5" }, "geometry": { "type": "LineString", "coordinates": [ [ 11.190948, 54.867915 ], [ 12.311554, 55.670615 ] ] } },
{ "type": "Feature", "properties": { "voltage_kv": 132.0, "from_node": 12, "to_node": 52, "length_km": 125.22928936102474, "delaunay_k": 5, "edge_set": "Delaunay5" }, "geometry": { "type": "LineString", "coordinates": [ [ 11.190948, 54.867915 ], [ 12.389832, 55.761123 ] ] } },
{ "type": "Feature", "properties": { "voltage_kv": 132.0, "from_node": 13, "to_node": 48, "length_km": 85.166760008984838, "delaunay_k": 5, "edge_set": "Delaunay5" }, "geometry": { "type": "LineString", "coordinates": [ [ 11.295319, 55.21884 ], [ 12.240143, 55.764213 ] ] } },
{ "type": "Feature", "properties": { "voltage_kv": 132.0, "from_node": 13, "to_node": 50, "length_km": 81.644637426133244, "delaunay_k": 5, "edge_set": "Delaunay5" }, "geometry": { "type": "LineString", "coordinates": [ [ 11.295319, 55.21884 ], [ 12.311554, 55.670615 ] ] } },
{ "type": "Feature", "properties": { "voltage_kv": 132.0, "from_node": 13, "to_node": 52, "length_km": 91.824744270652531, "delaunay_k": 5, "edge_set": "Delaunay5" }, "geometry": { "type": "LineString", "coordinates": [ [ 11.295319, 55.21884 ], [ 12.389832, 55.761123 ] ] } },
{ "type": "Feature", "properties": { "voltage_kv": 132.0, "from_node": 13, "to_node": 53, "length_km": 109.08523362402082, "delaunay_k": 5, "edge_set": "Delaunay5" }, "geometry": { "type": "LineString", "coordinates": [ [ 11.295319, 55.21884 ], [ 12.474976, 55.935356 ] ] } },
{ "type": "Feature", "properties": { "voltage_kv": 132.0, "from_node": 13, "to_node": 55, "length_km": 110.9326018339781, "delaunay_k": 5, "edge_set": "Delaunay5" }, "geometry": { "type": "LineString", "coordinates": [ [ 11.295319, 55.21884 ], [ 12.520294, 55.933818 ] ] } },
{ "type": "Feature", "properties": { "voltage_kv": 132.0, "from_node": 13, "to_node": 57, "length_km": 102.73946138252644, "delaunay_k": 5, "edge_set": "Delaunay5" }, "geometry": { "type": "LineString", "coordinates": [ [ 11.295319, 55.21884 ], [ 12.56424, 55.795877 ] ] } },
{ "type": "Feature", "properties": { "voltage_kv": 132.0, "from_node": 14, "to_node": 51, "length_km": 66.360186214541315, "delaunay_k": 5, "edge_set": "Delaunay5" }, "geometry": { "type": "LineString", "coordinates": [ [ 11.348877, 55.455499 ], [ 12.362366, 55.613262 ] ] } },
{ "type": "Feature", "properties": { "voltage_kv": 132.0, "from_node": 14, "to_node": 54, "length_km": 75.948938140958916, "delaunay_k": 5, "edge_set": "Delaunay5" }, "geometry": { "type": "LineString", "coordinates": [ [ 11.348877, 55.455499 ], [ 12.490645134825497, 55.671527244775099 ] ] } },
{ "type": "Feature", "properties": { "voltage_kv": 132.0, "from_node": 14, "to_node": 55, "length_km": 90.897813661539317, "delaunay_k": 5, "edge_set": "Delaunay5" }, "geometry": { "type": "LineString", "coordinates": [ [ 11.348877, 55.455499 ], [ 12.520294, 55.933818 ] ] } },
{ "type": "Feature", "properties": { "voltage_kv": 132.0, "from_node": 14, "to_node": 56, "length_km": 80.531997228922521, "delaunay_k": 5, "edge_set": "Delaunay5" }, "geometry": { "type": "LineString", "coordinates": [ [ 11.348877, 55.455499 ], [ 12.527161, 55.734843 ] ] } },
{ "type": "Feature", "properties": { "voltage_kv": 132.0, "from_node": 14, "to_node": 57, "length_km": 85.427788707994239, "delaunay_k": 5, "edge_set": "Delaunay5" }, "geometry": { "type": "LineString", "coordinates": [ [ 11.348877, 55.455499 ], [ 12.56424, 55.795877 ] ] } },
{ "type": "Feature", "properties": { "voltage_kv": 132.0, "from_node": 14, "to_node": 59, "length_km": 83.62556498305716, "delaunay_k": 5, "edge_set": "Delaunay5" }, "geometry": { "type": "LineString", "coordinates": [ [ 11.348877, 55.455499 ], [ 12.580719, 55.73407 ] ] } },
{ "type": "Feature", "properties": { "voltage_kv": 132.0, "from_node": 14, "to_node": 61, "length_km": 120.77119775427722, "delaunay_k": 5, "edge_set": "Delaunay5" }, "geometry": { "type": "LineString", "coordinates": [ [ 11.348877, 55.455499 ], [ 12.933655, 56.070502 ] ] } },
{ "type": "Feature", "properties": { "voltage_kv": 132.0, "from_node": 15, "to_node": 46, "length_km": 90.339325765505905, "delaunay_k": 5, "edge_set": "Delaunay5" }, "geometry": { "type": "LineString", "coordinates": [ [ 11.416168, 55.244684 ], [ 12.22641, 55.913812 ] ] } },
{ "type": "Feature", "properties": { "voltage_kv": 132.0, "from_node": 15, "to_node": 48, "length_km": 77.823501973874954, "delaunay_k": 5, "edge_set": "Delaunay5" }, "geometry": { "type": "LineString", "coordinates": [ [ 11.416168, 55.244684 ], [ 12.240143, 55.764213 ] ] } },
{ "type": "Feature", "properties": { "voltage_kv": 132.0, "from_node": 15, "to_node": 50, "length_km": 73.874532269571816, "delaunay_k": 5, "edge_set": "Delaunay5" }, "geometry": { "type": "LineString", "coordinates": [ [ 11.416168, 55.244684 ], [ 12.311554, 55.670615 ] ] } },
{ "type": "Feature", "properties": { "voltage_kv": 132.0, "from_node": 15, "to_node": 52, "length_km": 84.211431321116748, "delaunay_k": 5, "edge_set": "Delaunay5" }, "geometry": { "type": "LineString", "coordinates": [ [ 11.416168, 55.244684 ], [ 12.389832, 55.761123 ] ] } },
{ "type": "Feature", "properties": { "voltage_kv": 132.0, "from_node": 15, "to_node": 53, "length_km": 101.83271485438115, "delaunay_k": 5, "edge_set": "Delaunay5" }, "geometry": { "type": "LineString", "coordinates": [ [ 11.416168, 55.244684 ], [ 12.474976, 55.935356 ] ] } },
{ "type": "Feature", "properties": { "voltage_kv": 132.0, "from_node": 15, "to_node": 55, "length_km": 103.60249029337999, "delaunay_k": 5, "edge_set": "Delaunay5" }, "geometry": { "type": "LineString", "coordinates": [ [ 11.416168, 55.244684 ], [ 12.520294, 55.933818 ] ] } },
{ "type": "Feature", "properties": { "voltage_kv": 132.0, "from_node": 15, "to_node": 57, "length_km": 94.997740164397186, "delaunay_k": 5, "edge_set": "Delaunay5" }, "geometry": { "type": "LineString", "coordinates": [ [ 11.416168, 55.244684 ], [ 12.56424, 55.795877 ] ] } },
{ "type": "Feature", "properties": { "voltage_kv": 132.0, "from_node": 15, "to_node": 58, "length_km": 114.83142276831863, "delaunay_k": 5, "edge_set": "Delaunay5" }, "geometry": { "type": "LineString", "coordinates": [ [ 11.416168, 55.244684 ], [ 12.571106, 56.042897 ] ] } },
{ "type": "Feature", "properties": { "voltage_kv": 132.0, "from_node": 17, "to_node": 18, "length_km": 112.09543822485443, "delaunay_k": 5, "edge_set": "Delaunay5" }, "geometry": { "type": "LineString", "coordinates": [ [ 11.504059, 54.717482 ], [ 11.550751, 55.724017 ] ] } },
{ "type": "Feature", "properties": { "voltage_kv": 132.0, "from_node": 17, "to_node": 21, "length_km": 93.070976829756987, "delaunay_k": 5, "edge_set": "Delaunay5" }, "geometry": { "type": "LineString", "coordinates": [ [ 11.504059, 54.717482 ], [ 11.670227, 55.548058 ] ] } },
{ "type": "Feature", "properties": { "voltage_kv": 132.0, "from_node": 17, "to_node": 24, "length_km": 75.288612846605204, "delaunay_k": 5, "edge_set": "Delaunay5" }, "geometry": { "type": "LineString", "coordinates": [ [ 11.504059, 54.717482 ], [ 11.727905, 55.381451 ] ] } },
{ "type": "Feature", "properties": { "voltage_kv": 132.0, "from_node": 17, "to_node": 26, "length_km": 82.51551836598496, "delaunay_k": 5, "edge_set": "Delaunay5" }, "geometry": { "type": "LineString", "coordinates": [ [ 11.504059, 54.717482 ], [ 11.786957, 55.4407 ] ] } },
{ "type": "Feature", "properties": { "voltage_kv": 132.0, "from_node": 17, "to_node": 38, "length_km": 86.135930357940339, "delaunay_k": 5, "edge_set": "Delaunay5" }, "geometry": { "type": "LineString", "coordinates": [ [ 11.504059, 54.717482 ], [ 11.961365, 55.445374 ] ] } },
{ "type": "Feature", "properties": { "voltage_kv": 132.0, "from_node": 17, "to_node": 40, "length_km": 92.297804947297692, "delaunay_k": 5, "edge_set": "Delaunay5" }, "geometry": { "type": "LineString", "coordinates": [ [ 11.504059, 54.717482 ], [ 11.990204, 55.498305 ] ] } },
{ "type": "Feature", "properties": { "voltage_kv": 132.0, "from_node": 17, "to_node": 43, "length_km": 106.74137377953811, "delaunay_k": 5, "edge_set": "Delaunay5" }, "geometry": { "type": "LineString", "coordinates": [ [ 11.504059, 54.717482 ], [ 12.108307, 55.611711 ] ] } },
{ "type": "Feature", "properties": { "voltage_kv": 132.0, "from_node": 17, "to_node": 50, "length_km": 117.9154331022595, "delaunay_k": 5, "edge_set": "Delaunay5" }, "geometry": { "type": "LineString", "coordinates": [ [ 11.504059, 54.717482 ], [ 12.311554, 55.670615 ] ] } },
{ "type": "Feature", "properties": { "voltage_kv": 132.0, "from_node": 18, "to_node": 22, "length_km": 105.67770409282119, "delaunay_k": 5, "edge_set": "Delaunay5" }, "geometry": { "type": "LineString", "coordinates": [ [ 11.550751, 55.724017 ], [ 11.712799, 54.779306 ] ] } },
{ "type": "Feature", "properties": { "voltage_kv": 132.0, "from_node": 18, "to_node": 34, "length_km": 99.117749431658808, "delaunay_k": 5, "edge_set": "Delaunay5" }, "geometry": { "type": "LineString", "coordinates": [ [ 11.550751, 55.724017 ], [ 11.921539, 54.859221 ] ] } },
{ "type": "Feature", "properties": { "voltage_kv": 132.0, "from_node": 18, "to_node": 39, "length_km": 110.91506588514689, "delaunay_k": 5, "edge_set": "Delaunay5" }, "geometry": { "type": "LineString", "coordinates": [ [ 11.550751, 55.724017 ], [ 11.965485, 54.756331 ] ] } },
{ "type": "Feature", "properties": { "voltage_kv": 132.0, "from_node": 18, "to_node": 59, "length_km": 64.722991413774679, "delaunay_k": 5, "edge_set": "Delaunay5" }, "geometry": { "type": "LineString", "coordinates": [ [ 11.550751, 55.724017 ], [ 12.580719, 55.73407 ] ] } },
{ "type": "Feature", "properties": { "voltage_kv": 132.0, "from_node": 19, "to_node": 22, "length_km": 121.16038071786691, "delaunay_k": 5, "edge_set": "Delaunay5" }, "geometry": { "type": "LineString", "coordinates": [ [ 11.641388, 55.866835 ], [ 11.712799, 54.779306 ] ] } },
{ "type": "Feature", "properties": { "voltage_kv": 132.0, "from_node": 19, "to_node": 34, "length_km": 113.5776769501864, "delaunay_k": 5, "edge_set": "Delaunay5" }, "geometry": { "type": "LineString", "coordinates": [ [ 11.641388, 55.866835 ], [ 11.921539, 54.859221 ] ] } },
{ "type": "Feature", "properties": { "voltage_kv": 132.0, "from_node": 19, "to_node": 39, "length_km": 125.33461449900069, "delaunay_k": 5, "edge_set": "Delaunay5" }, "geometry": { "type": "LineString", "coordinates": [ [ 11.641388, 55.866835 ], [ 11.965485, 54.756331 ] ] } },
{ "type": "Feature", "properties": { "voltage_kv": 132.0, "from_node": 19, "to_node": 41, "length_km": 62.299834581571069, "delaunay_k": 5, "edge_set": "Delaunay5" }, "geometry": { "type": "LineString", "coordinates": [ [ 11.641388, 55.866835 ], [ 12.024536, 55.351012 ] ] } },
{ "type": "Feature", "properties": { "voltage_kv": 132.0, "from_node": 21, "to_node": 22, "length_km": 85.626639665472169, "delaunay_k": 5, "edge_set": "Delaunay5" }, "geometry": { "type": "LineString", "coordinates": [ [ 11.670227, 55.548058 ], [ 11.712799, 54.779306 ] ] } },
{ "type": "Feature", "properties": { "voltage_kv": 132.0, "from_node": 21, "to_node": 34, "length_km": 78.339177368908807, "delaunay_k": 5, "edge_set": "Delaunay5" }, "geometry": { "type": "LineString", "coordinates": [ [ 11.670227, 55.548058 ], [ 11.921539, 54.859221 ] ] } },
{ "type": "Feature", "properties": { "voltage_kv": 132.0, "from_node": 21, "to_node": 39, "length_km": 90.129117980024006, "delaunay_k": 5, "edge_set": "Delaunay5" }, "geometry": { "type": "LineString", "coordinates": [ [ 11.670227, 55.548058 ], [ 11.965485, 54.756331 ] ] } },
{ "type": "Feature", "properties": { "voltage_kv": 132.0, "from_node": 21, "to_node": 55, "length_km": 68.524697948137089, "delaunay_k": 5, "edge_set": "Delaunay5" }, "geometry": { "type": "LineString", "coordinates": [ [ 11.670227, 55.548058 ], [ 12.520294, 55.933818 ] ] } },
{ "type": "Feature", "properties": { "voltage_kv": 132.0, "from_node": 21, "to_node": 56, "length_km": 57.83077661987619, "delaunay_k": 5, "edge_set": "Delaunay5" }, "geometry": { "type": "LineString", "coordinates": [ [ 11.670227, 55.548058 ], [ 12.527161, 55.734843 ] ] } },
{ "type": "Feature", "properties": { "voltage_kv": 132.0, "from_node": 21, "to_node": 57, "length_km": 62.655744025801283, "delaunay_k": 5, "edge_set": "Delaunay5" }, "geometry": { "type": "LineString", "coordinates": [ [ 11.670227, 55.548058 ], [ 12.56424, 55.795877 ] ] } },
{ "type": "Feature", "properties": { "voltage_kv": 132.0, "from_node": 21, "to_node": 59, "length_km": 60.961165978149886, "delaunay_k": 5, "edge_set": "Delaunay5" }, "geometry": { "type": "LineString", "coordinates": [ [ 11.670227, 55.548058 ], [ 12.580719, 55.73407 ] ] } },
{ "type": "Feature", "properties": { "voltage_kv": 132.0, "from_node": 21, "to_node": 61, "length_km": 98.282416693504686, "delaunay_k": 5, "edge_set": "Delaunay5" }, "geometry": { "type": "LineString", "coordinates": [ [ 11.670227, 55.548058 ], [ 12.933655, 56.070502 ] ] } },
{ "type": "Feature", "properties": { "voltage_kv": 132.0, "from_node": 22, "to_node": 24, "length_km": 67.041714682912044, "delaunay_k": 5, "edge_set": "Delaunay5" }, "geometry": { "type": "LineString", "coordinates": [ [ 11.712799, 54.779306 ], [ 11.727905, 55.381451 ] ] } },
{ "type": "Feature", "properties": { "voltage_kv": 132.0, "from_node": 22, "to_node": 26, "length_km": 73.783150737545938, "delaunay_k": 5, "edge_set": "Delaunay5" }, "geometry": { "type": "LineString", "coordinates": [ [ 11.712799, 54.779306 ], [ 11.786957, 55.4407 ] ] } },
{ "type": "Feature", "properties": { "voltage_kv": 132.0, "from_node": 22, "to_node": 30, "length_km": 98.323995187767338, "delaunay_k": 5, "edge_set": "Delaunay5" }, "geometry": { "type": "LineString", "coordinates": [ [ 11.712799, 54.779306 ], [ 11.877594, 55.657447 ] ] } },
{ "type": "Feature", "properties": { "voltage_kv": 132.0, "from_node": 22, "to_node": 37, "length_km": 88.260715858993052, "delaunay_k": 5, "edge_set": "Delaunay5" }, "geometry": { "type": "LineString", "coordinates": [ [ 11.712799, 54.779306 ], [ 11.949005, 55.560486 ] ] } },
{ "type": "Feature", "properties": { "voltage_kv": 132.0, "from_node": 22, "to_node": 44, "length_km": 110.36620191811359, "delaunay_k": 5, "edge_set": "Delaunay5" }, "geometry": { "type": "LineString", "coordinates": [ [ 11.712799, 54.779306 ], [ 12.154999, 55.737935 ] ] } },
{ "type": "Feature", "properties": { "voltage_kv": 132.0, "from_node": 22, "to_node": 47, "length_km": 120.73639697852923, "delaunay_k": 5, "edge_set": "Delaunay5" }, "geometry": { "type": "LineString", "coordinates": [ [ 11.712799, 54.779306 ], [ 12.23465, 55.822116 ] ] } },
{ "type": "Feature", "properties": { "voltage_kv": 132.0, "from_node": 22, "to_node": 48, "length_km": 114.65941375614811, "delaunay_k": 5, "edge_set": "Delaunay5" }, "geometry": { "type": "LineString", "coordinates": [ [ 11.712799, 54.779306 ], [ 12.240143, 55.764213 ] ] } },
{ "type": "Feature", "properties": { "voltage_kv": 132.0, "from_node": 23, "to_node": 46, "length_km": 73.634883407905846, "delaunay_k": 5, "edge_set": "Delaunay5" }, "geometry": { "type": "LineString", "coordinates": [ [ 11.715546, 55.318987 ], [ 12.22641, 55.913812 ] ] } },
{ "type": "Feature", "properties": { "voltage_kv": 132.0, "from_node": 23, "to_node": 48, "length_km": 59.615142416975395, "delaunay_k": 5, "edge_set": "Delaunay5" }, "geometry": { "type": "LineString", "coordinates": [ [ 11.715546, 55.318987 ], [ 12.240143, 55.764213 ] ] } },
{ "type": "Feature", "properties": { "voltage_kv": 132.0, "from_node": 23, "to_node": 50, "length_km": 54.329836189748605, "delaunay_k": 5, "edge_set": "Delaunay5" }, "geometry": { "type": "LineString", "coordinates": [ [ 11.715546, 55.318987 ], [ 12.311554, 55.670615 ] ] } },
{ "type": "Feature", "properties": { "voltage_kv": 132.0, "from_node": 23, "to_node": 52, "length_km": 65.079755375043433, "delaunay_k": 5, "edge_set": "Delaunay5" }, "geometry": { "type": "LineString", "coordinates": [ [ 11.715546, 55.318987 ], [ 12.389832, 55.761123 ] ] } },
{ "type": "Feature", "properties": { "voltage_kv": 132.0, "from_node": 23, "to_node": 53, "length_km": 83.654111482852983, "delaunay_k": 5, "edge_set": "Delaunay5" }, "geometry": { "type": "LineString", "coordinates": [ [ 11.715546, 55.318987 ], [ 12.474976, 55.935356 ] ] } },
{ "type": "Feature", "properties": { "voltage_kv": 132.0, "from_node": 23, "to_node": 55, "length_km": 85.181778360085076, "delaunay_k": 5, "edge_set": "Delaunay5" }, "geometry": { "type": "LineString", "coordinates": [ [ 11.715546, 55.318987 ], [ 12.520294, 55.933818 ] ] } },
{ "type": "Feature", "properties": { "voltage_kv": 132.0, "from_node": 23, "to_node": 57, "length_km": 75.415697015318486, "delaunay_k": 5, "edge_set": "Delaunay5" }, "geometry": { "type": "LineString", "coordinates": [ [ 11.715546, 55.318987 ], [ 12.56424, 55.795877 ] ] } },
{ "type": "Feature", "properties": { "voltage_kv": 132.0, "from_node": 23, "to_node": 58, "length_km": 96.917241002686154, "delaunay_k": 5, "edge_set": "Delaunay5" }, "geometry": { "type": "LineString", "coordinates": [ [ 11.715546, 55.318987 ], [ 12.571106, 56.042897 ] ] } },
{ "type": "Feature", "properties": { "voltage_kv": 132.0, "from_node": 24, "to_node": 46, "length_km": 67.069060247845798, "delaunay_k": 5, "edge_set": "Delaunay5" }, "geometry": { "type": "LineString", "coordinates": [ [ 11.727905, 55.381451 ], [ 12.22641, 55.913812 ] ] } },
{ "type": "Feature", "properties": { "voltage_kv": 132.0, "from_node": 24, "to_node": 52, "length_km": 59.417966866272316, "delaunay_k": 5, "edge_set": "Delaunay5" }, "geometry": { "type": "LineString", "coordinates": [ [ 11.727905, 55.381451 ], [ 12.389832, 55.761123 ] ] } },
{ "type": "Feature", "properties": { "voltage_kv": 132.0, "from_node": 24, "to_node": 53, "length_km": 77.553237408947282, "delaunay_k": 5, "edge_set": "Delaunay5" }, "geometry": { "type": "LineString", "coordinates": [ [ 11.727905, 55.381451 ], [ 12.474976, 55.935356 ] ] } },
{ "type": "Feature", "properties": { "voltage_kv": 132.0, "from_node": 24, "to_node": 55, "length_km": 79.182849034279528, "delaunay_k": 5, "edge_set": "Delaunay5" }, "geometry": { "type": "LineString", "coordinates": [ [ 11.727905, 55.381451 ], [ 12.520294, 55.933818 ] ] } },
{ "type": "Feature", "properties": { "voltage_kv": 132.0, "from_node": 24, "to_node": 57, "length_km": 70.071898134416656, "delaunay_k": 5, "edge_set": "Delaunay5" }, "geometry": { "type": "LineString", "coordinates": [ [ 11.727905, 55.381451 ], [ 12.56424, 55.795877 ] ] } },
{ "type": "Feature", "properties": { "voltage_kv": 132.0, "from_node": 24, "to_node": 58, "length_km": 90.734489457087577, "delaunay_k": 5, "edge_set": "Delaunay5" }, "geometry": { "type": "LineString", "coordinates": [ [ 11.727905, 55.381451 ], [ 12.571106, 56.042897 ] ] } },
{ "type": "Feature", "properties": { "voltage_kv": 132.0, "from_node": 25, "to_node": 42, "length_km": 84.881137866688704, "delaunay_k": 5, "edge_set": "Delaunay5" }, "geometry": { "type": "LineString", "coordinates": [ [ 11.762238, 55.22589 ], [ 12.061615, 55.969187 ] ] } },
{ "type": "Feature", "properties": { "voltage_kv": 132.0, "from_node": 25, "to_node": 43, "length_km": 48.222585908647183, "delaunay_k": 5, "edge_set": "Delaunay5" }, "geometry": { "type": "LineString", "coordinates": [ [ 11.762238, 55.22589 ], [ 12.108307, 55.611711 ] ] } },
{ "type": "Feature", "properties": { "voltage_kv": 132.0, "from_node": 25, "to_node": 44, "length_km": 62.182312852533265, "delaunay_k": 5, "edge_set": "Delaunay5" }, "geometry": { "type": "LineString", "coordinates": [ [ 11.762238, 55.22589 ], [ 12.154999, 55.737935 ] ] } },
{ "type": "Feature", "properties": { "voltage_kv": 132.0, "from_node": 25, "to_node": 47, "length_km": 72.778640186761123, "delaunay_k": 5, "edge_set": "Delaunay5" }, "geometry": { "type": "LineString", "coordinates": [ [ 11.762238, 55.22589 ], [ 12.23465, 55.822116 ] ] } },
{ "type": "Feature", "properties": { "voltage_kv": 132.0, "from_node": 25, "to_node": 50, "length_km": 60.497037045156858, "delaunay_k": 5, "edge_set": "Delaunay5" }, "geometry": { "type": "LineString", "coordinates": [ [ 11.762238, 55.22589 ], [ 12.311554, 55.670615 ] ] } },
{ "type": "Feature", "properties": { "voltage_kv": 132.0, "from_node": 25, "to_node": 52, "length_km": 71.586684260791515, "delaunay_k": 5, "edge_set": "Delaunay5" }, "geometry": { "type": "LineString", "coordinates": [ [ 11.762238, 55.22589 ], [ 12.389832, 55.761123 ] ] } },
{ "type": "Feature", "properties": { "voltage_kv": 132.0, "from_node": 25, "to_node": 55, "length_km": 92.185851967676015, "delaunay_k": 5, "edge_set": "Delaunay5" }, "geometry": { "type": "LineString", "coordinates": [ [ 11.762238, 55.22589 ], [ 12.520294, 55.933818 ] ] } },
{ "type": "Feature", "properties": { "voltage_kv": 132.0, "from_node": 25, "to_node": 57, "length_km": 81.207933905569561, "delaunay_k": 5, "edge_set": "Delaunay5" }, "geometry": { "type": "LineString", "coordinates": [ [ 11.762238, 55.22589 ], [ 12.56424, 55.795877 ] ] } },
{ "type": "Feature", "properties": { "voltage_kv": 132.0, "from_node": 25, "to_node": 58, "length_km": 104.25832239228922, "delaunay_k": 5, "edge_set": "Delaunay5" }, "geometry": { "type": "LineString", "coordinates": [ [ 11.762238, 55.22589 ], [ 12.571106, 56.042897 ] ] } },
{ "type": "Feature", "properties": { "voltage_kv": 132.0, "from_node": 26, "to_node": 46, "length_km": 59.490443369204563, "delaunay_k": 5, "edge_set": "Delaunay5" }, "geometry": { "type": "LineString", "coordinates": [ [ 11.786957, 55.4407 ], [ 12.22641, 55.913812 ] ] } },
{ "type": "Feature", "properties": { "voltage_kv": 132.0, "from_node": 26, "to_node": 53, "length_km": 70.041826482255559, "delaunay_k": 5, "edge_set": "Delaunay5" }, "geometry": { "type": "LineString", "coordinates": [ [ 11.786957, 55.4407 ], [ 12.474976, 55.935356 ] ] } },
{ "type": "Feature", "properties": { "voltage_kv": 132.0, "from_node": 26, "to_node": 55, "length_km": 71.707271319472426, "delaunay_k": 5, "edge_set": "Delaunay5" }, "geometry": { "type": "LineString", "coordinates": [ [ 11.786957, 55.4407 ], [ 12.520294, 55.933818 ] ] } },
{ "type": "Feature", "properties": { "voltage_kv": 132.0, "from_node": 26, "to_node": 57, "length_km": 62.947578422675171, "delaunay_k": 5, "edge_set": "Delaunay5" }, "geometry": { "type": "LineString", "coordinates": [ [ 11.786957, 55.4407 ], [ 12.56424, 55.795877 ] ] } },
{ "type": "Feature", "properties": { "voltage_kv": 132.0, "from_node": 26, "to_node": 58, "length_km": 83.19475056369302, "delaunay_k": 5, "edge_set": "Delaunay5" }, "geometry": { "type": "LineString", "coordinates": [ [ 11.786957, 55.4407 ], [ 12.571106, 56.042897 ] ] } },
{ "type": "Feature", "properties": { "voltage_kv": 132.0, "from_node": 27, "to_node": 44, "length_km": 68.603861087998894, "delaunay_k": 5, "edge_set": "Delaunay5" }, "geometry": { "type": "LineString", "coordinates": [ [ 11.797943, 55.15612 ], [ 12.154999, 55.737935 ] ] } },
{ "type": "Feature", "properties": { "voltage_kv": 132.0, "from_node": 27, "to_node": 46, "length_km": 88.59056197017081, "delaunay_k": 5, "edge_set": "Delaunay5" }, "geometry": { "type": "LineString", "coordinates": [ [ 11.797943, 55.15612 ], [ 12.22641, 55.913812 ] ] } },
{ "type": "Feature", "properties": { "voltage_kv": 132.0, "from_node": 27, "to_node": 47, "length_km": 79.121292065753209, "delaunay_k": 5, "edge_set": "Delaunay5" }, "geometry": { "type": "LineString", "coordinates": [ [ 11.797943, 55.15612 ], [ 12.23465, 55.822116 ] ] } },
{ "type": "Feature", "properties": { "voltage_kv": 132.0, "from_node": 27, "to_node": 48, "length_km": 73.253743722936804, "delaunay_k": 5, "edge_set": "Delaunay5" }, "geometry": { "type": "LineString", "coordinates": [ [ 11.797943, 55.15612 ], [ 12.240143, 55.764213 ] ] } },
{ "type": "Feature", "properties": { "voltage_kv": 132.0, "from_node": 27, "to_node": 53, "length_km": 96.712820470795833, "delaunay_k": 5, "edge_set": "Delaunay5" }, "geometry": { "type": "LineString", "coordinates": [ [ 11.797943, 55.15612 ], [ 12.474976, 55.935356 ] ] } },
{ "type": "Feature", "properties": { "voltage_kv": 132.0, "from_node": 28, "to_node": 42, "length_km": 80.618991778586803, "delaunay_k": 5, "edge_set": "Delaunay5" }, "geometry": { "type": "LineString", "coordinates": [ [ 11.8480685, 55.255251001923504 ], [ 12.061615, 55.969187 ] ] } },
{ "type": "Feature", "properties": { "voltage_kv": 132.0, "from_node": 28, "to_node": 44, "length_km": 57.134072452894877, "delaunay_k": 5, "edge_set": "Delaunay5" }, "geometry": { "type": "LineString", "coordinates": [ [ 11.8480685, 55.255251001923504 ], [ 12.154999, 55.737935 ] ] } },
{ "type": "Feature", "properties": { "voltage_kv": 132.0, "from_node": 28, "to_node": 47, "length_km": 67.667840877233161, "delaunay_k": 5, "edge_set": "Delaunay5" }, "geometry": { "type": "LineString", "coordinates": [ [ 11.8480685, 55.255251001923504 ], [ 12.23465, 55.822116 ] ] } },
{ "type": "Feature", "properties": { "voltage_kv": 132.0, "from_node": 28, "to_node": 50, "length_km": 54.755531437039501, "delaunay_k": 5, "edge_set": "Delaunay5" }, "geometry": { "type": "LineString", "coordinates": [ [ 11.8480685, 55.255251001923504 ], [ 12.311554, 55.670615 ] ] } },
{ "type": "Feature", "properties": { "voltage_kv": 132.0, "from_node": 28, "to_node": 52, "length_km": 65.908595659799204, "delaunay_k": 5, "edge_set": "Delaunay5" }, "geometry": { "type": "LineString", "coordinates": [ [ 11.8480685, 55.255251001923504 ], [ 12.389832, 55.761123 ] ] } },
{ "type": "Feature", "properties": { "voltage_kv": 132.0, "from_node": 28, "to_node": 55, "length_km": 86.625962403715718, "delaunay_k": 5, "edge_set": "Delaunay5" }, "geometry": { "type": "LineString", "coordinates": [ [ 11.8480685, 55.255251001923504 ], [ 12.520294, 55.933818 ] ] } },
{ "type": "Feature", "properties": { "voltage_kv": 132.0, "from_node": 28, "to_node": 57, "length_km": 75.292285803060906, "delaunay_k": 5, "edge_set": "Delaunay5" }, "geometry": { "type": "LineString", "coordinates": [ [ 11.8480685, 55.255251001923504 ], [ 12.56424, 55.795877 ] ] } },
{ "type": "Feature", "properties": { "voltage_kv": 132.0, "from_node": 28, "to_node": 58, "length_km": 98.806882786461117, "delaunay_k": 5, "edge_set": "Delaunay5" }, "geometry": { "type": "LineString", "coordinates": [ [ 11.8480685, 55.255251001923504 ], [ 12.571106, 56.042897 ] ] } },
{ "type": "Feature", "properties": { "voltage_kv": 132.0, "from_node": 29, "to_node": 30, "length_km": 81.059235936080412, "delaunay_k": 5, "edge_set": "Delaunay5" }, "geometry": { "type": "LineString", "coordinates": [ [ 11.851501, 54.929509 ], [ 11.877594, 55.657447 ] ] } },
{ "type": "Feature", "properties": { "voltage_kv": 132.0, "from_node": 29, "to_node": 31, "length_km": 98.79908856801427, "delaunay_k": 5, "edge_set": "Delaunay5" }, "geometry": { "type": "LineString", "coordinates": [ [ 11.851501, 54.929509 ], [ 11.885834, 55.816715 ] ] } },
{ "type": "Feature", "properties": { "voltage_kv": 132.0, "from_node": 29, "to_node": 37, "length_km": 70.52028776400428, "delaunay_k": 5, "edge_set": "Delaunay5" }, "geometry": { "type": "LineString", "coordinates": [ [ 11.851501, 54.929509 ], [ 11.949005, 55.560486 ] ] } },
{ "type": "Feature", "properties": { "voltage_kv": 132.0, "from_node": 29, "to_node": 40, "length_km": 63.93669554055716, "delaunay_k": 5, "edge_set": "Delaunay5" }, "geometry": { "type": "LineString", "coordinates": [ [ 11.851501, 54.929509 ], [ 11.990204, 55.498305 ] ] } },
{ "type": "Feature", "properties": { "voltage_kv": 132.0, "from_node": 29, "to_node": 42, "length_km": 116.51324131413054, "delaunay_k": 5, "edge_set": "Delaunay5" }, "geometry": { "type": "LineString", "coordinates": [ [ 11.851501, 54.929509 ], [ 12.061615, 55.969187 ] ] } },
{ "type": "Feature", "properties": { "voltage_kv": 132.0, "from_node": 29, "to_node": 43, "length_km": 77.684946877671777, "delaunay_k": 5, "edge_set": "Delaunay5" }, "geometry": { "type": "LineString", "coordinates": [ [ 11.851501, 54.929509 ], [ 12.108307, 55.611711 ] ] } },
{ "type": "Feature", "properties": { "voltage_kv": 132.0, "from_node": 29, "to_node": 50, "length_km": 87.530864289049703, "delaunay_k": 5, "edge_set": "Delaunay5" }, "geometry": { "type": "LineString", "coordinates": [ [ 11.851501, 54.929509 ], [ 12.311554, 55.670615 ] ] } },
{ "type": "Feature", "properties": { "voltage_kv": 132.0, "from_node": 29, "to_node": 52, "length_km": 98.685259230561584, "delaunay_k": 5, "edge_set": "Delaunay5" }, "geometry": { "type": "LineString", "coordinates": [ [ 11.851501, 54.929509 ], [ 12.389832, 55.761123 ] ] } },
{ "type": "Feature", "properties": { "voltage_kv": 132.0, "from_node": 29, "to_node": 55, "length_km": 119.56254518183069, "delaunay_k": 5, "edge_set": "Delaunay5" }, "geometry": { "type": "LineString", "coordinates": [ [ 11.851501, 54.929509 ], [ 12.520294, 55.933818 ] ] } },
{ "type": "Feature", "properties": { "voltage_kv": 132.0, "from_node": 29, "to_node": 57, "length_km": 106.52170008052107, "delaunay_k": 5, "edge_set": "Delaunay5" }, "geometry": { "type": "LineString", "coordinates": [ [ 11.851501, 54.929509 ], [ 12.56424, 55.795877 ] ] } },
{ "type": "Feature", "properties": { "voltage_kv": 132.0, "from_node": 30, "to_node": 33, "length_km": 74.037072069318, "delaunay_k": 5, "edge_set": "Delaunay5" }, "geometry": { "type": "LineString", "coordinates": [ [ 11.877594, 55.657447 ], [ 11.902313, 54.992585 ] ] } },
{ "type": "Feature", "properties": { "voltage_kv": 132.0, "from_node": 30, "to_node": 34, "length_km": 88.91112080087899, "delaunay_k": 5, "edge_set": "Delaunay5" }, "geometry": { "type": "LineString", "coordinates": [ [ 11.877594, 55.657447 ], [ 11.921539, 54.859221 ] ] } },
{ "type": "Feature", "properties": { "voltage_kv": 132.0, "from_node": 31, "to_node": 33, "length_km": 91.759230470944416, "delaunay_k": 5, "edge_set": "Delaunay5" }, "geometry": { "type": "LineString", "coordinates": [ [ 11.885834, 55.816715 ], [ 11.902313, 54.992585 ] ] } },
{ "type": "Feature", "properties": { "voltage_kv": 132.0, "from_node": 31, "to_node": 35, "length_km": 76.749945495334316, "delaunay_k": 5, "edge_set": "Delaunay5" }, "geometry": { "type": "LineString", "coordinates": [ [ 11.885834, 55.816715 ], [ 11.932526, 55.127864 ] ] } },
{ "type": "Feature", "properties": { "voltage_kv": 132.0, "from_node": 31, "to_node": 36, "length_km": 66.372670641616622, "delaunay_k": 5, "edge_set": "Delaunay5" }, "geometry": { "type": "LineString", "coordinates": [ [ 11.885834, 55.816715 ], [ 11.933899, 55.22119 ] ] } },
{ "type": "Feature", "properties": { "voltage_kv": 132.0, "from_node": 31, "to_node": 39, "length_km": 118.16263028412521, "delaunay_k": 5, "edge_set": "Delaunay5" }, "geometry": { "type": "LineString", "coordinates": [ [ 11.885834, 55.816715 ], [ 11.965485, 54.756331 ] ] } },
{ "type": "Feature", "properties": { "voltage_kv": 132.0, "from_node": 32, "to_node": 42, "length_km": 75.855126285305758, "delaunay_k": 5, "edge_set": "Delaunay5" }, "geometry": { "type": "LineString", "coordinates": [ [ 11.90094, 55.293974 ], [ 12.061615, 55.969187 ] ] } },
{ "type": "Feature", "properties": { "voltage_kv": 132.0, "from_node": 32, "to_node": 46, "length_km": 71.996217866541869, "delaunay_k": 5, "edge_set": "Delaunay5" }, "geometry": { "type": "LineString", "coordinates": [ [ 11.90094, 55.293974 ], [ 12.22641, 55.913812 ] ] } },
{ "type": "Feature", "properties": { "voltage_kv": 132.0, "from_node": 32, "to_node": 47, "length_km": 62.459052033390407, "delaunay_k": 5, "edge_set": "Delaunay5" }, "geometry": { "type": "LineString", "coordinates": [ [ 11.90094, 55.293974 ], [ 12.23465, 55.822116 ] ] } },
{ "type": "Feature", "properties": { "voltage_kv": 132.0, "from_node": 32, "to_node": 48, "length_km": 56.567651060444732, "delaunay_k": 5, "edge_set": "Delaunay5" }, "geometry": { "type": "LineString", "coordinates": [ [ 11.90094, 55.293974 ], [ 12.240143, 55.764213 ] ] } },
{ "type": "Feature", "properties": { "voltage_kv": 132.0, "from_node": 32, "to_node": 53, "length_km": 80.049653830779945, "delaunay_k": 5, "edge_set": "Delaunay5" }, "geometry": { "type": "LineString", "coordinates": [ [ 11.90094, 55.293974 ], [ 12.474976, 55.935356 ] ] } },
{ "type": "Feature", "properties": { "voltage_kv": 132.0, "from_node": 33, "to_node": 37, "length_km": 63.294807970895036, "delaunay_k": 5, "edge_set": "Delaunay5" }, "geometry": { "type": "LineString", "coordinates": [ [ 11.902313, 54.992585 ], [ 11.949005, 55.560486 ] ] } },
{ "type": "Feature", "properties": { "voltage_kv": 132.0, "from_node": 33, "to_node": 42, "length_km": 109.19593834410612, "delaunay_k": 5, "edge_set": "Delaunay5" }, "geometry": { "type": "LineString", "coordinates": [ [ 11.902313, 54.992585 ], [ 12.061615, 55.969187 ] ] } },
{ "type": "Feature", "properties": { "voltage_kv": 132.0, "from_node": 33, "to_node": 44, "length_km": 84.515385415582784, "delaunay_k": 5, "edge_set": "Delaunay5" }, "geometry": { "type": "LineString", "coordinates": [ [ 11.902313, 54.992585 ], [ 12.154999, 55.737935 ] ] } },
{ "type": "Feature", "properties": { "voltage_kv": 132.0, "from_node": 33, "to_node": 46, "length_km": 104.59503401834255, "delaunay_k": 5, "edge_set": "Delaunay5" }, "geometry": { "type": "LineString", "coordinates": [ [ 11.902313, 54.992585 ], [ 12.22641, 55.913812 ] ] } },
{ "type": "Feature", "properties": { "voltage_kv": 132.0, "from_node": 33, "to_node": 47, "length_km": 94.724476825709203, "delaunay_k": 5, "edge_set": "Delaunay5" }, "geometry": { "type": "LineString", "coordinates": [ [ 11.902313, 54.992585 ], [ 12.23465, 55.822116 ] ] } },
{ "type": "Feature", "properties": { "voltage_kv": 132.0, "from_node": 33, "to_node": 48, "length_km": 88.537572211171124, "delaunay_k": 5, "edge_set": "Delaunay5" }, "geometry": { "type": "LineString", "coordinates": [ [ 11.902313, 54.992585 ], [ 12.240143, 55.764213 ] ] } },
{ "type": "Feature", "properties": { "voltage_kv": 132.0, "from_node": 33, "to_node": 53, "length_km": 111.03929071794245, "delaunay_k": 5, "edge_set": "Delaunay5" }, "geometry": { "type": "LineString", "coordinates": [ [ 11.902313, 54.992585 ], [ 12.474976, 55.935356 ] ] } },
{ "type": "Feature", "properties": { "voltage_kv": 132.0, "from_node": 34, "to_node": 37, "length_km": 78.09157755820388, "delaunay_k": 5, "edge_set": "Delaunay5" }, "geometry": { "type": "LineString", "coordinates": [ [ 11.921539, 54.859221 ], [ 11.949005, 55.560486 ] ] } },
{ "type": "Feature", "properties": { "voltage_kv": 132.0, "from_node": 34, "to_node": 42, "length_km": 123.89533174084325, "delaunay_k": 5, "edge_set": "Delaunay5" }, "geometry": { "type": "LineString", "coordinates": [ [ 11.921539, 54.859221 ], [ 12.061615, 55.969187 ] ] } },
{ "type": "Feature", "properties": { "voltage_kv": 132.0, "from_node": 34, "to_node": 44, "length_km": 98.946959093607958, "delaunay_k": 5, "edge_set": "Delaunay5" }, "geometry": { "type": "LineString", "coordinates": [ [ 11.921539, 54.859221 ], [ 12.154999, 55.737935 ] ] } },
{ "type": "Feature", "properties": { "voltage_kv": 132.0, "from_node": 34, "to_node": 46, "length_km": 118.99142489875543, "delaunay_k": 5, "edge_set": "Delaunay5" }, "geometry": { "type": "LineString", "coordinates": [ [ 11.921539, 54.859221 ], [ 12.22641, 55.913812 ] ] } },
{ "type": "Feature", "properties": { "voltage_kv": 132.0, "from_node": 34, "to_node": 47, "length_km": 109.02790308279306, "delaunay_k": 5, "edge_set": "Delaunay5" }, "geometry": { "type": "LineString", "coordinates": [ [ 11.921539, 54.859221 ], [ 12.23465, 55.822116 ] ] } },
{ "type": "Feature", "properties": { "voltage_kv": 132.0, "from_node": 34, "to_node": 48, "length_km": 102.76646941619678, "delaunay_k": 5, "edge_set": "Delaunay5" }, "geometry": { "type": "LineString", "coordinates": [ [ 11.921539, 54.859221 ], [ 12.240143, 55.764213 ] ] } },
{ "type": "Feature", "properties": { "voltage_kv": 132.0, "from_node": 34, "to_node": 53, "length_km": 124.83787516556964, "delaunay_k": 5, "edge_set": "Delaunay5" }, "geometry": { "type": "LineString", "coordinates": [ [ 11.921539, 54.859221 ], [ 12.474976, 55.935356 ] ] } },
{ "type": "Feature", "properties": { "voltage_kv": 132.0, "from_node": 36, "to_node": 42, "length_km": 83.668570066973984, "delaunay_k": 5, "edge_set": "Delaunay5" }, "geometry": { "type": "LineString", "coordinates": [ [ 11.933899, 55.22119 ], [ 12.061615, 55.969187 ] ] } },
{ "type": "Feature", "properties": { "voltage_kv": 132.0, "from_node": 36, "to_node": 46, "length_km": 79.292318393178007, "delaunay_k": 5, "edge_set": "Delaunay5" }, "geometry": { "type": "LineString", "coordinates": [ [ 11.933899, 55.22119 ], [ 12.22641, 55.913812 ] ] } },
{ "type": "Feature", "properties": { "voltage_kv": 132.0, "from_node": 36, "to_node": 47, "length_km": 69.549749673124694, "delaunay_k": 5, "edge_set": "Delaunay5" }, "geometry": { "type": "LineString", "coordinates": [ [ 11.933899, 55.22119 ], [ 12.23465, 55.822116 ] ] } },
{ "type": "Feature", "properties": { "voltage_kv": 132.0, "from_node": 36, "to_node": 48, "length_km": 63.481547722716179, "delaunay_k": 5, "edge_set": "Delaunay5" }, "geometry": { "type": "LineString", "coordinates": [ [ 11.933899, 55.22119 ], [ 12.240143, 55.764213 ] ] } },
{ "type": "Feature", "properties": { "voltage_kv": 132.0, "from_node": 36, "to_node": 53, "length_km": 86.528410053988821, "delaunay_k": 5, "edge_set": "Delaunay5" }, "geometry": { "type": "LineString", "coordinates": [ [ 11.933899, 55.22119 ], [ 12.474976, 55.935356 ] ] } },
{ "type": "Feature", "properties": { "voltage_kv": 132.0, "from_node": 37, "to_node": 55, "length_km": 54.909924121245894, "delaunay_k": 5, "edge_set": "Delaunay5" }, "geometry": { "type": "LineString", "coordinates": [ [ 11.949005, 55.560486 ], [ 12.520294, 55.933818 ] ] } },
{ "type": "Feature", "properties": { "voltage_kv": 132.0, "from_node": 38, "to_node": 42, "length_km": 58.660767587511245, "delaunay_k": 5, "edge_set": "Delaunay5" }, "geometry": { "type": "LineString", "coordinates": [ [ 11.961365, 55.445374 ], [ 12.061615, 55.969187 ] ] } },
{ "type": "Feature", "properties": { "voltage_kv": 132.0, "from_node": 38, "to_node": 46, "length_km": 54.756279412342494, "delaunay_k": 5, "edge_set": "Delaunay5" }, "geometry": { "type": "LineString", "coordinates": [ [ 11.961365, 55.445374 ], [ 12.22641, 55.913812 ] ] } },
{ "type": "Feature", "properties": { "voltage_kv": 132.0, "from_node": 38, "to_node": 53, "length_km": 63.401138917611149, "delaunay_k": 5, "edge_set": "Delaunay5" }, "geometry": { "type": "LineString", "coordinates": [ [ 11.961365, 55.445374 ], [ 12.474976, 55.935356 ] ] } }
]
}
