{
"type": "FeatureCollection",
"name": "n490_380kv_nodes",
"crs": { "type": "name", "properties": { "name": "urn:ogc:def:crs:OGC:1.3:CRS84" } },
"features": [
{ "type": "Feature", "properties": { "voltage_kv": 380.0, "lon": 6.156464, "lat": 60.504583, "n_buses_at_location": 1, "bus_ids": "6485", "bus_names": "Samnanger", "node_id": 0 }, "geometry": { "type": "Point", "coordinates": [ 6.156464, 60.504583 ] } },
{ "type": "Feature", "properties": { "voltage_kv": 380.0, "lon": 6.432495, "lat": 59.667741, "n_buses_at_location": 1, "bus_ids": "6440", "bus_names": "Sauda", "node_id": 1 }, "geometry": { "type": "Point", "coordinates": [ 6.432495, 59.667741 ] } },
{ "type": "Feature", "properties": { "voltage_kv": 380.0, "lon": 6.491547, "lat": 59.460431, "n_buses_at_location": 1, "bus_ids": "6442", "bus_names": "Liastølen", "node_id": 2 }, "geometry": { "type": "Point", "coordinates": [ 6.491547, 59.460431 ] } },
{ "type": "Feature", "properties": { "voltage_kv": 380.0, "lon": 6.650848, "lat": 59.461826, "n_buses_at_location": 1, "bus_ids": "6435", "bus_names": "Saurdal", "node_id": 3 }, "geometry": { "type": "Point", "coordinates": [ 6.650848, 59.461826 ] } },
{ "type": "Feature", "properties": { "voltage_kv": 380.0, "lon": 6.992798, "lat": 59.523872, "n_buses_at_location": 1, "bus_ids": "6436", "bus_names": "Kvilldal", "node_id": 4 }, "geometry": { "type": "Point", "coordinates": [ 6.992798, 59.523872 ] } },
{ "type": "Feature", "properties": { "voltage_kv": 380.0, "lon": 7.033997, "lat": 62.47807, "n_buses_at_location": 1, "bus_ids": "6607", "bus_names": "Ålesund", "node_id": 5 }, "geometry": { "type": "Point", "coordinates": [ 7.033997, 62.47807 ] } },
{ "type": "Feature", "properties": { "voltage_kv": 380.0, "lon": 7.108154, "lat": 60.527563, "n_buses_at_location": 1, "bus_ids": "6415", "bus_names": "Sima", "node_id": 6 }, "geometry": { "type": "Point", "coordinates": [ 7.108154, 60.527563 ] } },
{ "type": "Feature", "properties": { "voltage_kv": 380.0, "lon": 7.216644, "lat": 60.950443, "n_buses_at_location": 1, "bus_ids": "6411", "bus_names": "Aurland 1", "node_id": 7 }, "geometry": { "type": "Point", "coordinates": [ 7.216644, 60.950443 ] } },
{ "type": "Feature", "properties": { "voltage_kv": 380.0, "lon": 7.23587, "lat": 60.484968, "n_buses_at_location": 1, "bus_ids": "6421", "bus_names": "Eidfjord", "node_id": 8 }, "geometry": { "type": "Point", "coordinates": [ 7.23587, 60.484968 ] } },
{ "type": "Feature", "properties": { "voltage_kv": 380.0, "lon": 7.338867, "lat": 61.206798, "n_buses_at_location": 1, "bus_ids": "6407", "bus_names": "Fardal in Sogn", "node_id": 9 }, "geometry": { "type": "Point", "coordinates": [ 7.338867, 61.206798 ] } },
{ "type": "Feature", "properties": { "voltage_kv": 380.0, "lon": 7.395172, "lat": 60.997087, "n_buses_at_location": 1, "bus_ids": "6408", "bus_names": "Aurland 2", "node_id": 10 }, "geometry": { "type": "Point", "coordinates": [ 7.395172, 60.997087 ] } },
{ "type": "Feature", "properties": { "voltage_kv": 380.0, "lon": 7.462463, "lat": 59.479266, "n_buses_at_location": 1, "bus_ids": "6469", "bus_names": "Holen", "node_id": 11 }, "geometry": { "type": "Point", "coordinates": [ 7.462463, 59.479266 ] } },
{ "type": "Feature", "properties": { "voltage_kv": 380.0, "lon": 7.462463, "lat": 60.931767, "n_buses_at_location": 1, "bus_ids": "6409", "bus_names": "Aurland 3", "node_id": 12 }, "geometry": { "type": "Point", "coordinates": [ 7.462463, 60.931767 ] } },
{ "type": "Feature", "properties": { "voltage_kv": 380.0, "lon": 7.727509, "lat": 58.974791, "n_buses_at_location": 1, "bus_ids": "6456", "bus_names": "Hekni", "node_id": 13 }, "geometry": { "type": "Point", "coordinates": [ 7.727509, 58.974791 ] } },
{ "type": "Feature", "properties": { "voltage_kv": 380.0, "lon": 7.7948, "lat": 62.526259, "n_buses_at_location": 1, "bus_ids": "6617", "bus_names": "Grytten", "node_id": 14 }, "geometry": { "type": "Point", "coordinates": [ 7.7948, 62.526259 ] } },
{ "type": "Feature", "properties": { "voltage_kv": 380.0, "lon": 7.893677, "lat": 60.630775, "n_buses_at_location": 1, "bus_ids": "6422", "bus_names": "unknown", "node_id": 15 }, "geometry": { "type": "Point", "coordinates": [ 7.893677, 60.630775 ] } },
{ "type": "Feature", "properties": { "voltage_kv": 380.0, "lon": 8.084564, "lat": 60.670488, "n_buses_at_location": 1, "bus_ids": "6423", "bus_names": "unknown", "node_id": 16 }, "geometry": { "type": "Point", "coordinates": [ 8.084564, 60.670488 ] } },
{ "type": "Feature", "properties": { "voltage_kv": 380.0, "lon": 8.088684, "lat": 60.511343, "n_buses_at_location": 1, "bus_ids": "6429", "bus_names": "unknown", "node_id": 17 }, "geometry": { "type": "Point", "coordinates": [ 8.088684, 60.511343 ] } },
{ "type": "Feature", "properties": { "voltage_kv": 380.0, "lon": 8.102417, "lat": 58.2445, "n_buses_at_location": 1, "bus_ids": "6209", "bus_names": "Kristiansand", "node_id": 18 }, "geometry": { "type": "Point", "coordinates": [ 8.102417, 58.2445 ] } },
{ "type": "Feature", "properties": { "voltage_kv": 380.0, "lon": 8.480072, "lat": 62.679816, "n_buses_at_location": 1, "bus_ids": "6609", "bus_names": "Aura", "node_id": 19 }, "geometry": { "type": "Point", "coordinates": [ 8.480072, 62.679816 ] } },
{ "type": "Feature", "properties": { "voltage_kv": 380.0, "lon": 8.596802, "lat": 60.357527, "n_buses_at_location": 1, "bus_ids": "6430", "bus_names": "unknown", "node_id": 20 }, "geometry": { "type": "Point", "coordinates": [ 8.596802, 60.357527 ] } },
{ "type": "Feature", "properties": { "voltage_kv": 380.0, "lon": 9.026642, "lat": 60.232994, "n_buses_at_location": 1, "bus_ids": "6427", "bus_names": "Nore 1", "node_id": 21 }, "geometry": { "type": "Point", "coordinates": [ 9.026642, 60.232994 ] } },
{ "type": "Feature", "properties": { "voltage_kv": 380.0, "lon": 9.593811, "lat": 59.282019, "n_buses_at_location": 1, "bus_ids": "6468", "bus_names": "unknown", "node_id": 22 }, "geometry": { "type": "Point", "coordinates": [ 9.593811, 59.282019 ] } },
{ "type": "Feature", "properties": { "voltage_kv": 380.0, "lon": 10.092316, "lat": 60.198203, "n_buses_at_location": 1, "bus_ids": "6431", "bus_names": "unknown", "node_id": 23 }, "geometry": { "type": "Point", "coordinates": [ 10.092316, 60.198203 ] } },
{ "type": "Feature", "properties": { "voltage_kv": 380.0, "lon": 10.214539, "lat": 60.322868, "n_buses_at_location": 1, "bus_ids": "6432", "bus_names": "unknown", "node_id": 24 }, "geometry": { "type": "Point", "coordinates": [ 10.214539, 60.322868 ] } },
{ "type": "Feature", "properties": { "voltage_kv": 380.0, "lon": 10.288696, "lat": 59.88687, "n_buses_at_location": 1, "bus_ids": "6466", "bus_names": "Sylling", "node_id": 25 }, "geometry": { "type": "Point", "coordinates": [ 10.288696, 59.88687 ] } },
{ "type": "Feature", "properties": { "voltage_kv": 380.0, "lon": 10.457611, "lat": 63.276888, "n_buses_at_location": 1, "bus_ids": "6602", "bus_names": "unknown", "node_id": 26 }, "geometry": { "type": "Point", "coordinates": [ 10.457611, 63.276888 ] } },
{ "type": "Feature", "properties": { "voltage_kv": 380.0, "lon": 10.780334, "lat": 59.580242, "n_buses_at_location": 1, "bus_ids": "6476", "bus_names": "unknown", "node_id": 27 }, "geometry": { "type": "Point", "coordinates": [ 10.780334, 59.580242 ] } },
{ "type": "Feature", "properties": { "voltage_kv": 380.0, "lon": 10.82428, "lat": 59.721792, "n_buses_at_location": 1, "bus_ids": "6475", "bus_names": "unknown", "node_id": 28 }, "geometry": { "type": "Point", "coordinates": [ 10.82428, 59.721792 ] } },
{ "type": "Feature", "properties": { "voltage_kv": 380.0, "lon": 10.839386, "lat": 59.958448, "n_buses_at_location": 1, "bus_ids": "6482", "bus_names": "Oslo", "node_id": 29 }, "geometry": { "type": "Point", "coordinates": [ 10.839386, 59.958448 ] } },
{ "type": "Feature", "properties": { "voltage_kv": 380.0, "lon": 11.089325, "lat": 55.66132, "n_buses_at_location": 1, "bus_ids": "5494", "bus_names": "Asnæsværket", "node_id": 30 }, "geometry": { "type": "Point", "coordinates": [ 11.089325, 55.66132 ] } },
{ "type": "Feature", "properties": { "voltage_kv": 380.0, "lon": 11.181335, "lat": 59.317776, "n_buses_at_location": 1, "bus_ids": "6375", "bus_names": "Hasle", "node_id": 31 }, "geometry": { "type": "Point", "coordinates": [ 11.181335, 59.317776 ] } },
{ "type": "Feature", "properties": { "voltage_kv": 380.0, "lon": 11.211548, "lat": 55.548058, "n_buses_at_location": 1, "bus_ids": "5530", "bus_names": "Herslev", "node_id": 32 }, "geometry": { "type": "Point", "coordinates": [ 11.211548, 55.548058 ] } },
{ "type": "Feature", "properties": { "voltage_kv": 380.0, "lon": 11.409302, "lat": 59.147769, "n_buses_at_location": 1, "bus_ids": "6376", "bus_names": "Halden", "node_id": 33 }, "geometry": { "type": "Point", "coordinates": [ 11.409302, 59.147769 ] } },
{ "type": "Feature", "properties": { "voltage_kv": 380.0, "lon": 11.629028, "lat": 58.795248, "n_buses_at_location": 1, "bus_ids": "6142", "bus_names": "Loviseholm", "node_id": 34 }, "geometry": { "type": "Point", "coordinates": [ 11.629028, 58.795248 ] } },
{ "type": "Feature", "properties": { "voltage_kv": 380.0, "lon": 11.727905, "lat": 63.035662, "n_buses_at_location": 1, "bus_ids": "6816", "bus_names": "Nea", "node_id": 35 }, "geometry": { "type": "Point", "coordinates": [ 11.727905, 63.035662 ] } },
{ "type": "Feature", "properties": { "voltage_kv": 380.0, "lon": 11.885834, "lat": 55.816715, "n_buses_at_location": 1, "bus_ids": "5515", "bus_names": "Kyndbyværket", "node_id": 36 }, "geometry": { "type": "Point", "coordinates": [ 11.885834, 55.816715 ] } },
{ "type": "Feature", "properties": { "voltage_kv": 380.0, "lon": 11.954498, "lat": 57.726153, "n_buses_at_location": 1, "bus_ids": "6113", "bus_names": "Hisingen", "node_id": 37 }, "geometry": { "type": "Point", "coordinates": [ 11.954498, 57.726153 ] } },
{ "type": "Feature", "properties": { "voltage_kv": 380.0, "lon": 11.961365, "lat": 55.445374, "n_buses_at_location": 1, "bus_ids": "5525", "bus_names": "Bjæverskov", "node_id": 38 }, "geometry": { "type": "Point", "coordinates": [ 11.961365, 55.445374 ] } },
{ "type": "Feature", "properties": { "voltage_kv": 380.0, "lon": 12.087708, "lat": 57.568888, "n_buses_at_location": 1, "bus_ids": "6116", "bus_names": "unknown", "node_id": 39 }, "geometry": { "type": "Point", "coordinates": [ 12.087708, 57.568888 ] } },
{ "type": "Feature", "properties": { "voltage_kv": 380.0, "lon": 12.237396, "lat": 57.328745, "n_buses_at_location": 1, "bus_ids": "6118", "bus_names": "Ringhals", "node_id": 40 }, "geometry": { "type": "Point", "coordinates": [ 12.237396, 57.328745 ] } },
{ "type": "Feature", "properties": { "voltage_kv": 380.0, "lon": 12.240143, "lat": 55.764213, "n_buses_at_location": 1, "bus_ids": "5512", "bus_names": "Hovegård", "node_id": 41 }, "geometry": { "type": "Point", "coordinates": [ 12.240143, 55.764213 ] } },
{ "type": "Feature", "properties": { "voltage_kv": 380.0, "lon": 12.242889, "lat": 55.693068, "n_buses_at_location": 1, "bus_ids": "7645", "bus_names": "nan", "node_id": 42 }, "geometry": { "type": "Point", "coordinates": [ 12.242889, 55.693068 ] } },
{ "type": "Feature", "properties": { "voltage_kv": 380.0, "lon": 12.244263, "lat": 57.964417, "n_buses_at_location": 1, "bus_ids": "6112", "bus_names": "Kilanda", "node_id": 43 }, "geometry": { "type": "Point", "coordinates": [ 12.244263, 57.964417 ] } },
{ "type": "Feature", "properties": { "voltage_kv": 380.0, "lon": 12.299194, "lat": 58.304438, "n_buses_at_location": 1, "bus_ids": "6109", "bus_names": "Skogssäter", "node_id": 44 }, "geometry": { "type": "Point", "coordinates": [ 12.299194, 58.304438 ] } },
{ "type": "Feature", "properties": { "voltage_kv": 380.0, "lon": 12.311554, "lat": 55.670615, "n_buses_at_location": 1, "bus_ids": "5521", "bus_names": "Ishøj", "node_id": 45 }, "geometry": { "type": "Point", "coordinates": [ 12.311554, 55.670615 ] } },
{ "type": "Feature", "properties": { "voltage_kv": 380.0, "lon": 12.385712, "lat": 55.942279, "n_buses_at_location": 1, "bus_ids": "6105", "bus_names": "Gørløsegård", "node_id": 46 }, "geometry": { "type": "Point", "coordinates": [ 12.385712, 55.942279 ] } },
{ "type": "Feature", "properties": { "voltage_kv": 380.0, "lon": 12.407684, "lat": 57.816235, "n_buses_at_location": 1, "bus_ids": "6114", "bus_names": "Stenkullen", "node_id": 47 }, "geometry": { "type": "Point", "coordinates": [ 12.407684, 57.816235 ] } },
{ "type": "Feature", "properties": { "voltage_kv": 380.0, "lon": 12.415924, "lat": 55.648924, "n_buses_at_location": 1, "bus_ids": "5527", "bus_names": "unknown", "node_id": 48 }, "geometry": { "type": "Point", "coordinates": [ 12.415924, 55.648924 ] } },
{ "type": "Feature", "properties": { "voltage_kv": 380.0, "lon": 12.562866, "lat": 57.548261, "n_buses_at_location": 1, "bus_ids": "6117", "bus_names": "Strömma", "node_id": 49 }, "geometry": { "type": "Point", "coordinates": [ 12.562866, 57.548261 ] } },
{ "type": "Feature", "properties": { "voltage_kv": 380.0, "lon": 12.56424, "lat": 55.795877, "n_buses_at_location": 1, "bus_ids": "5517", "bus_names": "Glentegård", "node_id": 50 }, "geometry": { "type": "Point", "coordinates": [ 12.56424, 55.795877 ] } },
{ "type": "Feature", "properties": { "voltage_kv": 380.0, "lon": 12.568359, "lat": 63.361367, "n_buses_at_location": 1, "bus_ids": "6595", "bus_names": "Högåsen", "node_id": 51 }, "geometry": { "type": "Point", "coordinates": [ 12.568359, 63.361367 ] } },
{ "type": "Feature", "properties": { "voltage_kv": 380.0, "lon": 12.671356, "lat": 57.356164, "n_buses_at_location": 1, "bus_ids": "6119", "bus_names": "Horred", "node_id": 52 }, "geometry": { "type": "Point", "coordinates": [ 12.671356, 57.356164 ] } },
{ "type": "Feature", "properties": { "voltage_kv": 380.0, "lon": 12.970734, "lat": 55.786613, "n_buses_at_location": 1, "bus_ids": "5570", "bus_names": "Barsebäck", "node_id": 53 }, "geometry": { "type": "Point", "coordinates": [ 12.970734, 55.786613 ] } },
{ "type": "Feature", "properties": { "voltage_kv": 380.0, "lon": 12.9776, "lat": 59.337392, "n_buses_at_location": 1, "bus_ids": "6377", "bus_names": "Borgvik", "node_id": 54 }, "geometry": { "type": "Point", "coordinates": [ 12.9776, 59.337392 ] } },
{ "type": "Feature", "properties": { "voltage_kv": 380.0, "lon": 12.984467, "lat": 56.159318, "n_buses_at_location": 1, "bus_ids": "6130", "bus_names": "Söderåsen", "node_id": 55 }, "geometry": { "type": "Point", "coordinates": [ 12.984467, 56.159318 ] } },
{ "type": "Feature", "properties": { "voltage_kv": 380.0, "lon": 12.991333, "lat": 56.771541, "n_buses_at_location": 1, "bus_ids": "6131", "bus_names": "Breared", "node_id": 56 }, "geometry": { "type": "Point", "coordinates": [ 12.991333, 56.771541 ] } },
{ "type": "Feature", "properties": { "voltage_kv": 380.0, "lon": 13.066864, "lat": 56.937483, "n_buses_at_location": 1, "bus_ids": "6134", "bus_names": "Häradsbo", "node_id": 57 }, "geometry": { "type": "Point", "coordinates": [ 13.066864, 56.937483 ] } },
{ "type": "Feature", "properties": { "voltage_kv": 380.0, "lon": 13.145142, "lat": 55.737162, "n_buses_at_location": 1, "bus_ids": "5573", "bus_names": "Sege", "node_id": 58 }, "geometry": { "type": "Point", "coordinates": [ 13.145142, 55.737162 ] } },
{ "type": "Feature", "properties": { "voltage_kv": 380.0, "lon": 13.189087, "lat": 55.58145, "n_buses_at_location": 1, "bus_ids": "5572", "bus_names": "Arrie", "node_id": 59 }, "geometry": { "type": "Point", "coordinates": [ 13.189087, 55.58145 ] } },
{ "type": "Feature", "properties": { "voltage_kv": 380.0, "lon": 13.414307, "lat": 57.53868, "n_buses_at_location": 1, "bus_ids": "6120", "bus_names": "Uddebo", "node_id": 60 }, "geometry": { "type": "Point", "coordinates": [ 13.414307, 57.53868 ] } },
{ "type": "Feature", "properties": { "voltage_kv": 380.0, "lon": 13.458252, "lat": 63.368755, "n_buses_at_location": 1, "bus_ids": "6570", "bus_names": "Järpströmmen", "node_id": 61 }, "geometry": { "type": "Point", "coordinates": [ 13.458252, 63.368755 ] } },
{ "type": "Feature", "properties": { "voltage_kv": 380.0, "lon": 13.580475, "lat": 55.86067, "n_buses_at_location": 1, "bus_ids": "5574", "bus_names": "Hurva", "node_id": 62 }, "geometry": { "type": "Point", "coordinates": [ 13.580475, 55.86067 ] } },
{ "type": "Feature", "properties": { "voltage_kv": 380.0, "lon": 13.763123, "lat": 66.142743, "n_buses_at_location": 1, "bus_ids": "6789", "bus_names": "Røssåga", "node_id": 63 }, "geometry": { "type": "Point", "coordinates": [ 13.763123, 66.142743 ] } },
{ "type": "Feature", "properties": { "voltage_kv": 380.0, "lon": 13.807068, "lat": 66.707884, "n_buses_at_location": 1, "bus_ids": "6735", "bus_names": "Svartisen", "node_id": 64 }, "geometry": { "type": "Point", "coordinates": [ 13.807068, 66.707884 ] } },
{ "type": "Feature", "properties": { "voltage_kv": 380.0, "lon": 13.878479, "lat": 58.56109, "n_buses_at_location": 1, "bus_ids": "6110", "bus_names": "Timmersdala", "node_id": 65 }, "geometry": { "type": "Point", "coordinates": [ 13.878479, 58.56109 ] } },
{ "type": "Feature", "properties": { "voltage_kv": 380.0, "lon": 14.191589, "lat": 66.282328, "n_buses_at_location": 1, "bus_ids": "6678", "bus_names": "Rana", "node_id": 66 }, "geometry": { "type": "Point", "coordinates": [ 14.191589, 66.282328 ] } },
{ "type": "Feature", "properties": { "voltage_kv": 380.0, "lon": 14.197083, "lat": 57.718819, "n_buses_at_location": 1, "bus_ids": "6121", "bus_names": "Tenhult", "node_id": 67 }, "geometry": { "type": "Point", "coordinates": [ 14.197083, 57.718819 ] } },
{ "type": "Feature", "properties": { "voltage_kv": 380.0, "lon": 14.40033, "lat": 56.809901, "n_buses_at_location": 1, "bus_ids": "6126", "bus_names": "Alvesta", "node_id": 68 }, "geometry": { "type": "Point", "coordinates": [ 14.40033, 56.809901 ] } },
{ "type": "Feature", "properties": { "voltage_kv": 380.0, "lon": 14.515686, "lat": 62.516121, "n_buses_at_location": 1, "bus_ids": "6585", "bus_names": "Rätan", "node_id": 69 }, "geometry": { "type": "Point", "coordinates": [ 14.515686, 62.516121 ] } },
{ "type": "Feature", "properties": { "voltage_kv": 380.0, "lon": 14.625549, "lat": 57.798676, "n_buses_at_location": 1, "bus_ids": "6132", "bus_names": "Barkeryd", "node_id": 70 }, "geometry": { "type": "Point", "coordinates": [ 14.625549, 57.798676 ] } },
{ "type": "Feature", "properties": { "voltage_kv": 380.0, "lon": 14.734039, "lat": 62.533228, "n_buses_at_location": 1, "bus_ids": "6586", "bus_names": "Rätan", "node_id": 71 }, "geometry": { "type": "Point", "coordinates": [ 14.734039, 62.533228 ] } },
{ "type": "Feature", "properties": { "voltage_kv": 380.0, "lon": 14.749146, "lat": 56.325675, "n_buses_at_location": 1, "bus_ids": "6127", "bus_names": "Hemsjö", "node_id": 72 }, "geometry": { "type": "Point", "coordinates": [ 14.749146, 56.325675 ] } },
{ "type": "Feature", "properties": { "voltage_kv": 380.0, "lon": 14.790344, "lat": 56.260134, "n_buses_at_location": 1, "bus_ids": "6128", "bus_names": "Karlshamm", "node_id": 73 }, "geometry": { "type": "Point", "coordinates": [ 14.790344, 56.260134 ] } },
{ "type": "Feature", "properties": { "voltage_kv": 380.0, "lon": 14.845276, "lat": 56.173846, "n_buses_at_location": 1, "bus_ids": "6136", "bus_names": "Stärnö", "node_id": 74 }, "geometry": { "type": "Point", "coordinates": [ 14.845276, 56.173846 ] } },
{ "type": "Feature", "properties": { "voltage_kv": 380.0, "lon": 15.125427, "lat": 59.05115, "n_buses_at_location": 1, "bus_ids": "6397", "bus_names": "Östansjö", "node_id": 75 }, "geometry": { "type": "Point", "coordinates": [ 15.125427, 59.05115 ] } },
{ "type": "Feature", "properties": { "voltage_kv": 380.0, "lon": 15.184479, "lat": 59.173817, "n_buses_at_location": 1, "bus_ids": "6379", "bus_names": "Hallsberg", "node_id": 76 }, "geometry": { "type": "Point", "coordinates": [ 15.184479, 59.173817 ] } },
{ "type": "Feature", "properties": { "voltage_kv": 380.0, "lon": 15.188599, "lat": 60.415208, "n_buses_at_location": 1, "bus_ids": "6383", "bus_names": "Bäsna", "node_id": 77 }, "geometry": { "type": "Point", "coordinates": [ 15.188599, 60.415208 ] } },
{ "type": "Feature", "properties": { "voltage_kv": 380.0, "lon": 15.195465, "lat": 58.28423, "n_buses_at_location": 1, "bus_ids": "6124", "bus_names": "Kolstad", "node_id": 78 }, "geometry": { "type": "Point", "coordinates": [ 15.195465, 58.28423 ] } },
{ "type": "Feature", "properties": { "voltage_kv": 380.0, "lon": 15.206451, "lat": 63.237956, "n_buses_at_location": 1, "bus_ids": "6582", "bus_names": "Midskog", "node_id": 79 }, "geometry": { "type": "Point", "coordinates": [ 15.206451, 63.237956 ] } },
{ "type": "Feature", "properties": { "voltage_kv": 380.0, "lon": 15.231171, "lat": 59.466013, "n_buses_at_location": 1, "bus_ids": "6381", "bus_names": "Lindbacka", "node_id": 80 }, "geometry": { "type": "Point", "coordinates": [ 15.231171, 59.466013 ] } },
{ "type": "Feature", "properties": { "voltage_kv": 380.0, "lon": 15.387726, "lat": 60.052503, "n_buses_at_location": 1, "bus_ids": "6385", "bus_names": "Morgårdshammar", "node_id": 81 }, "geometry": { "type": "Point", "coordinates": [ 15.387726, 60.052503 ] } },
{ "type": "Feature", "properties": { "voltage_kv": 380.0, "lon": 15.442657, "lat": 60.406393, "n_buses_at_location": 1, "bus_ids": "6384", "bus_names": "Repbäcken", "node_id": 82 }, "geometry": { "type": "Point", "coordinates": [ 15.442657, 60.406393 ] } },
{ "type": "Feature", "properties": { "voltage_kv": 380.0, "lon": 15.542908, "lat": 56.649432, "n_buses_at_location": 1, "bus_ids": "6125", "bus_names": "Nybro", "node_id": 83 }, "geometry": { "type": "Point", "coordinates": [ 15.542908, 56.649432 ] } },
{ "type": "Feature", "properties": { "voltage_kv": 380.0, "lon": 15.757141, "lat": 67.288485, "n_buses_at_location": 1, "bus_ids": "6736", "bus_names": "Salten", "node_id": 84 }, "geometry": { "type": "Point", "coordinates": [ 15.757141, 67.288485 ] } },
{ "type": "Feature", "properties": { "voltage_kv": 380.0, "lon": 15.846405, "lat": 63.582177, "n_buses_at_location": 1, "bus_ids": "6567", "bus_names": "Storfinnforsen", "node_id": 85 }, "geometry": { "type": "Point", "coordinates": [ 15.846405, 63.582177 ] } },
{ "type": "Feature", "properties": { "voltage_kv": 380.0, "lon": 15.850525, "lat": 67.598233, "n_buses_at_location": 1, "bus_ids": "6734", "bus_names": "Kobbelv", "node_id": 86 }, "geometry": { "type": "Point", "coordinates": [ 15.850525, 67.598233 ] } },
{ "type": "Feature", "properties": { "voltage_kv": 380.0, "lon": 16.035919, "lat": 58.70477, "n_buses_at_location": 1, "bus_ids": "6122", "bus_names": "Glan", "node_id": 87 }, "geometry": { "type": "Point", "coordinates": [ 16.035919, 58.70477 ] } },
{ "type": "Feature", "properties": { "voltage_kv": 380.0, "lon": 16.096344, "lat": 58.492976, "n_buses_at_location": 1, "bus_ids": "6123", "bus_names": "Kimstad", "node_id": 88 }, "geometry": { "type": "Point", "coordinates": [ 16.096344, 58.492976 ] } },
{ "type": "Feature", "properties": { "voltage_kv": 380.0, "lon": 16.254272, "lat": 63.524685, "n_buses_at_location": 1, "bus_ids": "6568", "bus_names": "Ramsele", "node_id": 89 }, "geometry": { "type": "Point", "coordinates": [ 16.254272, 63.524685 ] } },
{ "type": "Feature", "properties": { "voltage_kv": 380.0, "lon": 16.660767, "lat": 57.43682, "n_buses_at_location": 1, "bus_ids": "6139", "bus_names": "Oskarshamn", "node_id": 90 }, "geometry": { "type": "Point", "coordinates": [ 16.660767, 57.43682 ] } },
{ "type": "Feature", "properties": { "voltage_kv": 380.0, "lon": 16.660767, "lat": 58.984699, "n_buses_at_location": 1, "bus_ids": "6382", "bus_names": "Hedenlunda", "node_id": 91 }, "geometry": { "type": "Point", "coordinates": [ 16.660767, 58.984699 ] } },
{ "type": "Feature", "properties": { "voltage_kv": 380.0, "lon": 16.663513, "lat": 63.486702, "n_buses_at_location": 1, "bus_ids": "6573", "bus_names": "Kilforsen", "node_id": 92 }, "geometry": { "type": "Point", "coordinates": [ 16.663513, 63.486702 ] } },
{ "type": "Feature", "properties": { "voltage_kv": 380.0, "lon": 16.791229, "lat": 63.646259, "n_buses_at_location": 1, "bus_ids": "6541", "bus_names": "Långbjörn", "node_id": 93 }, "geometry": { "type": "Point", "coordinates": [ 16.791229, 63.646259 ] } },
{ "type": "Feature", "properties": { "voltage_kv": 380.0, "lon": 16.876373, "lat": 65.299207, "n_buses_at_location": 1, "bus_ids": "6669", "bus_names": "Juktan", "node_id": 94 }, "geometry": { "type": "Point", "coordinates": [ 16.876373, 65.299207 ] } },
{ "type": "Feature", "properties": { "voltage_kv": 380.0, "lon": 16.923065, "lat": 63.549164, "n_buses_at_location": 1, "bus_ids": "6544", "bus_names": "Betåsen", "node_id": 95 }, "geometry": { "type": "Point", "coordinates": [ 16.923065, 63.549164 ] } },
{ "type": "Feature", "properties": { "voltage_kv": 380.0, "lon": 16.931305, "lat": 60.692679, "n_buses_at_location": 1, "bus_ids": "6365", "bus_names": "Ängsberg", "node_id": 96 }, "geometry": { "type": "Point", "coordinates": [ 16.931305, 60.692679 ] } },
{ "type": "Feature", "properties": { "voltage_kv": 380.0, "lon": 16.972504, "lat": 60.570102, "n_buses_at_location": 1, "bus_ids": "6366", "bus_names": "Finnböle", "node_id": 97 }, "geometry": { "type": "Point", "coordinates": [ 16.972504, 60.570102 ] } },
{ "type": "Feature", "properties": { "voltage_kv": 380.0, "lon": 17.024689, "lat": 62.540828, "n_buses_at_location": 1, "bus_ids": "6550", "bus_names": "Nysäter", "node_id": 98 }, "geometry": { "type": "Point", "coordinates": [ 17.024689, 62.540828 ] } },
{ "type": "Feature", "properties": { "voltage_kv": 380.0, "lon": 17.045288, "lat": 60.624713, "n_buses_at_location": 1, "bus_ids": "6337", "bus_names": "Stackbo", "node_id": 99 }, "geometry": { "type": "Point", "coordinates": [ 17.045288, 60.624713 ] } },
{ "type": "Feature", "properties": { "voltage_kv": 380.0, "lon": 17.049408, "lat": 65.221045, "n_buses_at_location": 1, "bus_ids": "6676", "bus_names": "Blaiken", "node_id": 100 }, "geometry": { "type": "Point", "coordinates": [ 17.049408, 65.221045 ] } },
{ "type": "Feature", "properties": { "voltage_kv": 380.0, "lon": 17.059021, "lat": 60.550528, "n_buses_at_location": 1, "bus_ids": "6360", "bus_names": "Finnböle", "node_id": 101 }, "geometry": { "type": "Point", "coordinates": [ 17.059021, 60.550528 ] } },
{ "type": "Feature", "properties": { "voltage_kv": 380.0, "lon": 17.167511, "lat": 63.184727, "n_buses_at_location": 1, "bus_ids": "6549", "bus_names": "Hjälta", "node_id": 102 }, "geometry": { "type": "Point", "coordinates": [ 17.167511, 63.184727 ] } },
{ "type": "Feature", "properties": { "voltage_kv": 380.0, "lon": 17.218323, "lat": 59.22234, "n_buses_at_location": 1, "bus_ids": "6335", "bus_names": "Åker", "node_id": 103 }, "geometry": { "type": "Point", "coordinates": [ 17.218323, 59.22234 ] } },
{ "type": "Feature", "properties": { "voltage_kv": 380.0, "lon": 17.288361, "lat": 68.158786, "n_buses_at_location": 1, "bus_ids": "6725", "bus_names": "Ofoten", "node_id": 104 }, "geometry": { "type": "Point", "coordinates": [ 17.288361, 68.158786 ] } },
{ "type": "Feature", "properties": { "voltage_kv": 380.0, "lon": 17.329559, "lat": 59.716945, "n_buses_at_location": 1, "bus_ids": "6356", "bus_names": "Hamra", "node_id": 105 }, "geometry": { "type": "Point", "coordinates": [ 17.329559, 59.716945 ] } },
{ "type": "Feature", "properties": { "voltage_kv": 380.0, "lon": 17.468262, "lat": 62.460297, "n_buses_at_location": 1, "bus_ids": "6554", "bus_names": "Bandsjö", "node_id": 106 }, "geometry": { "type": "Point", "coordinates": [ 17.468262, 62.460297 ] } },
{ "type": "Feature", "properties": { "voltage_kv": 380.0, "lon": 17.541046, "lat": 64.996778, "n_buses_at_location": 1, "bus_ids": "6671", "bus_names": "Grundfors", "node_id": 107 }, "geometry": { "type": "Point", "coordinates": [ 17.541046, 64.996778 ] } },
{ "type": "Feature", "properties": { "voltage_kv": 380.0, "lon": 17.579498, "lat": 68.517173, "n_buses_at_location": 1, "bus_ids": "6724", "bus_names": "Narvik", "node_id": 108 }, "geometry": { "type": "Point", "coordinates": [ 17.579498, 68.517173 ] } },
{ "type": "Feature", "properties": { "voltage_kv": 380.0, "lon": 17.683868, "lat": 59.349996, "n_buses_at_location": 1, "bus_ids": "7817", "bus_names": "nan", "node_id": 109 }, "geometry": { "type": "Point", "coordinates": [ 17.683868, 59.349996 ] } },
{ "type": "Feature", "properties": { "voltage_kv": 380.0, "lon": 17.766266, "lat": 59.221637, "n_buses_at_location": 1, "bus_ids": "6353", "bus_names": "Kolbotten", "node_id": 110 }, "geometry": { "type": "Point", "coordinates": [ 17.766266, 59.221637 ] } },
{ "type": "Feature", "properties": { "voltage_kv": 380.0, "lon": 17.932434, "lat": 59.094909, "n_buses_at_location": 1, "bus_ids": "6354", "bus_names": "Hall", "node_id": 111 }, "geometry": { "type": "Point", "coordinates": [ 17.932434, 59.094909 ] } },
{ "type": "Feature", "properties": { "voltage_kv": 380.0, "lon": 17.992859, "lat": 67.610267, "n_buses_at_location": 1, "bus_ids": "6793", "bus_names": "Ritsem", "node_id": 112 }, "geometry": { "type": "Point", "coordinates": [ 17.992859, 67.610267 ] } },
{ "type": "Feature", "properties": { "voltage_kv": 380.0, "lon": 18.020325, "lat": 60.532293, "n_buses_at_location": 1, "bus_ids": "6342", "bus_names": "Dannebo", "node_id": 113 }, "geometry": { "type": "Point", "coordinates": [ 18.020325, 60.532293 ] } },
{ "type": "Feature", "properties": { "voltage_kv": 380.0, "lon": 18.095856, "lat": 59.317075, "n_buses_at_location": 1, "bus_ids": "6363", "bus_names": "Stockholm", "node_id": 114 }, "geometry": { "type": "Point", "coordinates": [ 18.095856, 59.317075 ] } },
{ "type": "Feature", "properties": { "voltage_kv": 380.0, "lon": 18.110962, "lat": 59.168187, "n_buses_at_location": 1, "bus_ids": "6358", "bus_names": "Ekudden", "node_id": 115 }, "geometry": { "type": "Point", "coordinates": [ 18.110962, 59.168187 ] } },
{ "type": "Feature", "properties": { "voltage_kv": 380.0, "lon": 18.123322, "lat": 60.430121, "n_buses_at_location": 1, "bus_ids": "6364", "bus_names": "Forsmark", "node_id": 116 }, "geometry": { "type": "Point", "coordinates": [ 18.123322, 60.430121 ] } },
{ "type": "Feature", "properties": { "voltage_kv": 380.0, "lon": 18.135681, "lat": 59.473686, "n_buses_at_location": 1, "bus_ids": "6344", "bus_names": "Odensala", "node_id": 117 }, "geometry": { "type": "Point", "coordinates": [ 18.135681, 59.473686 ] } },
{ "type": "Feature", "properties": { "voltage_kv": 380.0, "lon": 18.233185, "lat": 59.961198, "n_buses_at_location": 1, "bus_ids": "6346", "bus_names": "Tuna", "node_id": 118 }, "geometry": { "type": "Point", "coordinates": [ 18.233185, 59.961198 ] } },
{ "type": "Feature", "properties": { "voltage_kv": 380.0, "lon": 18.242798, "lat": 63.401361, "n_buses_at_location": 1, "bus_ids": "6535", "bus_names": "Moliden", "node_id": 119 }, "geometry": { "type": "Point", "coordinates": [ 18.242798, 63.401361 ] } },
{ "type": "Feature", "properties": { "voltage_kv": 380.0, "lon": 18.366394, "lat": 67.492803, "n_buses_at_location": 1, "bus_ids": "6726", "bus_names": "Vietas", "node_id": 120 }, "geometry": { "type": "Point", "coordinates": [ 18.366394, 67.492803 ] } },
{ "type": "Feature", "properties": { "voltage_kv": 380.0, "lon": 18.639679, "lat": 66.970387, "n_buses_at_location": 1, "bus_ids": "6727", "bus_names": "Seitevare", "node_id": 121 }, "geometry": { "type": "Point", "coordinates": [ 18.639679, 66.970387 ] } },
{ "type": "Feature", "properties": { "voltage_kv": 380.0, "lon": 18.864899, "lat": 69.038124, "n_buses_at_location": 1, "bus_ids": "6757", "bus_names": "unknown", "node_id": 122 }, "geometry": { "type": "Point", "coordinates": [ 18.864899, 69.038124 ] } },
{ "type": "Feature", "properties": { "voltage_kv": 380.0, "lon": 19.029694, "lat": 64.440225, "n_buses_at_location": 1, "bus_ids": "6674", "bus_names": "Tuggen", "node_id": 123 }, "geometry": { "type": "Point", "coordinates": [ 19.029694, 64.440225 ] } },
{ "type": "Feature", "properties": { "voltage_kv": 380.0, "lon": 19.24942, "lat": 69.183065, "n_buses_at_location": 1, "bus_ids": "6753", "bus_names": "Balsfjord", "node_id": 124 }, "geometry": { "type": "Point", "coordinates": [ 19.24942, 69.183065 ] } },
{ "type": "Feature", "properties": { "voltage_kv": 380.0, "lon": 19.736938, "lat": 65.032742, "n_buses_at_location": 1, "bus_ids": "6672", "bus_names": "Vagfors", "node_id": 125 }, "geometry": { "type": "Point", "coordinates": [ 19.736938, 65.032742 ] } },
{ "type": "Feature", "properties": { "voltage_kv": 380.0, "lon": 19.864655, "lat": 66.843267, "n_buses_at_location": 1, "bus_ids": "6729", "bus_names": "Harsprånget", "node_id": 126 }, "geometry": { "type": "Point", "coordinates": [ 19.864655, 66.843267 ] } },
{ "type": "Feature", "properties": { "voltage_kv": 380.0, "lon": 19.866028, "lat": 66.975221, "n_buses_at_location": 1, "bus_ids": "6728", "bus_names": "Porjus", "node_id": 127 }, "geometry": { "type": "Point", "coordinates": [ 19.866028, 66.975221 ] } },
{ "type": "Feature", "properties": { "voltage_kv": 380.0, "lon": 20.037689, "lat": 66.729595, "n_buses_at_location": 1, "bus_ids": "6730", "bus_names": "Ligga", "node_id": 128 }, "geometry": { "type": "Point", "coordinates": [ 20.037689, 66.729595 ] } },
{ "type": "Feature", "properties": { "voltage_kv": 380.0, "lon": 20.047302, "lat": 63.896314, "n_buses_at_location": 1, "bus_ids": "6534", "bus_names": "Stornorrfors", "node_id": 129 }, "geometry": { "type": "Point", "coordinates": [ 20.047302, 63.896314 ] } },
{ "type": "Feature", "properties": { "voltage_kv": 380.0, "lon": 20.429077, "lat": 66.505049, "n_buses_at_location": 1, "bus_ids": "6764", "bus_names": "Letsi", "node_id": 130 }, "geometry": { "type": "Point", "coordinates": [ 20.429077, 66.505049 ] } },
{ "type": "Feature", "properties": { "voltage_kv": 380.0, "lon": 20.452423, "lat": 66.669299, "n_buses_at_location": 1, "bus_ids": "6731", "bus_names": "Messaure", "node_id": 131 }, "geometry": { "type": "Point", "coordinates": [ 20.452423, 66.669299 ] } },
{ "type": "Feature", "properties": { "voltage_kv": 380.0, "lon": 21.169281, "lat": 65.270498, "n_buses_at_location": 1, "bus_ids": "6677", "bus_names": "Råbäcken", "node_id": 132 }, "geometry": { "type": "Point", "coordinates": [ 21.169281, 65.270498 ] } },
{ "type": "Feature", "properties": { "voltage_kv": 380.0, "lon": 21.538696, "lat": 61.125998, "n_buses_at_location": 1, "bus_ids": "6334", "bus_names": "Olkiluoto", "node_id": 133 }, "geometry": { "type": "Point", "coordinates": [ 21.538696, 61.125998 ] } },
{ "type": "Feature", "properties": { "voltage_kv": 380.0, "lon": 21.604614, "lat": 62.184091, "n_buses_at_location": 1, "bus_ids": "6557", "bus_names": "Kristinestad", "node_id": 134 }, "geometry": { "type": "Point", "coordinates": [ 21.604614, 62.184091 ] } },
{ "type": "Feature", "properties": { "voltage_kv": 380.0, "lon": 21.656799, "lat": 65.826407, "n_buses_at_location": 1, "bus_ids": "6673", "bus_names": "Svartbyn", "node_id": 135 }, "geometry": { "type": "Point", "coordinates": [ 21.656799, 65.826407 ] } },
{ "type": "Feature", "properties": { "voltage_kv": 380.0, "lon": 21.660919, "lat": 61.552147, "n_buses_at_location": 1, "bus_ids": "6333", "bus_names": "Meri-Pori", "node_id": 136 }, "geometry": { "type": "Point", "coordinates": [ 21.660919, 61.552147 ] } },
{ "type": "Feature", "properties": { "voltage_kv": 380.0, "lon": 21.895752, "lat": 60.919755, "n_buses_at_location": 1, "bus_ids": "6331", "bus_names": "Rauma", "node_id": 137 }, "geometry": { "type": "Point", "coordinates": [ 21.895752, 60.919755 ] } },
{ "type": "Feature", "properties": { "voltage_kv": 380.0, "lon": 21.902618, "lat": 63.030057, "n_buses_at_location": 1, "bus_ids": "6533", "bus_names": "Tuovila", "node_id": 138 }, "geometry": { "type": "Point", "coordinates": [ 21.902618, 63.030057 ] } },
{ "type": "Feature", "properties": { "voltage_kv": 380.0, "lon": 22.105865, "lat": 61.482071, "n_buses_at_location": 1, "bus_ids": "6329", "bus_names": "Ulvila", "node_id": 139 }, "geometry": { "type": "Point", "coordinates": [ 22.105865, 61.482071 ] } },
{ "type": "Feature", "properties": { "voltage_kv": 380.0, "lon": 22.457428, "lat": 60.52013, "n_buses_at_location": 1, "bus_ids": "6319", "bus_names": "Lieto", "node_id": 140 }, "geometry": { "type": "Point", "coordinates": [ 22.457428, 60.52013 ] } },
{ "type": "Feature", "properties": { "voltage_kv": 380.0, "lon": 22.633209, "lat": 62.789912, "n_buses_at_location": 1, "bus_ids": "6523", "bus_names": "Seinäjoki", "node_id": 141 }, "geometry": { "type": "Point", "coordinates": [ 22.633209, 62.789912 ] } },
{ "type": "Feature", "properties": { "voltage_kv": 380.0, "lon": 22.822723, "lat": 61.179005, "n_buses_at_location": 1, "bus_ids": "6323", "bus_names": "Huittinen", "node_id": 142 }, "geometry": { "type": "Point", "coordinates": [ 22.822723, 61.179005 ] } },
{ "type": "Feature", "properties": { "voltage_kv": 380.0, "lon": 22.913361, "lat": 60.363639, "n_buses_at_location": 1, "bus_ids": "6322", "bus_names": "Salo", "node_id": 143 }, "geometry": { "type": "Point", "coordinates": [ 22.913361, 60.363639 ] } },
{ "type": "Feature", "properties": { "voltage_kv": 380.0, "lon": 23.047943, "lat": 63.797043, "n_buses_at_location": 1, "bus_ids": "6532", "bus_names": "Hirvisuo", "node_id": 144 }, "geometry": { "type": "Point", "coordinates": [ 23.047943, 63.797043 ] } },
{ "type": "Feature", "properties": { "voltage_kv": 380.0, "lon": 23.072662, "lat": 65.938074, "n_buses_at_location": 1, "bus_ids": "6668", "bus_names": "Djuptjärn", "node_id": 145 }, "geometry": { "type": "Point", "coordinates": [ 23.072662, 65.938074 ] } },
{ "type": "Feature", "properties": { "voltage_kv": 380.0, "lon": 23.1427, "lat": 63.842485, "n_buses_at_location": 1, "bus_ids": "6530", "bus_names": "Ventusneva", "node_id": 146 }, "geometry": { "type": "Point", "coordinates": [ 23.1427, 63.842485 ] } },
{ "type": "Feature", "properties": { "voltage_kv": 380.0, "lon": 23.579407, "lat": 60.830188, "n_buses_at_location": 1, "bus_ids": "6307", "bus_names": "Forssa", "node_id": 147 }, "geometry": { "type": "Point", "coordinates": [ 23.579407, 60.830188 ] } },
{ "type": "Feature", "properties": { "voltage_kv": 380.0, "lon": 23.819733, "lat": 60.047704, "n_buses_at_location": 1, "bus_ids": "6320", "bus_names": "Inkoo", "node_id": 148 }, "geometry": { "type": "Point", "coordinates": [ 23.819733, 60.047704 ] } },
{ "type": "Feature", "properties": { "voltage_kv": 380.0, "lon": 24.083405, "lat": 61.516146, "n_buses_at_location": 1, "bus_ids": "6312", "bus_names": "Kangasala", "node_id": 149 }, "geometry": { "type": "Point", "coordinates": [ 24.083405, 61.516146 ] } },
{ "type": "Feature", "properties": { "voltage_kv": 380.0, "lon": 24.186401, "lat": 60.304505, "n_buses_at_location": 1, "bus_ids": "6324", "bus_names": "Kopula", "node_id": 150 }, "geometry": { "type": "Point", "coordinates": [ 24.186401, 60.304505 ] } },
{ "type": "Feature", "properties": { "voltage_kv": 380.0, "lon": 24.285278, "lat": 62.976446, "n_buses_at_location": 1, "bus_ids": "6521", "bus_names": "Alajärvi", "node_id": 151 }, "geometry": { "type": "Point", "coordinates": [ 24.285278, 62.976446 ] } },
{ "type": "Feature", "properties": { "voltage_kv": 380.0, "lon": 24.403381, "lat": 61.338151, "n_buses_at_location": 1, "bus_ids": "6328", "bus_names": "Lavianvuori", "node_id": 152 }, "geometry": { "type": "Point", "coordinates": [ 24.403381, 61.338151 ] } },
{ "type": "Feature", "properties": { "voltage_kv": 380.0, "lon": 24.411621, "lat": 65.781941, "n_buses_at_location": 1, "bus_ids": "6656", "bus_names": "Sellee", "node_id": 153 }, "geometry": { "type": "Point", "coordinates": [ 24.411621, 65.781941 ] } },
{ "type": "Feature", "properties": { "voltage_kv": 380.0, "lon": 24.517365, "lat": 64.423037, "n_buses_at_location": 1, "bus_ids": "6665", "bus_names": "Jylkkä", "node_id": 154 }, "geometry": { "type": "Point", "coordinates": [ 24.517365, 64.423037 ] } },
{ "type": "Feature", "properties": { "voltage_kv": 380.0, "lon": 24.612122, "lat": 65.877531, "n_buses_at_location": 1, "bus_ids": "6655", "bus_names": "Keminmaa", "node_id": 155 }, "geometry": { "type": "Point", "coordinates": [ 24.612122, 65.877531 ] } },
{ "type": "Feature", "properties": { "voltage_kv": 380.0, "lon": 24.656067, "lat": 60.20571, "n_buses_at_location": 1, "bus_ids": "6313", "bus_names": "Espoo", "node_id": 156 }, "geometry": { "type": "Point", "coordinates": [ 24.656067, 60.20571 ] } },
{ "type": "Feature", "properties": { "voltage_kv": 380.0, "lon": 24.915619, "lat": 60.906402, "n_buses_at_location": 1, "bus_ids": "6308", "bus_names": "Hikiä", "node_id": 157 }, "geometry": { "type": "Point", "coordinates": [ 24.915619, 60.906402 ] } },
{ "type": "Feature", "properties": { "voltage_kv": 380.0, "lon": 24.930725, "lat": 60.330347, "n_buses_at_location": 1, "bus_ids": "6310", "bus_names": "Tammisto", "node_id": 158 }, "geometry": { "type": "Point", "coordinates": [ 24.930725, 60.330347 ] } },
{ "type": "Feature", "properties": { "voltage_kv": 380.0, "lon": 24.965057, "lat": 64.008479, "n_buses_at_location": 1, "bus_ids": "6531", "bus_names": "Uusnivala", "node_id": 159 }, "geometry": { "type": "Point", "coordinates": [ 24.965057, 64.008479 ] } },
{ "type": "Feature", "properties": { "voltage_kv": 380.0, "lon": 25.040588, "lat": 60.5755, "n_buses_at_location": 1, "bus_ids": "6309", "bus_names": "Nurmijärvi", "node_id": 160 }, "geometry": { "type": "Point", "coordinates": [ 25.040588, 60.5755 ] } },
{ "type": "Feature", "properties": { "voltage_kv": 380.0, "lon": 25.158691, "lat": 61.855501, "n_buses_at_location": 1, "bus_ids": "6528", "bus_names": "Toivila", "node_id": 161 }, "geometry": { "type": "Point", "coordinates": [ 25.158691, 61.855501 ] } },
{ "type": "Feature", "properties": { "voltage_kv": 380.0, "lon": 25.209503, "lat": 60.378575, "n_buses_at_location": 1, "bus_ids": "6311", "bus_names": "Länsisalmi", "node_id": 162 }, "geometry": { "type": "Point", "coordinates": [ 25.209503, 60.378575 ] } },
{ "type": "Feature", "properties": { "voltage_kv": 380.0, "lon": 25.415497, "lat": 66.285642, "n_buses_at_location": 1, "bus_ids": "6791", "bus_names": "Petäjäskoski", "node_id": 163 }, "geometry": { "type": "Point", "coordinates": [ 25.415497, 66.285642 ] } },
{ "type": "Feature", "properties": { "voltage_kv": 380.0, "lon": 25.659943, "lat": 60.469404, "n_buses_at_location": 1, "bus_ids": "6315", "bus_names": "Anttila", "node_id": 164 }, "geometry": { "type": "Point", "coordinates": [ 25.659943, 60.469404 ] } },
{ "type": "Feature", "properties": { "voltage_kv": 380.0, "lon": 25.694275, "lat": 65.279688, "n_buses_at_location": 1, "bus_ids": "6667", "bus_names": "Isokangas", "node_id": 165 }, "geometry": { "type": "Point", "coordinates": [ 25.694275, 65.279688 ] } },
{ "type": "Feature", "properties": { "voltage_kv": 380.0, "lon": 25.808258, "lat": 64.971807, "n_buses_at_location": 1, "bus_ids": "6662", "bus_names": "Pikkarala", "node_id": 166 }, "geometry": { "type": "Point", "coordinates": [ 25.808258, 64.971807 ] } },
{ "type": "Feature", "properties": { "voltage_kv": 380.0, "lon": 26.032104, "lat": 62.340686, "n_buses_at_location": 1, "bus_ids": "6524", "bus_names": "Vihtavuori", "node_id": 167 }, "geometry": { "type": "Point", "coordinates": [ 26.032104, 62.340686 ] } },
{ "type": "Feature", "properties": { "voltage_kv": 380.0, "lon": 26.05957, "lat": 64.965416, "n_buses_at_location": 1, "bus_ids": "6664", "bus_names": "Pyhänselkä", "node_id": 168 }, "geometry": { "type": "Point", "coordinates": [ 26.05957, 64.965416 ] } },
{ "type": "Feature", "properties": { "voltage_kv": 380.0, "lon": 26.294403, "lat": 60.418598, "n_buses_at_location": 1, "bus_ids": "6314", "bus_names": "Loviisa", "node_id": 169 }, "geometry": { "type": "Point", "coordinates": [ 26.294403, 60.418598 ] } },
{ "type": "Feature", "properties": { "voltage_kv": 380.0, "lon": 26.621246, "lat": 60.865644, "n_buses_at_location": 1, "bus_ids": "6316", "bus_names": "Koria", "node_id": 170 }, "geometry": { "type": "Point", "coordinates": [ 26.621246, 60.865644 ] } },
{ "type": "Feature", "properties": { "voltage_kv": 380.0, "lon": 27.030487, "lat": 66.33089, "n_buses_at_location": 1, "bus_ids": "6658", "bus_names": "Pirttikoski", "node_id": 171 }, "geometry": { "type": "Point", "coordinates": [ 27.030487, 66.33089 ] } },
{ "type": "Feature", "properties": { "voltage_kv": 380.0, "lon": 27.063446, "lat": 60.737015, "n_buses_at_location": 1, "bus_ids": "6317", "bus_names": "Kymi", "node_id": 172 }, "geometry": { "type": "Point", "coordinates": [ 27.063446, 60.737015 ] } },
{ "type": "Feature", "properties": { "voltage_kv": 380.0, "lon": 27.204895, "lat": 64.101606, "n_buses_at_location": 1, "bus_ids": "6518", "bus_names": "Vuolijoki", "node_id": 173 }, "geometry": { "type": "Point", "coordinates": [ 27.204895, 64.101606 ] } },
{ "type": "Feature", "properties": { "voltage_kv": 380.0, "lon": 27.305145, "lat": 61.489282, "n_buses_at_location": 1, "bus_ids": "6321", "bus_names": "Visulahti", "node_id": 174 }, "geometry": { "type": "Point", "coordinates": [ 27.305145, 61.489282 ] } },
{ "type": "Feature", "properties": { "voltage_kv": 380.0, "lon": 27.585297, "lat": 63.154975, "n_buses_at_location": 1, "bus_ids": "6519", "bus_names": "Alapitkä", "node_id": 175 }, "geometry": { "type": "Point", "coordinates": [ 27.585297, 63.154975 ] } },
{ "type": "Feature", "properties": { "voltage_kv": 380.0, "lon": 27.766571, "lat": 62.262171, "n_buses_at_location": 1, "bus_ids": "6525", "bus_names": "Huutokoski", "node_id": 176 }, "geometry": { "type": "Point", "coordinates": [ 27.766571, 62.262171 ] } },
{ "type": "Feature", "properties": { "voltage_kv": 380.0, "lon": 27.919006, "lat": 60.893713, "n_buses_at_location": 1, "bus_ids": "6318", "bus_names": "Yllikkälä", "node_id": 177 }, "geometry": { "type": "Point", "coordinates": [ 27.919006, 60.893713 ] } }
]
}
