{
"type": "FeatureCollection",
"name": "n490_132kv_delaunay2_removed_land",
"crs": { "type": "name", "properties": { "name": "urn:ogc:def:crs:OGC:1.3:CRS84" } },
"features": [
{ "type": "Feature", "properties": { "voltage_kv": 132.0, "from_node": 12, "to_node": 13, "length_km": 39.632358026489484, "delaunay_k": 2, "edge_set": "Delaunay2" }, "geometry": { "type": "LineString", "coordinates": [ [ 11.190948, 54.867915 ], [ 11.295319, 55.21884 ] ] } },
{ "type": "Feature", "properties": { "voltage_kv": 132.0, "from_node": 12, "to_node": 16, "length_km": 38.910914252178586, "delaunay_k": 2, "edge_set": "Delaunay2" }, "geometry": { "type": "LineString", "coordinates": [ [ 11.190948, 54.867915 ], [ 11.501312, 54.568081 ] ] } },
{ "type": "Feature", "properties": { "voltage_kv": 132.0, "from_node": 16, "to_node": 22, "length_km": 27.184987837022099, "delaunay_k": 2, "edge_set": "Delaunay2" }, "geometry": { "type": "LineString", "coordinates": [ [ 11.501312, 54.568081 ], [ 11.712799, 54.779306 ] ] } },
{ "type": "Feature", "properties": { "voltage_kv": 132.0, "from_node": 17, "to_node": 20, "length_km": 21.429551117130277, "delaunay_k": 2, "edge_set": "Delaunay2" }, "geometry": { "type": "LineString", "coordinates": [ [ 11.504059, 54.717482 ], [ 11.661987, 54.548173 ] ] } }
]
}
