{
"type": "FeatureCollection",
"name": "n490_220kv_delaunay2_removed_land",
"crs": { "type": "name", "properties": { "name": "urn:ogc:def:crs:OGC:1.3:CRS84" } },
"features": [
{ "type": "Feature", "properties": { "voltage_kv": 220.0, "from_node": 89, "to_node": 97, "length_km": 132.0444055550704, "delaunay_k": 2, "edge_set": "Delaunay2" }, "geometry": { "type": "LineString", "coordinates": [ [ 17.166138, 61.172384 ], [ 17.362518, 62.352158 ] ] } },
{ "type": "Feature", "properties": { "voltage_kv": 220.0, "from_node": 89, "to_node": 110, "length_km": 146.5314891878071, "delaunay_k": 2, "edge_set": "Delaunay2" }, "geometry": { "type": "LineString", "coordinates": [ [ 17.166138, 61.172384 ], [ 18.623199, 60.071693 ] ] } },
{ "type": "Feature", "properties": { "voltage_kv": 220.0, "from_node": 89, "to_node": 111, "length_km": 153.43156644943664, "delaunay_k": 2, "edge_set": "Delaunay2" }, "geometry": { "type": "LineString", "coordinates": [ [ 17.166138, 61.172384 ], [ 18.8237, 60.06484 ] ] } },
{ "type": "Feature", "properties": { "voltage_kv": 220.0, "from_node": 113, "to_node": 124, "length_km": 169.14963889279932, "delaunay_k": 2, "edge_set": "Delaunay2" }, "geometry": { "type": "LineString", "coordinates": [ [ 23.100128, 65.837089 ], [ 26.05957, 64.965416 ] ] } },
{ "type": "Feature", "properties": { "voltage_kv": 220.0, "from_node": 114, "to_node": 116, "length_km": 254.96165807013281, "delaunay_k": 2, "edge_set": "Delaunay2" }, "geometry": { "type": "LineString", "coordinates": [ [ 23.1427, 63.842485 ], [ 24.892273, 65.995123 ] ] } },
{ "type": "Feature", "properties": { "voltage_kv": 220.0, "from_node": 116, "to_node": 121, "length_km": 219.45086496571855, "delaunay_k": 2, "edge_set": "Delaunay2" }, "geometry": { "type": "LineString", "coordinates": [ [ 24.892273, 65.995123 ], [ 25.333099, 64.045767 ] ] } }
]
}
