{
"type": "FeatureCollection",
"name": "n490_220kv_nodes",
"crs": { "type": "name", "properties": { "name": "urn:ogc:def:crs:OGC:1.3:CRS84" } },
"features": [
{ "type": "Feature", "properties": { "voltage_kv": 220.0, "lon": 12.590332, "lat": 62.571841, "n_buses_at_location": 1, "bus_ids": "6563", "bus_names": "Långå", "node_id": 0 }, "geometry": { "type": "Point", "coordinates": [ 12.590332, 62.571841 ] } },
{ "type": "Feature", "properties": { "voltage_kv": 220.0, "lon": 13.065491, "lat": 63.752742, "n_buses_at_location": 1, "bus_ids": "6566", "bus_names": "Juveln", "node_id": 1 }, "geometry": { "type": "Point", "coordinates": [ 13.065491, 63.752742 ] } },
{ "type": "Feature", "properties": { "voltage_kv": 220.0, "lon": 13.458252, "lat": 63.368755, "n_buses_at_location": 1, "bus_ids": "6569", "bus_names": "Järpströmmen", "node_id": 2 }, "geometry": { "type": "Point", "coordinates": [ 13.458252, 63.368755 ] } },
{ "type": "Feature", "properties": { "voltage_kv": 220.0, "lon": 13.493958, "lat": 63.755779, "n_buses_at_location": 1, "bus_ids": "6565", "bus_names": "Olden", "node_id": 3 }, "geometry": { "type": "Point", "coordinates": [ 13.493958, 63.755779 ] } },
{ "type": "Feature", "properties": { "voltage_kv": 220.0, "lon": 13.587341, "lat": 63.23239, "n_buses_at_location": 1, "bus_ids": "6572", "bus_names": "Sällsjö", "node_id": 4 }, "geometry": { "type": "Point", "coordinates": [ 13.587341, 63.23239 ] } },
{ "type": "Feature", "properties": { "voltage_kv": 220.0, "lon": 13.639526, "lat": 63.312066, "n_buses_at_location": 1, "bus_ids": "6571", "bus_names": "Mörsil", "node_id": 5 }, "geometry": { "type": "Point", "coordinates": [ 13.639526, 63.312066 ] } },
{ "type": "Feature", "properties": { "voltage_kv": 220.0, "lon": 13.657379, "lat": 63.555892, "n_buses_at_location": 1, "bus_ids": "7868", "bus_names": "nan", "node_id": 6 }, "geometry": { "type": "Point", "coordinates": [ 13.657379, 63.555892 ] } },
{ "type": "Feature", "properties": { "voltage_kv": 220.0, "lon": 13.763123, "lat": 66.142743, "n_buses_at_location": 1, "bus_ids": "6787", "bus_names": "Røssåga", "node_id": 7 }, "geometry": { "type": "Point", "coordinates": [ 13.763123, 66.142743 ] } },
{ "type": "Feature", "properties": { "voltage_kv": 220.0, "lon": 13.769989, "lat": 63.942802, "n_buses_at_location": 1, "bus_ids": "6564", "bus_names": "Stensjön", "node_id": 8 }, "geometry": { "type": "Point", "coordinates": [ 13.769989, 63.942802 ] } },
{ "type": "Feature", "properties": { "voltage_kv": 220.0, "lon": 13.807068, "lat": 64.653876, "n_buses_at_location": 1, "bus_ids": "6687", "bus_names": "Linnvasselv", "node_id": 9 }, "geometry": { "type": "Point", "coordinates": [ 13.807068, 64.653876 ] } },
{ "type": "Feature", "properties": { "voltage_kv": 220.0, "lon": 13.811188, "lat": 63.713238, "n_buses_at_location": 1, "bus_ids": "7921", "bus_names": "nan", "node_id": 10 }, "geometry": { "type": "Point", "coordinates": [ 13.811188, 63.713238 ] } },
{ "type": "Feature", "properties": { "voltage_kv": 220.0, "lon": 13.903198, "lat": 62.735859, "n_buses_at_location": 1, "bus_ids": "6583", "bus_names": "Trångfors", "node_id": 11 }, "geometry": { "type": "Point", "coordinates": [ 13.903198, 62.735859 ] } },
{ "type": "Feature", "properties": { "voltage_kv": 220.0, "lon": 13.973236, "lat": 62.141768, "n_buses_at_location": 1, "bus_ids": "6598", "bus_names": "Nordiåsen", "node_id": 12 }, "geometry": { "type": "Point", "coordinates": [ 13.973236, 62.141768 ] } },
{ "type": "Feature", "properties": { "voltage_kv": 220.0, "lon": 14.06662, "lat": 64.570857, "n_buses_at_location": 1, "bus_ids": "6689", "bus_names": "Junsterforsen", "node_id": 13 }, "geometry": { "type": "Point", "coordinates": [ 14.06662, 64.570857 ] } },
{ "type": "Feature", "properties": { "voltage_kv": 220.0, "lon": 14.111938, "lat": 58.598318, "n_buses_at_location": 1, "bus_ids": "6111", "bus_names": "Moholm", "node_id": 14 }, "geometry": { "type": "Point", "coordinates": [ 14.111938, 58.598318 ] } },
{ "type": "Feature", "properties": { "voltage_kv": 220.0, "lon": 14.146271, "lat": 64.71612, "n_buses_at_location": 1, "bus_ids": "6686", "bus_names": "Blåsjön", "node_id": 15 }, "geometry": { "type": "Point", "coordinates": [ 14.146271, 64.71612 ] } },
{ "type": "Feature", "properties": { "voltage_kv": 220.0, "lon": 14.16687, "lat": 62.071739, "n_buses_at_location": 1, "bus_ids": "6587", "bus_names": "Sveg", "node_id": 16 }, "geometry": { "type": "Point", "coordinates": [ 14.16687, 62.071739 ] } },
{ "type": "Feature", "properties": { "voltage_kv": 220.0, "lon": 14.180603, "lat": 64.486402, "n_buses_at_location": 1, "bus_ids": "6690", "bus_names": "Gäddede", "node_id": 17 }, "geometry": { "type": "Point", "coordinates": [ 14.180603, 64.486402 ] } },
{ "type": "Feature", "properties": { "voltage_kv": 220.0, "lon": 14.250641, "lat": 64.596791, "n_buses_at_location": 1, "bus_ids": "7779", "bus_names": "nan", "node_id": 18 }, "geometry": { "type": "Point", "coordinates": [ 14.250641, 64.596791 ] } },
{ "type": "Feature", "properties": { "voltage_kv": 220.0, "lon": 14.381104, "lat": 64.536044, "n_buses_at_location": 1, "bus_ids": "7714", "bus_names": "nan", "node_id": 19 }, "geometry": { "type": "Point", "coordinates": [ 14.381104, 64.536044 ] } },
{ "type": "Feature", "properties": { "voltage_kv": 220.0, "lon": 14.515686, "lat": 62.516121, "n_buses_at_location": 1, "bus_ids": "6584", "bus_names": "Rätan", "node_id": 20 }, "geometry": { "type": "Point", "coordinates": [ 14.515686, 62.516121 ] } },
{ "type": "Feature", "properties": { "voltage_kv": 220.0, "lon": 14.736786, "lat": 63.255266, "n_buses_at_location": 1, "bus_ids": "8014", "bus_names": "nan", "node_id": 21 }, "geometry": { "type": "Point", "coordinates": [ 14.736786, 63.255266 ] } },
{ "type": "Feature", "properties": { "voltage_kv": 220.0, "lon": 14.765625, "lat": 65.62429, "n_buses_at_location": 1, "bus_ids": "6683", "bus_names": "Gejmån", "node_id": 22 }, "geometry": { "type": "Point", "coordinates": [ 14.765625, 65.62429 ] } },
{ "type": "Feature", "properties": { "voltage_kv": 220.0, "lon": 14.788971, "lat": 63.348433, "n_buses_at_location": 1, "bus_ids": "6580", "bus_names": "Kattstrupeforsen", "node_id": 23 }, "geometry": { "type": "Point", "coordinates": [ 14.788971, 63.348433 ] } },
{ "type": "Feature", "properties": { "voltage_kv": 220.0, "lon": 14.859009, "lat": 64.308372, "n_buses_at_location": 1, "bus_ids": "7966", "bus_names": "nan", "node_id": 24 }, "geometry": { "type": "Point", "coordinates": [ 14.859009, 64.308372 ] } },
{ "type": "Feature", "properties": { "voltage_kv": 220.0, "lon": 14.959259, "lat": 64.35061, "n_buses_at_location": 1, "bus_ids": "6691", "bus_names": "Bågede", "node_id": 25 }, "geometry": { "type": "Point", "coordinates": [ 14.959259, 64.35061 ] } },
{ "type": "Feature", "properties": { "voltage_kv": 220.0, "lon": 14.965643971847902, "lat": 65.721629736713297, "n_buses_at_location": 1, "bus_ids": "7289", "bus_names": "nan", "node_id": 26 }, "geometry": { "type": "Point", "coordinates": [ 14.965643971847902, 65.721629736713297 ] } },
{ "type": "Feature", "properties": { "voltage_kv": 220.0, "lon": 15.005951, "lat": 62.413273, "n_buses_at_location": 1, "bus_ids": "6588", "bus_names": "Turinge", "node_id": 27 }, "geometry": { "type": "Point", "coordinates": [ 15.005951, 62.413273 ] } },
{ "type": "Feature", "properties": { "voltage_kv": 220.0, "lon": 15.184479, "lat": 59.173817, "n_buses_at_location": 1, "bus_ids": "6378", "bus_names": "Hallsberg", "node_id": 28 }, "geometry": { "type": "Point", "coordinates": [ 15.184479, 59.173817 ] } },
{ "type": "Feature", "properties": { "voltage_kv": 220.0, "lon": 15.206451, "lat": 63.237956, "n_buses_at_location": 1, "bus_ids": "6581", "bus_names": "Midskog", "node_id": 29 }, "geometry": { "type": "Point", "coordinates": [ 15.206451, 63.237956 ] } },
{ "type": "Feature", "properties": { "voltage_kv": 220.0, "lon": 15.231171, "lat": 59.466013, "n_buses_at_location": 1, "bus_ids": "6380", "bus_names": "Lindbacka", "node_id": 30 }, "geometry": { "type": "Point", "coordinates": [ 15.231171, 59.466013 ] } },
{ "type": "Feature", "properties": { "voltage_kv": 220.0, "lon": 15.450897, "lat": 64.54962, "n_buses_at_location": 1, "bus_ids": "6688", "bus_names": "Korsselbränna", "node_id": 31 }, "geometry": { "type": "Point", "coordinates": [ 15.450897, 64.54962 ] } },
{ "type": "Feature", "properties": { "voltage_kv": 220.0, "lon": 15.490723, "lat": 63.137606, "n_buses_at_location": 1, "bus_ids": "6578", "bus_names": "Näverede", "node_id": 32 }, "geometry": { "type": "Point", "coordinates": [ 15.490723, 63.137606 ] } },
{ "type": "Feature", "properties": { "voltage_kv": 220.0, "lon": 15.493469, "lat": 63.19216, "n_buses_at_location": 1, "bus_ids": "7982", "bus_names": "nan", "node_id": 33 }, "geometry": { "type": "Point", "coordinates": [ 15.493469, 63.19216 ] } },
{ "type": "Feature", "properties": { "voltage_kv": 220.0, "lon": 15.544281, "lat": 62.441242, "n_buses_at_location": 1, "bus_ids": "6589", "bus_names": "Järnvägsforsen", "node_id": 34 }, "geometry": { "type": "Point", "coordinates": [ 15.544281, 62.441242 ] } },
{ "type": "Feature", "properties": { "voltage_kv": 220.0, "lon": 15.619812, "lat": 64.001858, "n_buses_at_location": 1, "bus_ids": "6594", "bus_names": "Havsnäs", "node_id": 35 }, "geometry": { "type": "Point", "coordinates": [ 15.619812, 64.001858 ] } },
{ "type": "Feature", "properties": { "voltage_kv": 220.0, "lon": 15.622559, "lat": 64.529548, "n_buses_at_location": 1, "bus_ids": "7701", "bus_names": "nan", "node_id": 36 }, "geometry": { "type": "Point", "coordinates": [ 15.622559, 64.529548 ] } },
{ "type": "Feature", "properties": { "voltage_kv": 220.0, "lon": 15.674744, "lat": 64.064393, "n_buses_at_location": 1, "bus_ids": "7932", "bus_names": "nan", "node_id": 37 }, "geometry": { "type": "Point", "coordinates": [ 15.674744, 64.064393 ] } },
{ "type": "Feature", "properties": { "voltage_kv": 220.0, "lon": 15.746155, "lat": 63.152495, "n_buses_at_location": 1, "bus_ids": "7972", "bus_names": "nan", "node_id": 38 }, "geometry": { "type": "Point", "coordinates": [ 15.746155, 63.152495 ] } },
{ "type": "Feature", "properties": { "voltage_kv": 220.0, "lon": 15.761261, "lat": 64.700279, "n_buses_at_location": 1, "bus_ids": "7814", "bus_names": "nan", "node_id": 39 }, "geometry": { "type": "Point", "coordinates": [ 15.761261, 64.700279 ] } },
{ "type": "Feature", "properties": { "voltage_kv": 220.0, "lon": 15.783234, "lat": 64.967159, "n_buses_at_location": 1, "bus_ids": "6685", "bus_names": "Stalon", "node_id": 40 }, "geometry": { "type": "Point", "coordinates": [ 15.783234, 64.967159 ] } },
{ "type": "Feature", "properties": { "voltage_kv": 220.0, "lon": 15.805206, "lat": 63.249085, "n_buses_at_location": 1, "bus_ids": "6575", "bus_names": "Stugun", "node_id": 41 }, "geometry": { "type": "Point", "coordinates": [ 15.805206, 63.249085 ] } },
{ "type": "Feature", "properties": { "voltage_kv": 220.0, "lon": 15.812073, "lat": 65.485626, "n_buses_at_location": 1, "bus_ids": "6792", "bus_names": "Ajaure", "node_id": 42 }, "geometry": { "type": "Point", "coordinates": [ 15.812073, 65.485626 ] } },
{ "type": "Feature", "properties": { "voltage_kv": 220.0, "lon": 15.843658, "lat": 61.88399, "n_buses_at_location": 1, "bus_ids": "6592", "bus_names": "Laforsen", "node_id": 43 }, "geometry": { "type": "Point", "coordinates": [ 15.843658, 61.88399 ] } },
{ "type": "Feature", "properties": { "voltage_kv": 220.0, "lon": 15.923309, "lat": 64.710254, "n_buses_at_location": 1, "bus_ids": "6692", "bus_names": "Storbäck", "node_id": 44 }, "geometry": { "type": "Point", "coordinates": [ 15.923309, 64.710254 ] } },
{ "type": "Feature", "properties": { "voltage_kv": 220.0, "lon": 15.971375, "lat": 59.496697, "n_buses_at_location": 1, "bus_ids": "6390", "bus_names": "Himmeta", "node_id": 45 }, "geometry": { "type": "Point", "coordinates": [ 15.971375, 59.496697 ] } },
{ "type": "Feature", "properties": { "voltage_kv": 220.0, "lon": 16.074371, "lat": 62.517388, "n_buses_at_location": 1, "bus_ids": "6590", "bus_names": "Ånge", "node_id": 46 }, "geometry": { "type": "Point", "coordinates": [ 16.074371, 62.517388 ] } },
{ "type": "Feature", "properties": { "voltage_kv": 220.0, "lon": 16.11145, "lat": 63.093516, "n_buses_at_location": 1, "bus_ids": "6579", "bus_names": "Krångede", "node_id": 47 }, "geometry": { "type": "Point", "coordinates": [ 16.11145, 63.093516 ] } },
{ "type": "Feature", "properties": { "voltage_kv": 220.0, "lon": 16.160889, "lat": 62.833835, "n_buses_at_location": 1, "bus_ids": "6596", "bus_names": "Bräcke", "node_id": 48 }, "geometry": { "type": "Point", "coordinates": [ 16.160889, 62.833835 ] } },
{ "type": "Feature", "properties": { "voltage_kv": 220.0, "lon": 16.166382, "lat": 63.179771, "n_buses_at_location": 1, "bus_ids": "6576", "bus_names": "Gammalänge", "node_id": 49 }, "geometry": { "type": "Point", "coordinates": [ 16.166382, 63.179771 ] } },
{ "type": "Feature", "properties": { "voltage_kv": 220.0, "lon": 16.177368, "lat": 60.396897, "n_buses_at_location": 1, "bus_ids": "6386", "bus_names": "Hofors", "node_id": 50 }, "geometry": { "type": "Point", "coordinates": [ 16.177368, 60.396897 ] } },
{ "type": "Feature", "properties": { "voltage_kv": 220.0, "lon": 16.280365, "lat": 63.064292, "n_buses_at_location": 1, "bus_ids": "7860", "bus_names": "nan", "node_id": 51 }, "geometry": { "type": "Point", "coordinates": [ 16.280365, 63.064292 ] } },
{ "type": "Feature", "properties": { "voltage_kv": 220.0, "lon": 16.284446847098099, "lat": 60.370428457277697, "n_buses_at_location": 1, "bus_ids": "6861", "bus_names": "nan", "node_id": 52 }, "geometry": { "type": "Point", "coordinates": [ 16.284446847098099, 60.370428457277697 ] } },
{ "type": "Feature", "properties": { "voltage_kv": 220.0, "lon": 16.294098, "lat": 62.820038, "n_buses_at_location": 1, "bus_ids": "6597", "bus_names": "Mörttjärnberget", "node_id": 53 }, "geometry": { "type": "Point", "coordinates": [ 16.294098, 62.820038 ] } },
{ "type": "Feature", "properties": { "voltage_kv": 220.0, "lon": 16.316071, "lat": 61.771824, "n_buses_at_location": 1, "bus_ids": "6593", "bus_names": "Ljusdal", "node_id": 54 }, "geometry": { "type": "Point", "coordinates": [ 16.316071, 61.771824 ] } },
{ "type": "Feature", "properties": { "voltage_kv": 220.0, "lon": 16.329803, "lat": 62.499004, "n_buses_at_location": 1, "bus_ids": "6591", "bus_names": "Torpshammar", "node_id": 55 }, "geometry": { "type": "Point", "coordinates": [ 16.329803, 62.499004 ] } },
{ "type": "Feature", "properties": { "voltage_kv": 220.0, "lon": 16.333923, "lat": 62.398006, "n_buses_at_location": 1, "bus_ids": "8006", "bus_names": "nan", "node_id": 56 }, "geometry": { "type": "Point", "coordinates": [ 16.333923, 62.398006 ] } },
{ "type": "Feature", "properties": { "voltage_kv": 220.0, "lon": 16.368256, "lat": 59.559375, "n_buses_at_location": 1, "bus_ids": "7945", "bus_names": "nan", "node_id": 57 }, "geometry": { "type": "Point", "coordinates": [ 16.368256, 59.559375 ] } },
{ "type": "Feature", "properties": { "voltage_kv": 220.0, "lon": 16.387482, "lat": 65.321005, "n_buses_at_location": 1, "bus_ids": "7947", "bus_names": "nan", "node_id": 58 }, "geometry": { "type": "Point", "coordinates": [ 16.387482, 65.321005 ] } },
{ "type": "Feature", "properties": { "voltage_kv": 220.0, "lon": 16.401215, "lat": 63.173574, "n_buses_at_location": 1, "bus_ids": "6577", "bus_names": "Svarthålsforsen", "node_id": 59 }, "geometry": { "type": "Point", "coordinates": [ 16.401215, 63.173574 ] } },
{ "type": "Feature", "properties": { "voltage_kv": 220.0, "lon": 16.417694, "lat": 59.502273, "n_buses_at_location": 1, "bus_ids": "6389", "bus_names": "Arosverket", "node_id": 60 }, "geometry": { "type": "Point", "coordinates": [ 16.417694, 59.502273 ] } },
{ "type": "Feature", "properties": { "voltage_kv": 220.0, "lon": 16.44928, "lat": 61.407894, "n_buses_at_location": 1, "bus_ids": "6391", "bus_names": "Dönje", "node_id": 61 }, "geometry": { "type": "Point", "coordinates": [ 16.44928, 61.407894 ] } },
{ "type": "Feature", "properties": { "voltage_kv": 220.0, "lon": 16.489105, "lat": 65.386291, "n_buses_at_location": 1, "bus_ids": "6684", "bus_names": "Gardikfors", "node_id": 62 }, "geometry": { "type": "Point", "coordinates": [ 16.489105, 65.386291 ] } },
{ "type": "Feature", "properties": { "voltage_kv": 220.0, "lon": 16.512451, "lat": 60.38672, "n_buses_at_location": 1, "bus_ids": "6387", "bus_names": "Horndal", "node_id": 63 }, "geometry": { "type": "Point", "coordinates": [ 16.512451, 60.38672 ] } },
{ "type": "Feature", "properties": { "voltage_kv": 220.0, "lon": 16.637421, "lat": 60.922424, "n_buses_at_location": 1, "bus_ids": "6392", "bus_names": "Ockelbo", "node_id": 64 }, "geometry": { "type": "Point", "coordinates": [ 16.637421, 60.922424 ] } },
{ "type": "Feature", "properties": { "voltage_kv": 220.0, "lon": 16.679993, "lat": 59.6386, "n_buses_at_location": 1, "bus_ids": "6388", "bus_names": "Finnslätten", "node_id": 65 }, "geometry": { "type": "Point", "coordinates": [ 16.679993, 59.6386 ] } },
{ "type": "Feature", "properties": { "voltage_kv": 220.0, "lon": 16.682739, "lat": 62.992664, "n_buses_at_location": 1, "bus_ids": "6574", "bus_names": "Stadsforsen", "node_id": 66 }, "geometry": { "type": "Point", "coordinates": [ 16.682739, 62.992664 ] } },
{ "type": "Feature", "properties": { "voltage_kv": 220.0, "lon": 16.717072, "lat": 62.882075, "n_buses_at_location": 1, "bus_ids": "6552", "bus_names": "Hölleforsen", "node_id": 67 }, "geometry": { "type": "Point", "coordinates": [ 16.717072, 62.882075 ] } },
{ "type": "Feature", "properties": { "voltage_kv": 220.0, "lon": 16.730635536972599, "lat": 63.098502635448106, "n_buses_at_location": 1, "bus_ids": "7490", "bus_names": "nan", "node_id": 68 }, "geometry": { "type": "Point", "coordinates": [ 16.730635536972599, 63.098502635448106 ] } },
{ "type": "Feature", "properties": { "voltage_kv": 220.0, "lon": 16.756897, "lat": 63.577288, "n_buses_at_location": 1, "bus_ids": "6542", "bus_names": "Lasele", "node_id": 69 }, "geometry": { "type": "Point", "coordinates": [ 16.756897, 63.577288 ] } },
{ "type": "Feature", "properties": { "voltage_kv": 220.0, "lon": 16.791229, "lat": 63.646259, "n_buses_at_location": 1, "bus_ids": "6540", "bus_names": "Långbjörn", "node_id": 70 }, "geometry": { "type": "Point", "coordinates": [ 16.791229, 63.646259 ] } },
{ "type": "Feature", "properties": { "voltage_kv": 220.0, "lon": 16.792603, "lat": 62.710685, "n_buses_at_location": 1, "bus_ids": "7666", "bus_names": "nan", "node_id": 71 }, "geometry": { "type": "Point", "coordinates": [ 16.792603, 62.710685 ] } },
{ "type": "Feature", "properties": { "voltage_kv": 220.0, "lon": 16.876373, "lat": 63.164276, "n_buses_at_location": 1, "bus_ids": "6556", "bus_names": "Forsse", "node_id": 72 }, "geometry": { "type": "Point", "coordinates": [ 16.876373, 63.164276 ] } },
{ "type": "Feature", "properties": { "voltage_kv": 220.0, "lon": 16.88324, "lat": 62.757869, "n_buses_at_location": 1, "bus_ids": "6553", "bus_names": "Järkvissle", "node_id": 73 }, "geometry": { "type": "Point", "coordinates": [ 16.88324, 62.757869 ] } },
{ "type": "Feature", "properties": { "voltage_kv": 220.0, "lon": 16.884613, "lat": 59.816518, "n_buses_at_location": 1, "bus_ids": "6338", "bus_names": "Starfors", "node_id": 74 }, "geometry": { "type": "Point", "coordinates": [ 16.884613, 59.816518 ] } },
{ "type": "Feature", "properties": { "voltage_kv": 220.0, "lon": 16.894226, "lat": 63.713846, "n_buses_at_location": 1, "bus_ids": "7820", "bus_names": "nan", "node_id": 75 }, "geometry": { "type": "Point", "coordinates": [ 16.894226, 63.713846 ] } },
{ "type": "Feature", "properties": { "voltage_kv": 220.0, "lon": 16.910706, "lat": 63.433317, "n_buses_at_location": 1, "bus_ids": "8021", "bus_names": "nan", "node_id": 76 }, "geometry": { "type": "Point", "coordinates": [ 16.910706, 63.433317 ] } },
{ "type": "Feature", "properties": { "voltage_kv": 220.0, "lon": 16.923065, "lat": 63.549164, "n_buses_at_location": 1, "bus_ids": "6543", "bus_names": "Betåsen", "node_id": 77 }, "geometry": { "type": "Point", "coordinates": [ 16.923065, 63.549164 ] } },
{ "type": "Feature", "properties": { "voltage_kv": 220.0, "lon": 16.962891, "lat": 63.994031, "n_buses_at_location": 1, "bus_ids": "6558", "bus_names": "Trattberget", "node_id": 78 }, "geometry": { "type": "Point", "coordinates": [ 16.962891, 63.994031 ] } },
{ "type": "Feature", "properties": { "voltage_kv": 220.0, "lon": 16.98761, "lat": 63.372448, "n_buses_at_location": 1, "bus_ids": "7751", "bus_names": "nan", "node_id": 79 }, "geometry": { "type": "Point", "coordinates": [ 16.98761, 63.372448 ] } },
{ "type": "Feature", "properties": { "voltage_kv": 220.0, "lon": 16.993103, "lat": 62.438065, "n_buses_at_location": 1, "bus_ids": "6551", "bus_names": "Hällsjö", "node_id": 80 }, "geometry": { "type": "Point", "coordinates": [ 16.993103, 62.438065 ] } },
{ "type": "Feature", "properties": { "voltage_kv": 220.0, "lon": 17.041168, "lat": 63.737555, "n_buses_at_location": 1, "bus_ids": "6539", "bus_names": "Degerforsen", "node_id": 81 }, "geometry": { "type": "Point", "coordinates": [ 17.041168, 63.737555 ] } },
{ "type": "Feature", "properties": { "voltage_kv": 220.0, "lon": 17.043915, "lat": 63.48241, "n_buses_at_location": 1, "bus_ids": "6545", "bus_names": "Nämforsen", "node_id": 82 }, "geometry": { "type": "Point", "coordinates": [ 17.043915, 63.48241 ] } },
{ "type": "Feature", "properties": { "voltage_kv": 220.0, "lon": 17.045288, "lat": 60.624713, "n_buses_at_location": 1, "bus_ids": "6336", "bus_names": "Stackbo", "node_id": 83 }, "geometry": { "type": "Point", "coordinates": [ 17.045288, 60.624713 ] } },
{ "type": "Feature", "properties": { "voltage_kv": 220.0, "lon": 17.082367, "lat": 63.257738, "n_buses_at_location": 1, "bus_ids": "6548", "bus_names": "Hjälta", "node_id": 84 }, "geometry": { "type": "Point", "coordinates": [ 17.082367, 63.257738 ] } },
{ "type": "Feature", "properties": { "voltage_kv": 220.0, "lon": 17.122192, "lat": 63.413656, "n_buses_at_location": 1, "bus_ids": "6546", "bus_names": "Moforsen", "node_id": 85 }, "geometry": { "type": "Point", "coordinates": [ 17.122192, 63.413656 ] } },
{ "type": "Feature", "properties": { "voltage_kv": 220.0, "lon": 17.156525, "lat": 63.845512, "n_buses_at_location": 1, "bus_ids": "6538", "bus_names": "Gulsele", "node_id": 86 }, "geometry": { "type": "Point", "coordinates": [ 17.156525, 63.845512 ] } },
{ "type": "Feature", "properties": { "voltage_kv": 220.0, "lon": 17.166138, "lat": 61.172384, "n_buses_at_location": 1, "bus_ids": "6339", "bus_names": "Söderala", "node_id": 87 }, "geometry": { "type": "Point", "coordinates": [ 17.166138, 61.172384 ] } },
{ "type": "Feature", "properties": { "voltage_kv": 220.0, "lon": 17.168884, "lat": 63.922284, "n_buses_at_location": 1, "bus_ids": "6537", "bus_names": "Hällby", "node_id": 88 }, "geometry": { "type": "Point", "coordinates": [ 17.168884, 63.922284 ] } },
{ "type": "Feature", "properties": { "voltage_kv": 220.0, "lon": 17.179871, "lat": 60.700072, "n_buses_at_location": 1, "bus_ids": "6340", "bus_names": "Valbo", "node_id": 89 }, "geometry": { "type": "Point", "coordinates": [ 17.179871, 60.700072 ] } },
{ "type": "Feature", "properties": { "voltage_kv": 220.0, "lon": 17.230682, "lat": 63.342889, "n_buses_at_location": 1, "bus_ids": "6547", "bus_names": "Forsmo", "node_id": 90 }, "geometry": { "type": "Point", "coordinates": [ 17.230682, 63.342889 ] } },
{ "type": "Feature", "properties": { "voltage_kv": 220.0, "lon": 17.271881, "lat": 64.154341, "n_buses_at_location": 1, "bus_ids": "7758", "bus_names": "nan", "node_id": 91 }, "geometry": { "type": "Point", "coordinates": [ 17.271881, 64.154341 ] } },
{ "type": "Feature", "properties": { "voltage_kv": 220.0, "lon": 17.274628, "lat": 60.412496, "n_buses_at_location": 1, "bus_ids": "6341", "bus_names": "Untra", "node_id": 92 }, "geometry": { "type": "Point", "coordinates": [ 17.274628, 60.412496 ] } },
{ "type": "Feature", "properties": { "voltage_kv": 220.0, "lon": 17.310333, "lat": 64.26428, "n_buses_at_location": 1, "bus_ids": "6675", "bus_names": "Stenkullafors", "node_id": 93 }, "geometry": { "type": "Point", "coordinates": [ 17.310333, 64.26428 ] } },
{ "type": "Feature", "properties": { "voltage_kv": 220.0, "lon": 17.329559, "lat": 59.716945, "n_buses_at_location": 1, "bus_ids": "6355", "bus_names": "Hamra", "node_id": 94 }, "geometry": { "type": "Point", "coordinates": [ 17.329559, 59.716945 ] } },
{ "type": "Feature", "properties": { "voltage_kv": 220.0, "lon": 17.362518, "lat": 62.352158, "n_buses_at_location": 1, "bus_ids": "6555", "bus_names": "Vaple", "node_id": 95 }, "geometry": { "type": "Point", "coordinates": [ 17.362518, 62.352158 ] } },
{ "type": "Feature", "properties": { "voltage_kv": 220.0, "lon": 17.449036, "lat": 64.183063, "n_buses_at_location": 1, "bus_ids": "6536", "bus_names": "Åsele", "node_id": 96 }, "geometry": { "type": "Point", "coordinates": [ 17.449036, 64.183063 ] } },
{ "type": "Feature", "properties": { "voltage_kv": 220.0, "lon": 17.541046, "lat": 64.996778, "n_buses_at_location": 1, "bus_ids": "6670", "bus_names": "Grundfors", "node_id": 97 }, "geometry": { "type": "Point", "coordinates": [ 17.541046, 64.996778 ] } },
{ "type": "Feature", "properties": { "voltage_kv": 220.0, "lon": 17.748413, "lat": 59.930248, "n_buses_at_location": 1, "bus_ids": "6349", "bus_names": "Bredåker", "node_id": 98 }, "geometry": { "type": "Point", "coordinates": [ 17.748413, 59.930248 ] } },
{ "type": "Feature", "properties": { "voltage_kv": 220.0, "lon": 17.766266, "lat": 59.221637, "n_buses_at_location": 1, "bus_ids": "6352", "bus_names": "Kolbotten", "node_id": 99 }, "geometry": { "type": "Point", "coordinates": [ 17.766266, 59.221637 ] } },
{ "type": "Feature", "properties": { "voltage_kv": 220.0, "lon": 17.789612, "lat": 59.719715, "n_buses_at_location": 1, "bus_ids": "6371", "bus_names": "Boländerna", "node_id": 100 }, "geometry": { "type": "Point", "coordinates": [ 17.789612, 59.719715 ] } },
{ "type": "Feature", "properties": { "voltage_kv": 220.0, "lon": 17.925568, "lat": 59.730792, "n_buses_at_location": 1, "bus_ids": "6370", "bus_names": "Plenninge", "node_id": 101 }, "geometry": { "type": "Point", "coordinates": [ 17.925568, 59.730792 ] } },
{ "type": "Feature", "properties": { "voltage_kv": 220.0, "lon": 18.095856, "lat": 59.317075, "n_buses_at_location": 1, "bus_ids": "6362", "bus_names": "Stockholm", "node_id": 102 }, "geometry": { "type": "Point", "coordinates": [ 18.095856, 59.317075 ] } },
{ "type": "Feature", "properties": { "voltage_kv": 220.0, "lon": 18.110962, "lat": 59.168187, "n_buses_at_location": 1, "bus_ids": "6357", "bus_names": "Ekudden", "node_id": 103 }, "geometry": { "type": "Point", "coordinates": [ 18.110962, 59.168187 ] } },
{ "type": "Feature", "properties": { "voltage_kv": 220.0, "lon": 18.124695, "lat": 59.084327, "n_buses_at_location": 1, "bus_ids": "6359", "bus_names": "Solberga", "node_id": 104 }, "geometry": { "type": "Point", "coordinates": [ 18.124695, 59.084327 ] } },
{ "type": "Feature", "properties": { "voltage_kv": 220.0, "lon": 18.233185, "lat": 59.961198, "n_buses_at_location": 1, "bus_ids": "6345", "bus_names": "Tuna", "node_id": 105 }, "geometry": { "type": "Point", "coordinates": [ 18.233185, 59.961198 ] } },
{ "type": "Feature", "properties": { "voltage_kv": 220.0, "lon": 18.404846, "lat": 59.480661, "n_buses_at_location": 1, "bus_ids": "6351", "bus_names": "Vallentuna", "node_id": 106 }, "geometry": { "type": "Point", "coordinates": [ 18.404846, 59.480661 ] } },
{ "type": "Feature", "properties": { "voltage_kv": 220.0, "lon": 18.621826, "lat": 59.837916, "n_buses_at_location": 1, "bus_ids": "6348", "bus_names": "Malsta", "node_id": 107 }, "geometry": { "type": "Point", "coordinates": [ 18.621826, 59.837916 ] } },
{ "type": "Feature", "properties": { "voltage_kv": 220.0, "lon": 18.623199, "lat": 60.071693, "n_buses_at_location": 1, "bus_ids": "6347", "bus_names": "Gråska", "node_id": 108 }, "geometry": { "type": "Point", "coordinates": [ 18.623199, 60.071693 ] } },
{ "type": "Feature", "properties": { "voltage_kv": 220.0, "lon": 18.8237, "lat": 60.06484, "n_buses_at_location": 1, "bus_ids": "6350", "bus_names": "Hallstavik", "node_id": 109 }, "geometry": { "type": "Point", "coordinates": [ 18.8237, 60.06484 ] } },
{ "type": "Feature", "properties": { "voltage_kv": 220.0, "lon": 22.633209, "lat": 62.789912, "n_buses_at_location": 1, "bus_ids": "6522", "bus_names": "Seinäjoki", "node_id": 110 }, "geometry": { "type": "Point", "coordinates": [ 22.633209, 62.789912 ] } },
{ "type": "Feature", "properties": { "voltage_kv": 220.0, "lon": 23.100128, "lat": 65.837089, "n_buses_at_location": 1, "bus_ids": "6666", "bus_names": "Kalix", "node_id": 111 }, "geometry": { "type": "Point", "coordinates": [ 23.100128, 65.837089 ] } },
{ "type": "Feature", "properties": { "voltage_kv": 220.0, "lon": 23.1427, "lat": 63.842485, "n_buses_at_location": 1, "bus_ids": "6529", "bus_names": "Ventusneva", "node_id": 112 }, "geometry": { "type": "Point", "coordinates": [ 23.1427, 63.842485 ] } },
{ "type": "Feature", "properties": { "voltage_kv": 220.0, "lon": 24.285278, "lat": 62.976446, "n_buses_at_location": 1, "bus_ids": "6520", "bus_names": "Alajärvi", "node_id": 113 }, "geometry": { "type": "Point", "coordinates": [ 24.285278, 62.976446 ] } },
{ "type": "Feature", "properties": { "voltage_kv": 220.0, "lon": 24.892273, "lat": 65.995123, "n_buses_at_location": 1, "bus_ids": "6654", "bus_names": "Taivalkoski", "node_id": 114 }, "geometry": { "type": "Point", "coordinates": [ 24.892273, 65.995123 ] } },
{ "type": "Feature", "properties": { "voltage_kv": 220.0, "lon": 25.069427, "lat": 66.140521, "n_buses_at_location": 1, "bus_ids": "6827", "bus_names": "Ossauskoski", "node_id": 115 }, "geometry": { "type": "Point", "coordinates": [ 25.069427, 66.140521 ] } },
{ "type": "Feature", "properties": { "voltage_kv": 220.0, "lon": 25.085907, "lat": 67.498059, "n_buses_at_location": 1, "bus_ids": "6722", "bus_names": "Isoniemi", "node_id": 116 }, "geometry": { "type": "Point", "coordinates": [ 25.085907, 67.498059 ] } },
{ "type": "Feature", "properties": { "voltage_kv": 220.0, "lon": 25.180664, "lat": 62.261532, "n_buses_at_location": 1, "bus_ids": "6526", "bus_names": "Petäjävesi", "node_id": 117 }, "geometry": { "type": "Point", "coordinates": [ 25.180664, 62.261532 ] } },
{ "type": "Feature", "properties": { "voltage_kv": 220.0, "lon": 25.252075, "lat": 61.880107, "n_buses_at_location": 1, "bus_ids": "6527", "bus_names": "Jämsä", "node_id": 118 }, "geometry": { "type": "Point", "coordinates": [ 25.252075, 61.880107 ] } },
{ "type": "Feature", "properties": { "voltage_kv": 220.0, "lon": 25.333099, "lat": 64.045767, "n_buses_at_location": 1, "bus_ids": "6517", "bus_names": "Haapavesi", "node_id": 119 }, "geometry": { "type": "Point", "coordinates": [ 25.333099, 64.045767 ] } },
{ "type": "Feature", "properties": { "voltage_kv": 220.0, "lon": 25.415497, "lat": 66.285642, "n_buses_at_location": 1, "bus_ids": "6790", "bus_names": "Petäjäskoski", "node_id": 120 }, "geometry": { "type": "Point", "coordinates": [ 25.415497, 66.285642 ] } },
{ "type": "Feature", "properties": { "voltage_kv": 220.0, "lon": 25.717621, "lat": 66.413451, "n_buses_at_location": 1, "bus_ids": "6653", "bus_names": "Valajaskoski", "node_id": 121 }, "geometry": { "type": "Point", "coordinates": [ 25.717621, 66.413451 ] } },
{ "type": "Feature", "properties": { "voltage_kv": 220.0, "lon": 26.05957, "lat": 64.965416, "n_buses_at_location": 1, "bus_ids": "6663", "bus_names": "Pyhänselkä", "node_id": 122 }, "geometry": { "type": "Point", "coordinates": [ 26.05957, 64.965416 ] } },
{ "type": "Feature", "properties": { "voltage_kv": 220.0, "lon": 26.098022, "lat": 67.596139, "n_buses_at_location": 1, "bus_ids": "6723", "bus_names": "Kuolajärvi", "node_id": 123 }, "geometry": { "type": "Point", "coordinates": [ 26.098022, 67.596139 ] } },
{ "type": "Feature", "properties": { "voltage_kv": 220.0, "lon": 26.115875, "lat": 64.778222, "n_buses_at_location": 1, "bus_ids": "6661", "bus_names": "Pyhäkoski", "node_id": 124 }, "geometry": { "type": "Point", "coordinates": [ 26.115875, 64.778222 ] } },
{ "type": "Feature", "properties": { "voltage_kv": 220.0, "lon": 26.455078, "lat": 64.709668, "n_buses_at_location": 1, "bus_ids": "7846", "bus_names": "nan", "node_id": 125 }, "geometry": { "type": "Point", "coordinates": [ 26.455078, 64.709668 ] } },
{ "type": "Feature", "properties": { "voltage_kv": 220.0, "lon": 26.51825, "lat": 64.759489, "n_buses_at_location": 1, "bus_ids": "6660", "bus_names": "Utanen", "node_id": 126 }, "geometry": { "type": "Point", "coordinates": [ 26.51825, 64.759489 ] } },
{ "type": "Feature", "properties": { "voltage_kv": 220.0, "lon": 26.769562, "lat": 66.378809, "n_buses_at_location": 1, "bus_ids": "6651", "bus_names": "Vanttauskoski", "node_id": 127 }, "geometry": { "type": "Point", "coordinates": [ 26.769562, 66.378809 ] } },
{ "type": "Feature", "properties": { "voltage_kv": 220.0, "lon": 26.820374, "lat": 67.602419, "n_buses_at_location": 1, "bus_ids": "6719", "bus_names": "Vajukoski", "node_id": 128 }, "geometry": { "type": "Point", "coordinates": [ 26.820374, 67.602419 ] } },
{ "type": "Feature", "properties": { "voltage_kv": 220.0, "lon": 26.843719, "lat": 64.556111, "n_buses_at_location": 1, "bus_ids": "6659", "bus_names": "Nuojua", "node_id": 129 }, "geometry": { "type": "Point", "coordinates": [ 26.843719, 64.556111 ] } },
{ "type": "Feature", "properties": { "voltage_kv": 220.0, "lon": 27.030487, "lat": 66.33089, "n_buses_at_location": 1, "bus_ids": "6657", "bus_names": "Pirttikoski", "node_id": 130 }, "geometry": { "type": "Point", "coordinates": [ 27.030487, 66.33089 ] } },
{ "type": "Feature", "properties": { "voltage_kv": 220.0, "lon": 27.071686, "lat": 69.862801, "n_buses_at_location": 1, "bus_ids": "6744", "bus_names": "Utsjoki", "node_id": 131 }, "geometry": { "type": "Point", "coordinates": [ 27.071686, 69.862801 ] } },
{ "type": "Feature", "properties": { "voltage_kv": 220.0, "lon": 27.239227, "lat": 69.817839, "n_buses_at_location": 1, "bus_ids": "6838", "bus_names": "nan", "node_id": 132 }, "geometry": { "type": "Point", "coordinates": [ 27.239227, 69.817839 ] } },
{ "type": "Feature", "properties": { "voltage_kv": 220.0, "lon": 27.387543, "lat": 67.23753, "n_buses_at_location": 1, "bus_ids": "6720", "bus_names": "Kokkosniva", "node_id": 133 }, "geometry": { "type": "Point", "coordinates": [ 27.387543, 67.23753 ] } },
{ "type": "Feature", "properties": { "voltage_kv": 220.0, "lon": 27.398529, "lat": 66.450241, "n_buses_at_location": 1, "bus_ids": "6652", "bus_names": "Seitakorva", "node_id": 134 }, "geometry": { "type": "Point", "coordinates": [ 27.398529, 66.450241 ] } },
{ "type": "Feature", "properties": { "voltage_kv": 220.0, "lon": 27.674561, "lat": 68.645556, "n_buses_at_location": 1, "bus_ids": "6721", "bus_names": "Ivalo", "node_id": 135 }, "geometry": { "type": "Point", "coordinates": [ 27.674561, 68.645556 ] } },
{ "type": "Feature", "properties": { "voltage_kv": 220.0, "lon": 28.45047, "lat": 64.58147, "n_buses_at_location": 1, "bus_ids": "6647", "bus_names": "Seitenoikea", "node_id": 136 }, "geometry": { "type": "Point", "coordinates": [ 28.45047, 64.58147 ] } },
{ "type": "Feature", "properties": { "voltage_kv": 220.0, "lon": 28.572693, "lat": 70.163212, "n_buses_at_location": 1, "bus_ids": "6739", "bus_names": "Varangerbotn", "node_id": 137 }, "geometry": { "type": "Point", "coordinates": [ 28.572693, 70.163212 ] } }
]
}
