{
"type": "FeatureCollection",
"name": "n490_220kv_delaunay1_removed_land",
"crs": { "type": "name", "properties": { "name": "urn:ogc:def:crs:OGC:1.3:CRS84" } },
"features": [
{ "type": "Feature", "properties": { "voltage_kv": 220.0, "from_node": 89, "to_node": 97, "length_km": 132.0444055550704, "edge_source": "delaunay", "edge_set": "Delaunay1" }, "geometry": { "type": "LineString", "coordinates": [ [ 17.166138, 61.172384 ], [ 17.362518, 62.352158 ] ] } },
{ "type": "Feature", "properties": { "voltage_kv": 220.0, "from_node": 89, "to_node": 111, "length_km": 153.43156644943664, "edge_source": "delaunay", "edge_set": "Delaunay1" }, "geometry": { "type": "LineString", "coordinates": [ [ 17.166138, 61.172384 ], [ 18.8237, 60.06484 ] ] } },
{ "type": "Feature", "properties": { "voltage_kv": 220.0, "from_node": 92, "to_node": 112, "length_km": 280.5916888319411, "edge_source": "delaunay", "edge_set": "Delaunay1" }, "geometry": { "type": "LineString", "coordinates": [ [ 17.230682, 63.342889 ], [ 22.633209, 62.789912 ] ] } },
{ "type": "Feature", "properties": { "voltage_kv": 220.0, "from_node": 97, "to_node": 112, "length_km": 275.9545658525177, "edge_source": "delaunay", "edge_set": "Delaunay1" }, "geometry": { "type": "LineString", "coordinates": [ [ 17.362518, 62.352158 ], [ 22.633209, 62.789912 ] ] } },
{ "type": "Feature", "properties": { "voltage_kv": 220.0, "from_node": 98, "to_node": 114, "length_km": 281.64012617966262, "edge_source": "delaunay", "edge_set": "Delaunay1" }, "geometry": { "type": "LineString", "coordinates": [ [ 17.449036, 64.183063 ], [ 23.1427, 63.842485 ] ] } },
{ "type": "Feature", "properties": { "voltage_kv": 220.0, "from_node": 113, "to_node": 114, "length_km": 223.23794298694446, "edge_source": "delaunay", "edge_set": "Delaunay1" }, "geometry": { "type": "LineString", "coordinates": [ [ 23.100128, 65.837089 ], [ 23.1427, 63.842485 ] ] } },
{ "type": "Feature", "properties": { "voltage_kv": 220.0, "from_node": 113, "to_node": 124, "length_km": 169.14963889279932, "edge_source": "delaunay", "edge_set": "Delaunay1" }, "geometry": { "type": "LineString", "coordinates": [ [ 23.100128, 65.837089 ], [ 26.05957, 64.965416 ] ] } }
]
}
