{
"type": "FeatureCollection",
"name": "n490_380kv_mst",
"crs": { "type": "name", "properties": { "name": "urn:ogc:def:crs:OGC:1.3:CRS84" } },
"features": [
{ "type": "Feature", "properties": { "voltage_kv": 380.0, "from_node": 0, "to_node": 6, "length_km": 52.379932882561704, "edge_source": "delaunay", "edge_set": "MST", "mst": true }, "geometry": { "type": "LineString", "coordinates": [ [ 6.156464, 60.504583 ], [ 7.108154, 60.527563 ] ] } },
{ "type": "Feature", "properties": { "voltage_kv": 380.0, "from_node": 0, "to_node": 1, "length_km": 94.583093440058406, "edge_source": "delaunay", "edge_set": "MST", "mst": true }, "geometry": { "type": "LineString", "coordinates": [ [ 6.156464, 60.504583 ], [ 6.432495, 59.667741 ] ] } },
{ "type": "Feature", "properties": { "voltage_kv": 380.0, "from_node": 1, "to_node": 2, "length_km": 23.356920175648092, "edge_source": "delaunay", "edge_set": "MST", "mst": true }, "geometry": { "type": "LineString", "coordinates": [ [ 6.432495, 59.667741 ], [ 6.491547, 59.460431 ] ] } },
{ "type": "Feature", "properties": { "voltage_kv": 380.0, "from_node": 2, "to_node": 3, "length_km": 9.0425156087901382, "edge_source": "delaunay", "edge_set": "MST", "mst": true }, "geometry": { "type": "LineString", "coordinates": [ [ 6.491547, 59.460431 ], [ 6.650848, 59.461826 ] ] } },
{ "type": "Feature", "properties": { "voltage_kv": 380.0, "from_node": 3, "to_node": 4, "length_km": 20.584669086567125, "edge_source": "delaunay", "edge_set": "MST", "mst": true }, "geometry": { "type": "LineString", "coordinates": [ [ 6.650848, 59.461826 ], [ 6.992798, 59.523872 ] ] } },
{ "type": "Feature", "properties": { "voltage_kv": 380.0, "from_node": 4, "to_node": 11, "length_km": 27.078488942822773, "edge_source": "delaunay", "edge_set": "MST", "mst": true }, "geometry": { "type": "LineString", "coordinates": [ [ 6.992798, 59.523872 ], [ 7.462463, 59.479266 ] ] } },
{ "type": "Feature", "properties": { "voltage_kv": 380.0, "from_node": 5, "to_node": 14, "length_km": 39.59275799932707, "edge_source": "delaunay", "edge_set": "MST", "mst": true }, "geometry": { "type": "LineString", "coordinates": [ [ 7.033997, 62.47807 ], [ 7.7948, 62.526259 ] ] } },
{ "type": "Feature", "properties": { "voltage_kv": 380.0, "from_node": 5, "to_node": 9, "length_km": 142.66380919550483, "edge_source": "delaunay", "edge_set": "MST", "mst": true }, "geometry": { "type": "LineString", "coordinates": [ [ 7.033997, 62.47807 ], [ 7.338867, 61.206798 ] ] } },
{ "type": "Feature", "properties": { "voltage_kv": 380.0, "from_node": 6, "to_node": 8, "length_km": 8.476997212764207, "edge_source": "delaunay", "edge_set": "MST", "mst": true }, "geometry": { "type": "LineString", "coordinates": [ [ 7.108154, 60.527563 ], [ 7.23587, 60.484968 ] ] } },
{ "type": "Feature", "properties": { "voltage_kv": 380.0, "from_node": 7, "to_node": 10, "length_km": 10.982591999077618, "edge_source": "delaunay", "edge_set": "MST", "mst": true }, "geometry": { "type": "LineString", "coordinates": [ [ 7.216644, 60.950443 ], [ 7.395172, 60.997087 ] ] } },
{ "type": "Feature", "properties": { "voltage_kv": 380.0, "from_node": 8, "to_node": 15, "length_km": 39.594796823519602, "edge_source": "delaunay", "edge_set": "MST", "mst": true }, "geometry": { "type": "LineString", "coordinates": [ [ 7.23587, 60.484968 ], [ 7.893677, 60.630775 ] ] } },
{ "type": "Feature", "properties": { "voltage_kv": 380.0, "from_node": 9, "to_node": 10, "length_km": 23.57791105175848, "edge_source": "delaunay", "edge_set": "MST", "mst": true }, "geometry": { "type": "LineString", "coordinates": [ [ 7.338867, 61.206798 ], [ 7.395172, 60.997087 ] ] } },
{ "type": "Feature", "properties": { "voltage_kv": 380.0, "from_node": 10, "to_node": 12, "length_km": 8.1446434766630507, "edge_source": "delaunay", "edge_set": "MST", "mst": true }, "geometry": { "type": "LineString", "coordinates": [ [ 7.395172, 60.997087 ], [ 7.462463, 60.931767 ] ] } },
{ "type": "Feature", "properties": { "voltage_kv": 380.0, "from_node": 11, "to_node": 13, "length_km": 58.232153739959202, "edge_source": "delaunay", "edge_set": "MST", "mst": true }, "geometry": { "type": "LineString", "coordinates": [ [ 7.462463, 59.479266 ], [ 7.727509, 58.974791 ] ] } },
{ "type": "Feature", "properties": { "voltage_kv": 380.0, "from_node": 12, "to_node": 15, "length_km": 40.967060662005665, "edge_source": "delaunay", "edge_set": "MST", "mst": true }, "geometry": { "type": "LineString", "coordinates": [ [ 7.462463, 60.931767 ], [ 7.893677, 60.630775 ] ] } },
{ "type": "Feature", "properties": { "voltage_kv": 380.0, "from_node": 13, "to_node": 18, "length_km": 84.254321683736691, "edge_source": "delaunay", "edge_set": "MST", "mst": true }, "geometry": { "type": "LineString", "coordinates": [ [ 7.727509, 58.974791 ], [ 8.102417, 58.2445 ] ] } },
{ "type": "Feature", "properties": { "voltage_kv": 380.0, "from_node": 14, "to_node": 19, "length_km": 39.148707748376573, "edge_source": "delaunay", "edge_set": "MST", "mst": true }, "geometry": { "type": "LineString", "coordinates": [ [ 7.7948, 62.526259 ], [ 8.480072, 62.679816 ] ] } },
{ "type": "Feature", "properties": { "voltage_kv": 380.0, "from_node": 15, "to_node": 16, "length_km": 11.345198553499145, "edge_source": "delaunay", "edge_set": "MST", "mst": true }, "geometry": { "type": "LineString", "coordinates": [ [ 7.893677, 60.630775 ], [ 8.084564, 60.670488 ] ] } },
{ "type": "Feature", "properties": { "voltage_kv": 380.0, "from_node": 15, "to_node": 17, "length_km": 17.078386363990884, "edge_source": "delaunay", "edge_set": "MST", "mst": true }, "geometry": { "type": "LineString", "coordinates": [ [ 7.893677, 60.630775 ], [ 8.088684, 60.511343 ] ] } },
{ "type": "Feature", "properties": { "voltage_kv": 380.0, "from_node": 17, "to_node": 20, "length_km": 32.822666921877598, "edge_source": "delaunay", "edge_set": "MST", "mst": true }, "geometry": { "type": "LineString", "coordinates": [ [ 8.088684, 60.511343 ], [ 8.596802, 60.357527 ] ] } },
{ "type": "Feature", "properties": { "voltage_kv": 380.0, "from_node": 19, "to_node": 26, "length_km": 120.36209855448089, "edge_source": "delaunay", "edge_set": "MST", "mst": true }, "geometry": { "type": "LineString", "coordinates": [ [ 8.480072, 62.679816 ], [ 10.457611, 63.276888 ] ] } },
{ "type": "Feature", "properties": { "voltage_kv": 380.0, "from_node": 20, "to_node": 21, "length_km": 27.530703005844611, "edge_source": "delaunay", "edge_set": "MST", "mst": true }, "geometry": { "type": "LineString", "coordinates": [ [ 8.596802, 60.357527 ], [ 9.026642, 60.232994 ] ] } },
{ "type": "Feature", "properties": { "voltage_kv": 380.0, "from_node": 21, "to_node": 23, "length_km": 59.211018265476568, "edge_source": "delaunay", "edge_set": "MST", "mst": true }, "geometry": { "type": "LineString", "coordinates": [ [ 9.026642, 60.232994 ], [ 10.092316, 60.198203 ] ] } },
{ "type": "Feature", "properties": { "voltage_kv": 380.0, "from_node": 22, "to_node": 27, "length_km": 75.09374214404184, "edge_source": "delaunay", "edge_set": "MST", "mst": true }, "geometry": { "type": "LineString", "coordinates": [ [ 9.593811, 59.282019 ], [ 10.780334, 59.580242 ] ] } },
{ "type": "Feature", "properties": { "voltage_kv": 380.0, "from_node": 23, "to_node": 24, "length_km": 15.451068159817092, "edge_source": "delaunay", "edge_set": "MST", "mst": true }, "geometry": { "type": "LineString", "coordinates": [ [ 10.092316, 60.198203 ], [ 10.214539, 60.322868 ] ] } },
{ "type": "Feature", "properties": { "voltage_kv": 380.0, "from_node": 23, "to_node": 25, "length_km": 36.373953629701724, "edge_source": "delaunay", "edge_set": "MST", "mst": true }, "geometry": { "type": "LineString", "coordinates": [ [ 10.092316, 60.198203 ], [ 10.288696, 59.88687 ] ] } },
{ "type": "Feature", "properties": { "voltage_kv": 380.0, "from_node": 25, "to_node": 29, "length_km": 31.816602437646647, "edge_source": "delaunay", "edge_set": "MST", "mst": true }, "geometry": { "type": "LineString", "coordinates": [ [ 10.288696, 59.88687 ], [ 10.839386, 59.958448 ] ] } },
{ "type": "Feature", "properties": { "voltage_kv": 380.0, "from_node": 26, "to_node": 35, "length_km": 69.441158424893146, "edge_source": "delaunay", "edge_set": "MST", "mst": true }, "geometry": { "type": "LineString", "coordinates": [ [ 10.457611, 63.276888 ], [ 11.727905, 63.035662 ] ] } },
{ "type": "Feature", "properties": { "voltage_kv": 380.0, "from_node": 27, "to_node": 28, "length_km": 15.963321429667882, "edge_source": "delaunay", "edge_set": "MST", "mst": true }, "geometry": { "type": "LineString", "coordinates": [ [ 10.780334, 59.580242 ], [ 10.82428, 59.721792 ] ] } },
{ "type": "Feature", "properties": { "voltage_kv": 380.0, "from_node": 27, "to_node": 31, "length_km": 37.045726436914535, "edge_source": "delaunay", "edge_set": "MST", "mst": true }, "geometry": { "type": "LineString", "coordinates": [ [ 10.780334, 59.580242 ], [ 11.181335, 59.317776 ] ] } },
{ "type": "Feature", "properties": { "voltage_kv": 380.0, "from_node": 28, "to_node": 29, "length_km": 26.379729591412051, "edge_source": "delaunay", "edge_set": "MST", "mst": true }, "geometry": { "type": "LineString", "coordinates": [ [ 10.82428, 59.721792 ], [ 10.839386, 59.958448 ] ] } },
{ "type": "Feature", "properties": { "voltage_kv": 380.0, "from_node": 30, "to_node": 32, "length_km": 14.776954000962679, "edge_source": "delaunay", "edge_set": "MST", "mst": true }, "geometry": { "type": "LineString", "coordinates": [ [ 11.089325, 55.66132 ], [ 11.211548, 55.548058 ] ] } },
{ "type": "Feature", "properties": { "voltage_kv": 380.0, "from_node": 31, "to_node": 33, "length_km": 22.979109017925484, "edge_source": "delaunay", "edge_set": "MST", "mst": true }, "geometry": { "type": "LineString", "coordinates": [ [ 11.181335, 59.317776 ], [ 11.409302, 59.147769 ] ] } },
{ "type": "Feature", "properties": { "voltage_kv": 380.0, "from_node": 32, "to_node": 38, "length_km": 48.749041486294779, "edge_source": "delaunay", "edge_set": "MST", "mst": true }, "geometry": { "type": "LineString", "coordinates": [ [ 11.211548, 55.548058 ], [ 11.961365, 55.445374 ] ] } },
{ "type": "Feature", "properties": { "voltage_kv": 380.0, "from_node": 33, "to_node": 34, "length_km": 41.253160390069361, "edge_source": "delaunay", "edge_set": "MST", "mst": true }, "geometry": { "type": "LineString", "coordinates": [ [ 11.409302, 59.147769 ], [ 11.629028, 58.795248 ] ] } },
{ "type": "Feature", "properties": { "voltage_kv": 380.0, "from_node": 33, "to_node": 54, "length_km": 91.964322630083359, "edge_source": "delaunay", "edge_set": "MST", "mst": true }, "geometry": { "type": "LineString", "coordinates": [ [ 11.409302, 59.147769 ], [ 12.9776, 59.337392 ] ] } },
{ "type": "Feature", "properties": { "voltage_kv": 380.0, "from_node": 34, "to_node": 44, "length_km": 67.167462431362836, "edge_source": "delaunay", "edge_set": "MST", "mst": true }, "geometry": { "type": "LineString", "coordinates": [ [ 11.629028, 58.795248 ], [ 12.299194, 58.304438 ] ] } },
{ "type": "Feature", "properties": { "voltage_kv": 380.0, "from_node": 35, "to_node": 51, "length_km": 55.743217732230299, "edge_source": "delaunay", "edge_set": "MST", "mst": true }, "geometry": { "type": "LineString", "coordinates": [ [ 11.727905, 63.035662 ], [ 12.568359, 63.361367 ] ] } },
{ "type": "Feature", "properties": { "voltage_kv": 380.0, "from_node": 36, "to_node": 41, "length_km": 22.982370486716029, "edge_source": "delaunay", "edge_set": "MST", "mst": true }, "geometry": { "type": "LineString", "coordinates": [ [ 11.885834, 55.816715 ], [ 12.240143, 55.764213 ] ] } },
{ "type": "Feature", "properties": { "voltage_kv": 380.0, "from_node": 37, "to_node": 39, "length_km": 19.236978463067057, "edge_source": "delaunay", "edge_set": "MST", "mst": true }, "geometry": { "type": "LineString", "coordinates": [ [ 11.954498, 57.726153 ], [ 12.087708, 57.568888 ] ] } },
{ "type": "Feature", "properties": { "voltage_kv": 380.0, "from_node": 37, "to_node": 47, "length_km": 28.77568909471313, "edge_source": "delaunay", "edge_set": "MST", "mst": true }, "geometry": { "type": "LineString", "coordinates": [ [ 11.954498, 57.726153 ], [ 12.407684, 57.816235 ] ] } },
{ "type": "Feature", "properties": { "voltage_kv": 380.0, "from_node": 38, "to_node": 42, "length_km": 32.801965161744867, "edge_source": "delaunay", "edge_set": "MST", "mst": true }, "geometry": { "type": "LineString", "coordinates": [ [ 11.961365, 55.445374 ], [ 12.242889, 55.693068 ] ] } },
{ "type": "Feature", "properties": { "voltage_kv": 380.0, "from_node": 39, "to_node": 40, "length_km": 28.214907799887722, "edge_source": "delaunay", "edge_set": "MST", "mst": true }, "geometry": { "type": "LineString", "coordinates": [ [ 12.087708, 57.568888 ], [ 12.237396, 57.328745 ] ] } },
{ "type": "Feature", "properties": { "voltage_kv": 380.0, "from_node": 40, "to_node": 52, "length_km": 26.309463891585821, "edge_source": "delaunay", "edge_set": "MST", "mst": true }, "geometry": { "type": "LineString", "coordinates": [ [ 12.237396, 57.328745 ], [ 12.671356, 57.356164 ] ] } },
{ "type": "Feature", "properties": { "voltage_kv": 380.0, "from_node": 41, "to_node": 42, "length_km": 7.9233244877639564, "edge_source": "delaunay", "edge_set": "MST", "mst": true }, "geometry": { "type": "LineString", "coordinates": [ [ 12.240143, 55.764213 ], [ 12.242889, 55.693068 ] ] } },
{ "type": "Feature", "properties": { "voltage_kv": 380.0, "from_node": 42, "to_node": 45, "length_km": 4.9908227399924829, "edge_source": "delaunay", "edge_set": "MST", "mst": true }, "geometry": { "type": "LineString", "coordinates": [ [ 12.242889, 55.693068 ], [ 12.311554, 55.670615 ] ] } },
{ "type": "Feature", "properties": { "voltage_kv": 380.0, "from_node": 43, "to_node": 47, "length_km": 19.140808565032138, "edge_source": "delaunay", "edge_set": "MST", "mst": true }, "geometry": { "type": "LineString", "coordinates": [ [ 12.244263, 57.964417 ], [ 12.407684, 57.816235 ] ] } },
{ "type": "Feature", "properties": { "voltage_kv": 380.0, "from_node": 43, "to_node": 44, "length_km": 38.01128028182373, "edge_source": "delaunay", "edge_set": "MST", "mst": true }, "geometry": { "type": "LineString", "coordinates": [ [ 12.244263, 57.964417 ], [ 12.299194, 58.304438 ] ] } },
{ "type": "Feature", "properties": { "voltage_kv": 380.0, "from_node": 45, "to_node": 48, "length_km": 6.9992949338312478, "edge_source": "delaunay", "edge_set": "MST", "mst": true }, "geometry": { "type": "LineString", "coordinates": [ [ 12.311554, 55.670615 ], [ 12.415924, 55.648924 ] ] } },
{ "type": "Feature", "properties": { "voltage_kv": 380.0, "from_node": 46, "to_node": 50, "length_km": 19.765364223365761, "edge_source": "delaunay", "edge_set": "MST", "mst": true }, "geometry": { "type": "LineString", "coordinates": [ [ 12.385712, 55.942279 ], [ 12.56424, 55.795877 ] ] } },
{ "type": "Feature", "properties": { "voltage_kv": 380.0, "from_node": 48, "to_node": 50, "length_km": 18.831009727860245, "edge_source": "delaunay", "edge_set": "MST", "mst": true }, "geometry": { "type": "LineString", "coordinates": [ [ 12.415924, 55.648924 ], [ 12.56424, 55.795877 ] ] } },
{ "type": "Feature", "properties": { "voltage_kv": 380.0, "from_node": 49, "to_node": 52, "length_km": 22.364713546323447, "edge_source": "delaunay", "edge_set": "MST", "mst": true }, "geometry": { "type": "LineString", "coordinates": [ [ 12.562866, 57.548261 ], [ 12.671356, 57.356164 ] ] } },
{ "type": "Feature", "properties": { "voltage_kv": 380.0, "from_node": 50, "to_node": 53, "length_km": 25.522441352480818, "edge_source": "delaunay", "edge_set": "MST", "mst": true }, "geometry": { "type": "LineString", "coordinates": [ [ 12.56424, 55.795877 ], [ 12.970734, 55.786613 ] ] } },
{ "type": "Feature", "properties": { "voltage_kv": 380.0, "from_node": 51, "to_node": 61, "length_km": 44.540955239552837, "edge_source": "delaunay", "edge_set": "MST", "mst": true }, "geometry": { "type": "LineString", "coordinates": [ [ 12.568359, 63.361367 ], [ 13.458252, 63.368755 ] ] } },
{ "type": "Feature", "properties": { "voltage_kv": 380.0, "from_node": 52, "to_node": 60, "length_km": 49.026915411332617, "edge_source": "delaunay", "edge_set": "MST", "mst": true }, "geometry": { "type": "LineString", "coordinates": [ [ 12.671356, 57.356164 ], [ 13.414307, 57.53868 ] ] } },
{ "type": "Feature", "properties": { "voltage_kv": 380.0, "from_node": 52, "to_node": 57, "length_km": 52.418704863398681, "edge_source": "delaunay", "edge_set": "MST", "mst": true }, "geometry": { "type": "LineString", "coordinates": [ [ 12.671356, 57.356164 ], [ 13.066864, 56.937483 ] ] } },
{ "type": "Feature", "properties": { "voltage_kv": 380.0, "from_node": 53, "to_node": 58, "length_km": 12.256898655648689, "edge_source": "delaunay", "edge_set": "MST", "mst": true }, "geometry": { "type": "LineString", "coordinates": [ [ 12.970734, 55.786613 ], [ 13.145142, 55.737162 ] ] } },
{ "type": "Feature", "properties": { "voltage_kv": 380.0, "from_node": 53, "to_node": 55, "length_km": 41.512119392972515, "edge_source": "delaunay", "edge_set": "MST", "mst": true }, "geometry": { "type": "LineString", "coordinates": [ [ 12.970734, 55.786613 ], [ 12.984467, 56.159318 ] ] } },
{ "type": "Feature", "properties": { "voltage_kv": 380.0, "from_node": 55, "to_node": 56, "length_km": 68.181889496217508, "edge_source": "delaunay", "edge_set": "MST", "mst": true }, "geometry": { "type": "LineString", "coordinates": [ [ 12.984467, 56.159318 ], [ 12.991333, 56.771541 ] ] } },
{ "type": "Feature", "properties": { "voltage_kv": 380.0, "from_node": 56, "to_node": 57, "length_km": 19.047432463683879, "edge_source": "delaunay", "edge_set": "MST", "mst": true }, "geometry": { "type": "LineString", "coordinates": [ [ 12.991333, 56.771541 ], [ 13.066864, 56.937483 ] ] } },
{ "type": "Feature", "properties": { "voltage_kv": 380.0, "from_node": 57, "to_node": 68, "length_km": 82.565672537334521, "edge_source": "delaunay", "edge_set": "MST", "mst": true }, "geometry": { "type": "LineString", "coordinates": [ [ 13.066864, 56.937483 ], [ 14.40033, 56.809901 ] ] } },
{ "type": "Feature", "properties": { "voltage_kv": 380.0, "from_node": 58, "to_node": 59, "length_km": 17.558607571788947, "edge_source": "delaunay", "edge_set": "MST", "mst": true }, "geometry": { "type": "LineString", "coordinates": [ [ 13.145142, 55.737162 ], [ 13.189087, 55.58145 ] ] } },
{ "type": "Feature", "properties": { "voltage_kv": 380.0, "from_node": 58, "to_node": 62, "length_km": 30.576287855423573, "edge_source": "delaunay", "edge_set": "MST", "mst": true }, "geometry": { "type": "LineString", "coordinates": [ [ 13.145142, 55.737162 ], [ 13.580475, 55.86067 ] ] } },
{ "type": "Feature", "properties": { "voltage_kv": 380.0, "from_node": 60, "to_node": 67, "length_km": 50.901456426439488, "edge_source": "delaunay", "edge_set": "MST", "mst": true }, "geometry": { "type": "LineString", "coordinates": [ [ 13.414307, 57.53868 ], [ 14.197083, 57.718819 ] ] } },
{ "type": "Feature", "properties": { "voltage_kv": 380.0, "from_node": 61, "to_node": 79, "length_km": 88.893185123333424, "edge_source": "delaunay", "edge_set": "MST", "mst": true }, "geometry": { "type": "LineString", "coordinates": [ [ 13.458252, 63.368755 ], [ 15.206451, 63.237956 ] ] } },
{ "type": "Feature", "properties": { "voltage_kv": 380.0, "from_node": 63, "to_node": 66, "length_km": 24.792952984817934, "edge_source": "delaunay", "edge_set": "MST", "mst": true }, "geometry": { "type": "LineString", "coordinates": [ [ 13.763123, 66.142743 ], [ 14.191589, 66.282328 ] ] } },
{ "type": "Feature", "properties": { "voltage_kv": 380.0, "from_node": 64, "to_node": 66, "length_km": 50.458316541719789, "edge_source": "delaunay", "edge_set": "MST", "mst": true }, "geometry": { "type": "LineString", "coordinates": [ [ 13.807068, 66.707884 ], [ 14.191589, 66.282328 ] ] } },
{ "type": "Feature", "properties": { "voltage_kv": 380.0, "from_node": 64, "to_node": 84, "length_km": 106.93043482817731, "edge_source": "delaunay", "edge_set": "MST", "mst": true }, "geometry": { "type": "LineString", "coordinates": [ [ 13.807068, 66.707884 ], [ 15.757141, 67.288485 ] ] } },
{ "type": "Feature", "properties": { "voltage_kv": 380.0, "from_node": 65, "to_node": 78, "length_km": 82.941624556369291, "edge_source": "delaunay", "edge_set": "MST", "mst": true }, "geometry": { "type": "LineString", "coordinates": [ [ 13.878479, 58.56109 ], [ 15.195465, 58.28423 ] ] } },
{ "type": "Feature", "properties": { "voltage_kv": 380.0, "from_node": 67, "to_node": 70, "length_km": 27.024181037313614, "edge_source": "delaunay", "edge_set": "MST", "mst": true }, "geometry": { "type": "LineString", "coordinates": [ [ 14.197083, 57.718819 ], [ 14.625549, 57.798676 ] ] } },
{ "type": "Feature", "properties": { "voltage_kv": 380.0, "from_node": 68, "to_node": 72, "length_km": 58.056003364971737, "edge_source": "delaunay", "edge_set": "MST", "mst": true }, "geometry": { "type": "LineString", "coordinates": [ [ 14.40033, 56.809901 ], [ 14.749146, 56.325675 ] ] } },
{ "type": "Feature", "properties": { "voltage_kv": 380.0, "from_node": 69, "to_node": 71, "length_km": 11.408723539264587, "edge_source": "delaunay", "edge_set": "MST", "mst": true }, "geometry": { "type": "LineString", "coordinates": [ [ 14.515686, 62.516121 ], [ 14.734039, 62.533228 ] ] } },
{ "type": "Feature", "properties": { "voltage_kv": 380.0, "from_node": 70, "to_node": 78, "length_km": 63.736010867313695, "edge_source": "delaunay", "edge_set": "MST", "mst": true }, "geometry": { "type": "LineString", "coordinates": [ [ 14.625549, 57.798676 ], [ 15.195465, 58.28423 ] ] } },
{ "type": "Feature", "properties": { "voltage_kv": 380.0, "from_node": 71, "to_node": 79, "length_km": 82.177768718207204, "edge_source": "delaunay", "edge_set": "MST", "mst": true }, "geometry": { "type": "LineString", "coordinates": [ [ 14.734039, 62.533228 ], [ 15.206451, 63.237956 ] ] } },
{ "type": "Feature", "properties": { "voltage_kv": 380.0, "from_node": 72, "to_node": 73, "length_km": 7.7352146440344178, "edge_source": "delaunay", "edge_set": "MST", "mst": true }, "geometry": { "type": "LineString", "coordinates": [ [ 14.749146, 56.325675 ], [ 14.790344, 56.260134 ] ] } },
{ "type": "Feature", "properties": { "voltage_kv": 380.0, "from_node": 72, "to_node": 83, "length_km": 60.793650496404226, "edge_source": "delaunay", "edge_set": "MST", "mst": true }, "geometry": { "type": "LineString", "coordinates": [ [ 14.749146, 56.325675 ], [ 15.542908, 56.649432 ] ] } },
{ "type": "Feature", "properties": { "voltage_kv": 380.0, "from_node": 73, "to_node": 74, "length_km": 10.200363900259129, "edge_source": "delaunay", "edge_set": "MST", "mst": true }, "geometry": { "type": "LineString", "coordinates": [ [ 14.790344, 56.260134 ], [ 14.845276, 56.173846 ] ] } },
{ "type": "Feature", "properties": { "voltage_kv": 380.0, "from_node": 75, "to_node": 76, "length_km": 14.085735845010978, "edge_source": "delaunay", "edge_set": "MST", "mst": true }, "geometry": { "type": "LineString", "coordinates": [ [ 15.125427, 59.05115 ], [ 15.184479, 59.173817 ] ] } },
{ "type": "Feature", "properties": { "voltage_kv": 380.0, "from_node": 75, "to_node": 87, "length_km": 65.214650122517497, "edge_source": "delaunay", "edge_set": "MST", "mst": true }, "geometry": { "type": "LineString", "coordinates": [ [ 15.125427, 59.05115 ], [ 16.035919, 58.70477 ] ] } },
{ "type": "Feature", "properties": { "voltage_kv": 380.0, "from_node": 76, "to_node": 80, "length_km": 32.67915148750761, "edge_source": "delaunay", "edge_set": "MST", "mst": true }, "geometry": { "type": "LineString", "coordinates": [ [ 15.184479, 59.173817 ], [ 15.231171, 59.466013 ] ] } },
{ "type": "Feature", "properties": { "voltage_kv": 380.0, "from_node": 77, "to_node": 82, "length_km": 14.043187426200566, "edge_source": "delaunay", "edge_set": "MST", "mst": true }, "geometry": { "type": "LineString", "coordinates": [ [ 15.188599, 60.415208 ], [ 15.442657, 60.406393 ] ] } },
{ "type": "Feature", "properties": { "voltage_kv": 380.0, "from_node": 78, "to_node": 88, "length_km": 57.640314791580714, "edge_source": "delaunay", "edge_set": "MST", "mst": true }, "geometry": { "type": "LineString", "coordinates": [ [ 15.195465, 58.28423 ], [ 16.096344, 58.492976 ] ] } },
{ "type": "Feature", "properties": { "voltage_kv": 380.0, "from_node": 79, "to_node": 85, "length_km": 49.971725077140938, "edge_source": "delaunay", "edge_set": "MST", "mst": true }, "geometry": { "type": "LineString", "coordinates": [ [ 15.206451, 63.237956 ], [ 15.846405, 63.582177 ] ] } },
{ "type": "Feature", "properties": { "voltage_kv": 380.0, "from_node": 80, "to_node": 81, "length_km": 65.970794006597998, "edge_source": "delaunay", "edge_set": "MST", "mst": true }, "geometry": { "type": "LineString", "coordinates": [ [ 15.231171, 59.466013 ], [ 15.387726, 60.052503 ] ] } },
{ "type": "Feature", "properties": { "voltage_kv": 380.0, "from_node": 81, "to_node": 82, "length_km": 39.571714957842239, "edge_source": "delaunay", "edge_set": "MST", "mst": true }, "geometry": { "type": "LineString", "coordinates": [ [ 15.387726, 60.052503 ], [ 15.442657, 60.406393 ] ] } },
{ "type": "Feature", "properties": { "voltage_kv": 380.0, "from_node": 83, "to_node": 90, "length_km": 110.98629210405348, "edge_source": "delaunay", "edge_set": "MST", "mst": true }, "geometry": { "type": "LineString", "coordinates": [ [ 15.542908, 56.649432 ], [ 16.660767, 57.43682 ] ] } },
{ "type": "Feature", "properties": { "voltage_kv": 380.0, "from_node": 84, "to_node": 86, "length_km": 34.792244347523223, "edge_source": "delaunay", "edge_set": "MST", "mst": true }, "geometry": { "type": "LineString", "coordinates": [ [ 15.757141, 67.288485 ], [ 15.850525, 67.598233 ] ] } },
{ "type": "Feature", "properties": { "voltage_kv": 380.0, "from_node": 85, "to_node": 89, "length_km": 21.278805194624759, "edge_source": "delaunay", "edge_set": "MST", "mst": true }, "geometry": { "type": "LineString", "coordinates": [ [ 15.846405, 63.582177 ], [ 16.254272, 63.524685 ] ] } },
{ "type": "Feature", "properties": { "voltage_kv": 380.0, "from_node": 86, "to_node": 104, "length_km": 87.012572216982363, "edge_source": "delaunay", "edge_set": "MST", "mst": true }, "geometry": { "type": "LineString", "coordinates": [ [ 15.850525, 67.598233 ], [ 17.288361, 68.158786 ] ] } },
{ "type": "Feature", "properties": { "voltage_kv": 380.0, "from_node": 87, "to_node": 88, "length_km": 23.874012598529259, "edge_source": "delaunay", "edge_set": "MST", "mst": true }, "geometry": { "type": "LineString", "coordinates": [ [ 16.035919, 58.70477 ], [ 16.096344, 58.492976 ] ] } },
{ "type": "Feature", "properties": { "voltage_kv": 380.0, "from_node": 87, "to_node": 91, "length_km": 47.732877366623541, "edge_source": "delaunay", "edge_set": "MST", "mst": true }, "geometry": { "type": "LineString", "coordinates": [ [ 16.035919, 58.70477 ], [ 16.660767, 58.984699 ] ] } },
{ "type": "Feature", "properties": { "voltage_kv": 380.0, "from_node": 89, "to_node": 92, "length_km": 20.829910670833549, "edge_source": "delaunay", "edge_set": "MST", "mst": true }, "geometry": { "type": "LineString", "coordinates": [ [ 16.254272, 63.524685 ], [ 16.663513, 63.486702 ] ] } },
{ "type": "Feature", "properties": { "voltage_kv": 380.0, "from_node": 91, "to_node": 103, "length_km": 41.544613757970922, "edge_source": "delaunay", "edge_set": "MST", "mst": true }, "geometry": { "type": "LineString", "coordinates": [ [ 16.660767, 58.984699 ], [ 17.218323, 59.22234 ] ] } },
{ "type": "Feature", "properties": { "voltage_kv": 380.0, "from_node": 92, "to_node": 95, "length_km": 14.688954782749324, "edge_source": "delaunay", "edge_set": "MST", "mst": true }, "geometry": { "type": "LineString", "coordinates": [ [ 16.663513, 63.486702 ], [ 16.923065, 63.549164 ] ] } },
{ "type": "Feature", "properties": { "voltage_kv": 380.0, "from_node": 92, "to_node": 102, "length_km": 42.11598660539228, "edge_source": "delaunay", "edge_set": "MST", "mst": true }, "geometry": { "type": "LineString", "coordinates": [ [ 16.663513, 63.486702 ], [ 17.167511, 63.184727 ] ] } },
{ "type": "Feature", "properties": { "voltage_kv": 380.0, "from_node": 93, "to_node": 95, "length_km": 12.659392443386151, "edge_source": "delaunay", "edge_set": "MST", "mst": true }, "geometry": { "type": "LineString", "coordinates": [ [ 16.791229, 63.646259 ], [ 16.923065, 63.549164 ] ] } },
{ "type": "Feature", "properties": { "voltage_kv": 380.0, "from_node": 94, "to_node": 100, "length_km": 11.896807285556729, "edge_source": "delaunay", "edge_set": "MST", "mst": true }, "geometry": { "type": "LineString", "coordinates": [ [ 16.876373, 65.299207 ], [ 17.049408, 65.221045 ] ] } },
{ "type": "Feature", "properties": { "voltage_kv": 380.0, "from_node": 96, "to_node": 99, "length_km": 9.8200828206224067, "edge_source": "delaunay", "edge_set": "MST", "mst": true }, "geometry": { "type": "LineString", "coordinates": [ [ 16.931305, 60.692679 ], [ 17.045288, 60.624713 ] ] } },
{ "type": "Feature", "properties": { "voltage_kv": 380.0, "from_node": 97, "to_node": 101, "length_km": 5.229233014366284, "edge_source": "delaunay", "edge_set": "MST", "mst": true }, "geometry": { "type": "LineString", "coordinates": [ [ 16.972504, 60.570102 ], [ 17.059021, 60.550528 ] ] } },
{ "type": "Feature", "properties": { "voltage_kv": 380.0, "from_node": 97, "to_node": 99, "length_km": 7.2839757575242974, "edge_source": "delaunay", "edge_set": "MST", "mst": true }, "geometry": { "type": "LineString", "coordinates": [ [ 16.972504, 60.570102 ], [ 17.045288, 60.624713 ] ] } },
{ "type": "Feature", "properties": { "voltage_kv": 380.0, "from_node": 98, "to_node": 106, "length_km": 24.587321374852184, "edge_source": "delaunay", "edge_set": "MST", "mst": true }, "geometry": { "type": "LineString", "coordinates": [ [ 17.024689, 62.540828 ], [ 17.468262, 62.460297 ] ] } },
{ "type": "Feature", "properties": { "voltage_kv": 380.0, "from_node": 98, "to_node": 102, "length_km": 72.212987916602486, "edge_source": "delaunay", "edge_set": "MST", "mst": true }, "geometry": { "type": "LineString", "coordinates": [ [ 17.024689, 62.540828 ], [ 17.167511, 63.184727 ] ] } },
{ "type": "Feature", "properties": { "voltage_kv": 380.0, "from_node": 100, "to_node": 107, "length_km": 34.073802283675064, "edge_source": "delaunay", "edge_set": "MST", "mst": true }, "geometry": { "type": "LineString", "coordinates": [ [ 17.049408, 65.221045 ], [ 17.541046, 64.996778 ] ] } },
{ "type": "Feature", "properties": { "voltage_kv": 380.0, "from_node": 101, "to_node": 113, "length_km": 52.876560268131328, "edge_source": "delaunay", "edge_set": "MST", "mst": true }, "geometry": { "type": "LineString", "coordinates": [ [ 17.059021, 60.550528 ], [ 18.020325, 60.532293 ] ] } },
{ "type": "Feature", "properties": { "voltage_kv": 380.0, "from_node": 102, "to_node": 119, "length_km": 59.173116299351918, "edge_source": "delaunay", "edge_set": "MST", "mst": true }, "geometry": { "type": "LineString", "coordinates": [ [ 17.167511, 63.184727 ], [ 18.242798, 63.401361 ] ] } },
{ "type": "Feature", "properties": { "voltage_kv": 380.0, "from_node": 103, "to_node": 109, "length_km": 30.150734235838009, "edge_source": "delaunay", "edge_set": "MST", "mst": true }, "geometry": { "type": "LineString", "coordinates": [ [ 17.218323, 59.22234 ], [ 17.683868, 59.349996 ] ] } },
{ "type": "Feature", "properties": { "voltage_kv": 380.0, "from_node": 104, "to_node": 108, "length_km": 41.768901647219451, "edge_source": "delaunay", "edge_set": "MST", "mst": true }, "geometry": { "type": "LineString", "coordinates": [ [ 17.288361, 68.158786 ], [ 17.579498, 68.517173 ] ] } },
{ "type": "Feature", "properties": { "voltage_kv": 380.0, "from_node": 104, "to_node": 112, "length_km": 68.025729632768929, "edge_source": "delaunay", "edge_set": "MST", "mst": true }, "geometry": { "type": "LineString", "coordinates": [ [ 17.288361, 68.158786 ], [ 17.992859, 67.610267 ] ] } },
{ "type": "Feature", "properties": { "voltage_kv": 380.0, "from_node": 105, "to_node": 109, "length_km": 45.599773535014307, "edge_source": "delaunay", "edge_set": "MST", "mst": true }, "geometry": { "type": "LineString", "coordinates": [ [ 17.329559, 59.716945 ], [ 17.683868, 59.349996 ] ] } },
{ "type": "Feature", "properties": { "voltage_kv": 380.0, "from_node": 107, "to_node": 123, "length_km": 94.391445176359639, "edge_source": "delaunay", "edge_set": "MST", "mst": true }, "geometry": { "type": "LineString", "coordinates": [ [ 17.541046, 64.996778 ], [ 19.029694, 64.440225 ] ] } },
{ "type": "Feature", "properties": { "voltage_kv": 380.0, "from_node": 108, "to_node": 122, "length_km": 78.016443933672534, "edge_source": "delaunay", "edge_set": "MST", "mst": true }, "geometry": { "type": "LineString", "coordinates": [ [ 17.579498, 68.517173 ], [ 18.864899, 69.038124 ] ] } },
{ "type": "Feature", "properties": { "voltage_kv": 380.0, "from_node": 109, "to_node": 110, "length_km": 15.07546327587783, "edge_source": "delaunay", "edge_set": "MST", "mst": true }, "geometry": { "type": "LineString", "coordinates": [ [ 17.683868, 59.349996 ], [ 17.766266, 59.221637 ] ] } },
{ "type": "Feature", "properties": { "voltage_kv": 380.0, "from_node": 110, "to_node": 111, "length_km": 17.0490526087932, "edge_source": "delaunay", "edge_set": "MST", "mst": true }, "geometry": { "type": "LineString", "coordinates": [ [ 17.766266, 59.221637 ], [ 17.932434, 59.094909 ] ] } },
{ "type": "Feature", "properties": { "voltage_kv": 380.0, "from_node": 111, "to_node": 115, "length_km": 13.104971016412957, "edge_source": "delaunay", "edge_set": "MST", "mst": true }, "geometry": { "type": "LineString", "coordinates": [ [ 17.932434, 59.094909 ], [ 18.110962, 59.168187 ] ] } },
{ "type": "Feature", "properties": { "voltage_kv": 380.0, "from_node": 112, "to_node": 120, "length_km": 20.641838416888007, "edge_source": "delaunay", "edge_set": "MST", "mst": true }, "geometry": { "type": "LineString", "coordinates": [ [ 17.992859, 67.610267 ], [ 18.366394, 67.492803 ] ] } },
{ "type": "Feature", "properties": { "voltage_kv": 380.0, "from_node": 113, "to_node": 116, "length_km": 12.736632701874827, "edge_source": "delaunay", "edge_set": "MST", "mst": true }, "geometry": { "type": "LineString", "coordinates": [ [ 18.020325, 60.532293 ], [ 18.123322, 60.430121 ] ] } },
{ "type": "Feature", "properties": { "voltage_kv": 380.0, "from_node": 114, "to_node": 115, "length_km": 16.639071276532547, "edge_source": "delaunay", "edge_set": "MST", "mst": true }, "geometry": { "type": "LineString", "coordinates": [ [ 18.095856, 59.317075 ], [ 18.110962, 59.168187 ] ] } },
{ "type": "Feature", "properties": { "voltage_kv": 380.0, "from_node": 114, "to_node": 117, "length_km": 17.625180929188812, "edge_source": "delaunay", "edge_set": "MST", "mst": true }, "geometry": { "type": "LineString", "coordinates": [ [ 18.095856, 59.317075 ], [ 18.135681, 59.473686 ] ] } },
{ "type": "Feature", "properties": { "voltage_kv": 380.0, "from_node": 116, "to_node": 118, "length_km": 52.69329194609471, "edge_source": "delaunay", "edge_set": "MST", "mst": true }, "geometry": { "type": "LineString", "coordinates": [ [ 18.123322, 60.430121 ], [ 18.233185, 59.961198 ] ] } },
{ "type": "Feature", "properties": { "voltage_kv": 380.0, "from_node": 117, "to_node": 118, "length_km": 54.689228767497454, "edge_source": "delaunay", "edge_set": "MST", "mst": true }, "geometry": { "type": "LineString", "coordinates": [ [ 18.135681, 59.473686 ], [ 18.233185, 59.961198 ] ] } },
{ "type": "Feature", "properties": { "voltage_kv": 380.0, "from_node": 119, "to_node": 129, "length_km": 105.24646998267809, "edge_source": "delaunay", "edge_set": "MST", "mst": true }, "geometry": { "type": "LineString", "coordinates": [ [ 18.242798, 63.401361 ], [ 20.047302, 63.896314 ] ] } },
{ "type": "Feature", "properties": { "voltage_kv": 380.0, "from_node": 120, "to_node": 121, "length_km": 59.517149480128694, "edge_source": "delaunay", "edge_set": "MST", "mst": true }, "geometry": { "type": "LineString", "coordinates": [ [ 18.366394, 67.492803 ], [ 18.639679, 66.970387 ] ] } },
{ "type": "Feature", "properties": { "voltage_kv": 380.0, "from_node": 121, "to_node": 127, "length_km": 53.633823066542114, "edge_source": "delaunay", "edge_set": "MST", "mst": true }, "geometry": { "type": "LineString", "coordinates": [ [ 18.639679, 66.970387 ], [ 19.866028, 66.975221 ] ] } },
{ "type": "Feature", "properties": { "voltage_kv": 380.0, "from_node": 122, "to_node": 124, "length_km": 22.290869683350838, "edge_source": "delaunay", "edge_set": "MST", "mst": true }, "geometry": { "type": "LineString", "coordinates": [ [ 18.864899, 69.038124 ], [ 19.24942, 69.183065 ] ] } },
{ "type": "Feature", "properties": { "voltage_kv": 380.0, "from_node": 123, "to_node": 125, "length_km": 74.288325732537899, "edge_source": "delaunay", "edge_set": "MST", "mst": true }, "geometry": { "type": "LineString", "coordinates": [ [ 19.029694, 64.440225 ], [ 19.736938, 65.032742 ] ] } },
{ "type": "Feature", "properties": { "voltage_kv": 380.0, "from_node": 123, "to_node": 129, "length_km": 78.422260864808678, "edge_source": "delaunay", "edge_set": "MST", "mst": true }, "geometry": { "type": "LineString", "coordinates": [ [ 19.029694, 64.440225 ], [ 20.047302, 63.896314 ] ] } },
{ "type": "Feature", "properties": { "voltage_kv": 380.0, "from_node": 125, "to_node": 132, "length_km": 72.389063183166272, "edge_source": "delaunay", "edge_set": "MST", "mst": true }, "geometry": { "type": "LineString", "coordinates": [ [ 19.736938, 65.032742 ], [ 21.169281, 65.270498 ] ] } },
{ "type": "Feature", "properties": { "voltage_kv": 380.0, "from_node": 126, "to_node": 127, "length_km": 14.740948353838123, "edge_source": "delaunay", "edge_set": "MST", "mst": true }, "geometry": { "type": "LineString", "coordinates": [ [ 19.864655, 66.843267 ], [ 19.866028, 66.975221 ] ] } },
{ "type": "Feature", "properties": { "voltage_kv": 380.0, "from_node": 126, "to_node": 128, "length_km": 14.813500325550033, "edge_source": "delaunay", "edge_set": "MST", "mst": true }, "geometry": { "type": "LineString", "coordinates": [ [ 19.864655, 66.843267 ], [ 20.037689, 66.729595 ] ] } },
{ "type": "Feature", "properties": { "voltage_kv": 380.0, "from_node": 128, "to_node": 131, "length_km": 19.546186235373352, "edge_source": "delaunay", "edge_set": "MST", "mst": true }, "geometry": { "type": "LineString", "coordinates": [ [ 20.037689, 66.729595 ], [ 20.452423, 66.669299 ] ] } },
{ "type": "Feature", "properties": { "voltage_kv": 380.0, "from_node": 130, "to_node": 131, "length_km": 18.382501622526156, "edge_source": "delaunay", "edge_set": "MST", "mst": true }, "geometry": { "type": "LineString", "coordinates": [ [ 20.429077, 66.505049 ], [ 20.452423, 66.669299 ] ] } },
{ "type": "Feature", "properties": { "voltage_kv": 380.0, "from_node": 130, "to_node": 135, "length_km": 93.993751690937302, "edge_source": "delaunay", "edge_set": "MST", "mst": true }, "geometry": { "type": "LineString", "coordinates": [ [ 20.429077, 66.505049 ], [ 21.656799, 65.826407 ] ] } },
{ "type": "Feature", "properties": { "voltage_kv": 380.0, "from_node": 132, "to_node": 135, "length_km": 66.125330169134116, "edge_source": "delaunay", "edge_set": "MST", "mst": true }, "geometry": { "type": "LineString", "coordinates": [ [ 21.169281, 65.270498 ], [ 21.656799, 65.826407 ] ] } },
{ "type": "Feature", "properties": { "voltage_kv": 380.0, "from_node": 133, "to_node": 137, "length_km": 30.130212937149171, "edge_source": "delaunay", "edge_set": "MST", "mst": true }, "geometry": { "type": "LineString", "coordinates": [ [ 21.538696, 61.125998 ], [ 21.895752, 60.919755 ] ] } },
{ "type": "Feature", "properties": { "voltage_kv": 380.0, "from_node": 133, "to_node": 136, "length_km": 48.113919918090815, "edge_source": "delaunay", "edge_set": "MST", "mst": true }, "geometry": { "type": "LineString", "coordinates": [ [ 21.538696, 61.125998 ], [ 21.660919, 61.552147 ] ] } },
{ "type": "Feature", "properties": { "voltage_kv": 380.0, "from_node": 134, "to_node": 136, "length_km": 70.742236823324006, "edge_source": "delaunay", "edge_set": "MST", "mst": true }, "geometry": { "type": "LineString", "coordinates": [ [ 21.604614, 62.184091 ], [ 21.660919, 61.552147 ] ] } },
{ "type": "Feature", "properties": { "voltage_kv": 380.0, "from_node": 134, "to_node": 141, "length_km": 86.181421015551535, "edge_source": "delaunay", "edge_set": "MST", "mst": true }, "geometry": { "type": "LineString", "coordinates": [ [ 21.604614, 62.184091 ], [ 22.633209, 62.789912 ] ] } },
{ "type": "Feature", "properties": { "voltage_kv": 380.0, "from_node": 135, "to_node": 145, "length_km": 65.974761709228744, "edge_source": "delaunay", "edge_set": "MST", "mst": true }, "geometry": { "type": "LineString", "coordinates": [ [ 21.656799, 65.826407 ], [ 23.072662, 65.938074 ] ] } },
{ "type": "Feature", "properties": { "voltage_kv": 380.0, "from_node": 136, "to_node": 139, "length_km": 25.033174767542288, "edge_source": "delaunay", "edge_set": "MST", "mst": true }, "geometry": { "type": "LineString", "coordinates": [ [ 21.660919, 61.552147 ], [ 22.105865, 61.482071 ] ] } },
{ "type": "Feature", "properties": { "voltage_kv": 380.0, "from_node": 137, "to_node": 140, "length_km": 54.293454376131201, "edge_source": "delaunay", "edge_set": "MST", "mst": true }, "geometry": { "type": "LineString", "coordinates": [ [ 21.895752, 60.919755 ], [ 22.457428, 60.52013 ] ] } },
{ "type": "Feature", "properties": { "voltage_kv": 380.0, "from_node": 138, "to_node": 141, "length_km": 45.949021640148985, "edge_source": "delaunay", "edge_set": "MST", "mst": true }, "geometry": { "type": "LineString", "coordinates": [ [ 21.902618, 63.030057 ], [ 22.633209, 62.789912 ] ] } },
{ "type": "Feature", "properties": { "voltage_kv": 380.0, "from_node": 138, "to_node": 144, "length_km": 103.25867589396425, "edge_source": "delaunay", "edge_set": "MST", "mst": true }, "geometry": { "type": "LineString", "coordinates": [ [ 21.902618, 63.030057 ], [ 23.047943, 63.797043 ] ] } },
{ "type": "Feature", "properties": { "voltage_kv": 380.0, "from_node": 139, "to_node": 142, "length_km": 51.347949315108075, "edge_source": "delaunay", "edge_set": "MST", "mst": true }, "geometry": { "type": "LineString", "coordinates": [ [ 22.105865, 61.482071 ], [ 22.822723, 61.179005 ] ] } },
{ "type": "Feature", "properties": { "voltage_kv": 380.0, "from_node": 140, "to_node": 143, "length_km": 30.708895016224382, "edge_source": "delaunay", "edge_set": "MST", "mst": true }, "geometry": { "type": "LineString", "coordinates": [ [ 22.457428, 60.52013 ], [ 22.913361, 60.363639 ] ] } },
{ "type": "Feature", "properties": { "voltage_kv": 380.0, "from_node": 141, "to_node": 151, "length_km": 86.982743705796167, "edge_source": "delaunay", "edge_set": "MST", "mst": true }, "geometry": { "type": "LineString", "coordinates": [ [ 22.633209, 62.789912 ], [ 24.285278, 62.976446 ] ] } },
{ "type": "Feature", "properties": { "voltage_kv": 380.0, "from_node": 142, "to_node": 147, "length_km": 56.733616562314239, "edge_source": "delaunay", "edge_set": "MST", "mst": true }, "geometry": { "type": "LineString", "coordinates": [ [ 22.822723, 61.179005 ], [ 23.579407, 60.830188 ] ] } },
{ "type": "Feature", "properties": { "voltage_kv": 380.0, "from_node": 143, "to_node": 148, "length_km": 61.695358637957476, "edge_source": "delaunay", "edge_set": "MST", "mst": true }, "geometry": { "type": "LineString", "coordinates": [ [ 22.913361, 60.363639 ], [ 23.819733, 60.047704 ] ] } },
{ "type": "Feature", "properties": { "voltage_kv": 380.0, "from_node": 144, "to_node": 146, "length_km": 6.9156429535229593, "edge_source": "delaunay", "edge_set": "MST", "mst": true }, "geometry": { "type": "LineString", "coordinates": [ [ 23.047943, 63.797043 ], [ 23.1427, 63.842485 ] ] } },
{ "type": "Feature", "properties": { "voltage_kv": 380.0, "from_node": 145, "to_node": 153, "length_km": 63.80648846558249, "edge_source": "delaunay", "edge_set": "MST", "mst": true }, "geometry": { "type": "LineString", "coordinates": [ [ 23.072662, 65.938074 ], [ 24.411621, 65.781941 ] ] } },
{ "type": "Feature", "properties": { "voltage_kv": 380.0, "from_node": 146, "to_node": 159, "length_km": 91.733839365353674, "edge_source": "delaunay", "edge_set": "MST", "mst": true }, "geometry": { "type": "LineString", "coordinates": [ [ 23.1427, 63.842485 ], [ 24.965057, 64.008479 ] ] } },
{ "type": "Feature", "properties": { "voltage_kv": 380.0, "from_node": 148, "to_node": 150, "length_km": 35.32323869879059, "edge_source": "delaunay", "edge_set": "MST", "mst": true }, "geometry": { "type": "LineString", "coordinates": [ [ 23.819733, 60.047704 ], [ 24.186401, 60.304505 ] ] } },
{ "type": "Feature", "properties": { "voltage_kv": 380.0, "from_node": 149, "to_node": 152, "length_km": 26.327281450293057, "edge_source": "delaunay", "edge_set": "MST", "mst": true }, "geometry": { "type": "LineString", "coordinates": [ [ 24.083405, 61.516146 ], [ 24.403381, 61.338151 ] ] } },
{ "type": "Feature", "properties": { "voltage_kv": 380.0, "from_node": 149, "to_node": 161, "length_km": 68.750996924464474, "edge_source": "delaunay", "edge_set": "MST", "mst": true }, "geometry": { "type": "LineString", "coordinates": [ [ 24.083405, 61.516146 ], [ 25.158691, 61.855501 ] ] } },
{ "type": "Feature", "properties": { "voltage_kv": 380.0, "from_node": 150, "to_node": 156, "length_km": 28.420046239982941, "edge_source": "delaunay", "edge_set": "MST", "mst": true }, "geometry": { "type": "LineString", "coordinates": [ [ 24.186401, 60.304505 ], [ 24.656067, 60.20571 ] ] } },
{ "type": "Feature", "properties": { "voltage_kv": 380.0, "from_node": 152, "to_node": 157, "length_km": 55.818470837061952, "edge_source": "delaunay", "edge_set": "MST", "mst": true }, "geometry": { "type": "LineString", "coordinates": [ [ 24.403381, 61.338151 ], [ 24.915619, 60.906402 ] ] } },
{ "type": "Feature", "properties": { "voltage_kv": 380.0, "from_node": 153, "to_node": 155, "length_km": 14.118860611577324, "edge_source": "delaunay", "edge_set": "MST", "mst": true }, "geometry": { "type": "LineString", "coordinates": [ [ 24.411621, 65.781941 ], [ 24.612122, 65.877531 ] ] } },
{ "type": "Feature", "properties": { "voltage_kv": 380.0, "from_node": 154, "to_node": 159, "length_km": 51.335318105228289, "edge_source": "delaunay", "edge_set": "MST", "mst": true }, "geometry": { "type": "LineString", "coordinates": [ [ 24.517365, 64.423037 ], [ 24.965057, 64.008479 ] ] } },
{ "type": "Feature", "properties": { "voltage_kv": 380.0, "from_node": 154, "to_node": 166, "length_km": 87.266384674349439, "edge_source": "delaunay", "edge_set": "MST", "mst": true }, "geometry": { "type": "LineString", "coordinates": [ [ 24.517365, 64.423037 ], [ 25.808258, 64.971807 ] ] } },
{ "type": "Feature", "properties": { "voltage_kv": 380.0, "from_node": 155, "to_node": 163, "length_km": 58.520196101604881, "edge_source": "delaunay", "edge_set": "MST", "mst": true }, "geometry": { "type": "LineString", "coordinates": [ [ 24.612122, 65.877531 ], [ 25.415497, 66.285642 ] ] } },
{ "type": "Feature", "properties": { "voltage_kv": 380.0, "from_node": 155, "to_node": 165, "length_km": 83.704652142784397, "edge_source": "delaunay", "edge_set": "MST", "mst": true }, "geometry": { "type": "LineString", "coordinates": [ [ 24.612122, 65.877531 ], [ 25.694275, 65.279688 ] ] } },
{ "type": "Feature", "properties": { "voltage_kv": 380.0, "from_node": 156, "to_node": 158, "length_km": 20.729077908921994, "edge_source": "delaunay", "edge_set": "MST", "mst": true }, "geometry": { "type": "LineString", "coordinates": [ [ 24.656067, 60.20571 ], [ 24.930725, 60.330347 ] ] } },
{ "type": "Feature", "properties": { "voltage_kv": 380.0, "from_node": 157, "to_node": 160, "length_km": 37.748875244973327, "edge_source": "delaunay", "edge_set": "MST", "mst": true }, "geometry": { "type": "LineString", "coordinates": [ [ 24.915619, 60.906402 ], [ 25.040588, 60.5755 ] ] } },
{ "type": "Feature", "properties": { "voltage_kv": 380.0, "from_node": 158, "to_node": 162, "length_km": 16.414591511219331, "edge_source": "delaunay", "edge_set": "MST", "mst": true }, "geometry": { "type": "LineString", "coordinates": [ [ 24.930725, 60.330347 ], [ 25.209503, 60.378575 ] ] } },
{ "type": "Feature", "properties": { "voltage_kv": 380.0, "from_node": 160, "to_node": 162, "length_km": 23.994056128871179, "edge_source": "delaunay", "edge_set": "MST", "mst": true }, "geometry": { "type": "LineString", "coordinates": [ [ 25.040588, 60.5755 ], [ 25.209503, 60.378575 ] ] } },
{ "type": "Feature", "properties": { "voltage_kv": 380.0, "from_node": 161, "to_node": 167, "length_km": 71.221208349942685, "edge_source": "delaunay", "edge_set": "MST", "mst": true }, "geometry": { "type": "LineString", "coordinates": [ [ 25.158691, 61.855501 ], [ 26.032104, 62.340686 ] ] } },
{ "type": "Feature", "properties": { "voltage_kv": 380.0, "from_node": 162, "to_node": 164, "length_km": 26.993742112839854, "edge_source": "delaunay", "edge_set": "MST", "mst": true }, "geometry": { "type": "LineString", "coordinates": [ [ 25.209503, 60.378575 ], [ 25.659943, 60.469404 ] ] } },
{ "type": "Feature", "properties": { "voltage_kv": 380.0, "from_node": 163, "to_node": 171, "length_km": 73.008111641940914, "edge_source": "delaunay", "edge_set": "MST", "mst": true }, "geometry": { "type": "LineString", "coordinates": [ [ 25.415497, 66.285642 ], [ 27.030487, 66.33089 ] ] } },
{ "type": "Feature", "properties": { "voltage_kv": 380.0, "from_node": 164, "to_node": 169, "length_km": 35.663102694436418, "edge_source": "delaunay", "edge_set": "MST", "mst": true }, "geometry": { "type": "LineString", "coordinates": [ [ 25.659943, 60.469404 ], [ 26.294403, 60.418598 ] ] } },
{ "type": "Feature", "properties": { "voltage_kv": 380.0, "from_node": 165, "to_node": 166, "length_km": 34.93499468624595, "edge_source": "delaunay", "edge_set": "MST", "mst": true }, "geometry": { "type": "LineString", "coordinates": [ [ 25.694275, 65.279688 ], [ 25.808258, 64.971807 ] ] } },
{ "type": "Feature", "properties": { "voltage_kv": 380.0, "from_node": 166, "to_node": 168, "length_km": 11.959663979026592, "edge_source": "delaunay", "edge_set": "MST", "mst": true }, "geometry": { "type": "LineString", "coordinates": [ [ 25.808258, 64.971807 ], [ 26.05957, 64.965416 ] ] } },
{ "type": "Feature", "properties": { "voltage_kv": 380.0, "from_node": 169, "to_node": 170, "length_km": 53.36488688964684, "edge_source": "delaunay", "edge_set": "MST", "mst": true }, "geometry": { "type": "LineString", "coordinates": [ [ 26.294403, 60.418598 ], [ 26.621246, 60.865644 ] ] } },
{ "type": "Feature", "properties": { "voltage_kv": 380.0, "from_node": 170, "to_node": 172, "length_km": 28.261654363244386, "edge_source": "delaunay", "edge_set": "MST", "mst": true }, "geometry": { "type": "LineString", "coordinates": [ [ 26.621246, 60.865644 ], [ 27.063446, 60.737015 ] ] } },
{ "type": "Feature", "properties": { "voltage_kv": 380.0, "from_node": 172, "to_node": 177, "length_km": 50.193105650976975, "edge_source": "delaunay", "edge_set": "MST", "mst": true }, "geometry": { "type": "LineString", "coordinates": [ [ 27.063446, 60.737015 ], [ 27.919006, 60.893713 ] ] } },
{ "type": "Feature", "properties": { "voltage_kv": 380.0, "from_node": 173, "to_node": 175, "length_km": 108.01782931227631, "edge_source": "delaunay", "edge_set": "MST", "mst": true }, "geometry": { "type": "LineString", "coordinates": [ [ 27.204895, 64.101606 ], [ 27.585297, 63.154975 ] ] } },
{ "type": "Feature", "properties": { "voltage_kv": 380.0, "from_node": 174, "to_node": 177, "length_km": 74.812718883969836, "edge_source": "delaunay", "edge_set": "MST", "mst": true }, "geometry": { "type": "LineString", "coordinates": [ [ 27.305145, 61.489282 ], [ 27.919006, 60.893713 ] ] } },
{ "type": "Feature", "properties": { "voltage_kv": 380.0, "from_node": 174, "to_node": 176, "length_km": 90.276778412811808, "edge_source": "delaunay", "edge_set": "MST", "mst": true }, "geometry": { "type": "LineString", "coordinates": [ [ 27.305145, 61.489282 ], [ 27.766571, 62.262171 ] ] } },
{ "type": "Feature", "properties": { "voltage_kv": 380.0, "from_node": 175, "to_node": 176, "length_km": 100.78761483249967, "edge_source": "delaunay", "edge_set": "MST", "mst": true }, "geometry": { "type": "LineString", "coordinates": [ [ 27.585297, 63.154975 ], [ 27.766571, 62.262171 ] ] } }
]
}
