{
"type": "FeatureCollection",
"name": "n490_300kv_delaunay2_removed_length",
"crs": { "type": "name", "properties": { "name": "urn:ogc:def:crs:OGC:1.3:CRS84" } },
"features": [
{ "type": "Feature", "properties": { "voltage_kv": 300.0, "from_node": 0, "to_node": 2, "length_km": 165.51798993204173, "delaunay_k": 2, "edge_set": "Delaunay2" }, "geometry": { "type": "LineString", "coordinates": [ [ 4.998779, 60.703432 ], [ 5.262451, 59.225853 ] ] } },
{ "type": "Feature", "properties": { "voltage_kv": 300.0, "from_node": 0, "to_node": 7, "length_km": 157.91185602533531, "delaunay_k": 2, "edge_set": "Delaunay2" }, "geometry": { "type": "LineString", "coordinates": [ [ 4.998779, 60.703432 ], [ 5.568695, 59.317075 ] ] } },
{ "type": "Feature", "properties": { "voltage_kv": 300.0, "from_node": 0, "to_node": 50, "length_km": 161.99959323855663, "delaunay_k": 2, "edge_set": "Delaunay2" }, "geometry": { "type": "LineString", "coordinates": [ [ 4.998779, 60.703432 ], [ 7.410278, 61.569805 ] ] } },
{ "type": "Feature", "properties": { "voltage_kv": 300.0, "from_node": 3, "to_node": 15, "length_km": 197.61142736517255, "delaunay_k": 2, "edge_set": "Delaunay2" }, "geometry": { "type": "LineString", "coordinates": [ [ 5.39978, 59.495303 ], [ 6.093292, 61.233245 ] ] } },
{ "type": "Feature", "properties": { "voltage_kv": 300.0, "from_node": 5, "to_node": 15, "length_km": 167.08051573460375, "delaunay_k": 2, "edge_set": "Delaunay2" }, "geometry": { "type": "LineString", "coordinates": [ [ 5.461578, 59.768152 ], [ 6.093292, 61.233245 ] ] } },
{ "type": "Feature", "properties": { "voltage_kv": 300.0, "from_node": 15, "to_node": 61, "length_km": 204.23411540584735, "delaunay_k": 2, "edge_set": "Delaunay2" }, "geometry": { "type": "LineString", "coordinates": [ [ 6.093292, 61.233245 ], [ 8.480072, 62.679816 ] ] } },
{ "type": "Feature", "properties": { "voltage_kv": 300.0, "from_node": 15, "to_node": 69, "length_km": 173.90393410066329, "delaunay_k": 2, "edge_set": "Delaunay2" }, "geometry": { "type": "LineString", "coordinates": [ [ 6.093292, 61.233245 ], [ 9.063721, 61.885931 ] ] } },
{ "type": "Feature", "properties": { "voltage_kv": 300.0, "from_node": 41, "to_node": 66, "length_km": 160.83093465440584, "delaunay_k": 2, "edge_set": "Delaunay2" }, "geometry": { "type": "LineString", "coordinates": [ [ 7.086182, 59.725947 ], [ 8.782196, 58.575413 ] ] } },
{ "type": "Feature", "properties": { "voltage_kv": 300.0, "from_node": 46, "to_node": 61, "length_km": 170.19528902807144, "delaunay_k": 2, "edge_set": "Delaunay2" }, "geometry": { "type": "LineString", "coordinates": [ [ 7.293549, 61.259009 ], [ 8.480072, 62.679816 ] ] } },
{ "type": "Feature", "properties": { "voltage_kv": 300.0, "from_node": 49, "to_node": 66, "length_km": 153.61578899963851, "delaunay_k": 2, "edge_set": "Delaunay2" }, "geometry": { "type": "LineString", "coordinates": [ [ 7.36908, 59.747402 ], [ 8.782196, 58.575413 ] ] } },
{ "type": "Feature", "properties": { "voltage_kv": 300.0, "from_node": 50, "to_node": 75, "length_km": 230.20190634964868, "delaunay_k": 2, "edge_set": "Delaunay2" }, "geometry": { "type": "LineString", "coordinates": [ [ 7.410278, 61.569805 ], [ 9.933014, 63.271947 ] ] } },
{ "type": "Feature", "properties": { "voltage_kv": 300.0, "from_node": 50, "to_node": 88, "length_km": 199.00839982539463, "delaunay_k": 2, "edge_set": "Delaunay2" }, "geometry": { "type": "LineString", "coordinates": [ [ 7.410278, 61.569805 ], [ 11.12915, 61.837358 ] ] } },
{ "type": "Feature", "properties": { "voltage_kv": 300.0, "from_node": 53, "to_node": 88, "length_km": 183.05207855333418, "delaunay_k": 2, "edge_set": "Delaunay2" }, "geometry": { "type": "LineString", "coordinates": [ [ 7.738495, 61.517456 ], [ 11.12915, 61.837358 ] ] } },
{ "type": "Feature", "properties": { "voltage_kv": 300.0, "from_node": 61, "to_node": 88, "length_km": 166.6017894621703, "delaunay_k": 2, "edge_set": "Delaunay2" }, "geometry": { "type": "LineString", "coordinates": [ [ 8.480072, 62.679816 ], [ 11.12915, 61.837358 ] ] } },
{ "type": "Feature", "properties": { "voltage_kv": 300.0, "from_node": 63, "to_node": 88, "length_km": 174.53527358678767, "delaunay_k": 2, "edge_set": "Delaunay2" }, "geometry": { "type": "LineString", "coordinates": [ [ 8.690186, 60.798714 ], [ 11.12915, 61.837358 ] ] } },
{ "type": "Feature", "properties": { "voltage_kv": 300.0, "from_node": 66, "to_node": 90, "length_km": 160.97186272616523, "delaunay_k": 2, "edge_set": "Delaunay2" }, "geometry": { "type": "LineString", "coordinates": [ [ 8.782196, 58.575413 ], [ 11.181335, 59.317776 ] ] } },
{ "type": "Feature", "properties": { "voltage_kv": 300.0, "from_node": 69, "to_node": 75, "length_km": 160.82549190335772, "delaunay_k": 2, "edge_set": "Delaunay2" }, "geometry": { "type": "LineString", "coordinates": [ [ 9.063721, 61.885931 ], [ 9.933014, 63.271947 ] ] } },
{ "type": "Feature", "properties": { "voltage_kv": 300.0, "from_node": 69, "to_node": 89, "length_km": 163.65595253332103, "delaunay_k": 2, "edge_set": "Delaunay2" }, "geometry": { "type": "LineString", "coordinates": [ [ 9.063721, 61.885931 ], [ 11.160736, 60.816799 ] ] } },
{ "type": "Feature", "properties": { "voltage_kv": 300.0, "from_node": 72, "to_node": 91, "length_km": 166.26775064772116, "delaunay_k": 2, "edge_set": "Delaunay2" }, "geometry": { "type": "LineString", "coordinates": [ [ 9.61441, 59.151995 ], [ 11.288452, 60.382648 ] ] } },
{ "type": "Feature", "properties": { "voltage_kv": 300.0, "from_node": 75, "to_node": 94, "length_km": 155.703360743551, "delaunay_k": 2, "edge_set": "Delaunay2" }, "geometry": { "type": "LineString", "coordinates": [ [ 9.933014, 63.271947 ], [ 11.620789, 64.453849 ] ] } },
{ "type": "Feature", "properties": { "voltage_kv": 300.0, "from_node": 82, "to_node": 95, "length_km": 229.96703988698971, "delaunay_k": 2, "edge_set": "Delaunay2" }, "geometry": { "type": "LineString", "coordinates": [ [ 10.439758, 63.401361 ], [ 12.7565, 65.20262 ] ] } },
{ "type": "Feature", "properties": { "voltage_kv": 300.0, "from_node": 82, "to_node": 96, "length_km": 186.08893887791695, "delaunay_k": 2, "edge_set": "Delaunay2" }, "geometry": { "type": "LineString", "coordinates": [ [ 10.439758, 63.401361 ], [ 12.800446, 64.712014 ] ] } },
{ "type": "Feature", "properties": { "voltage_kv": 300.0, "from_node": 84, "to_node": 90, "length_km": 170.29186612343483, "delaunay_k": 2, "edge_set": "Delaunay2" }, "geometry": { "type": "LineString", "coordinates": [ [ 10.604553, 60.818808 ], [ 11.181335, 59.317776 ] ] } },
{ "type": "Feature", "properties": { "voltage_kv": 300.0, "from_node": 87, "to_node": 96, "length_km": 164.69465164139677, "delaunay_k": 2, "edge_set": "Delaunay2" }, "geometry": { "type": "LineString", "coordinates": [ [ 11.017914, 63.45726 ], [ 12.800446, 64.712014 ] ] } },
{ "type": "Feature", "properties": { "voltage_kv": 300.0, "from_node": 88, "to_node": 91, "length_km": 162.32798142064485, "delaunay_k": 2, "edge_set": "Delaunay2" }, "geometry": { "type": "LineString", "coordinates": [ [ 11.12915, 61.837358 ], [ 11.288452, 60.382648 ] ] } },
{ "type": "Feature", "properties": { "voltage_kv": 300.0, "from_node": 89, "to_node": 90, "length_km": 167.01630157979699, "delaunay_k": 2, "edge_set": "Delaunay2" }, "geometry": { "type": "LineString", "coordinates": [ [ 11.160736, 60.816799 ], [ 11.181335, 59.317776 ] ] } },
{ "type": "Feature", "properties": { "voltage_kv": 300.0, "from_node": 92, "to_node": 95, "length_km": 170.24145074185947, "delaunay_k": 2, "edge_set": "Delaunay2" }, "geometry": { "type": "LineString", "coordinates": [ [ 11.472473, 63.779452 ], [ 12.7565, 65.20262 ] ] } },
{ "type": "Feature", "properties": { "voltage_kv": 300.0, "from_node": 94, "to_node": 98, "length_km": 173.33878749133061, "delaunay_k": 2, "edge_set": "Delaunay2" }, "geometry": { "type": "LineString", "coordinates": [ [ 11.620789, 64.453849 ], [ 13.289337, 65.841024 ] ] } },
{ "type": "Feature", "properties": { "voltage_kv": 300.0, "from_node": 96, "to_node": 99, "length_km": 165.67899644318746, "delaunay_k": 2, "edge_set": "Delaunay2" }, "geometry": { "type": "LineString", "coordinates": [ [ 12.800446, 64.712014 ], [ 13.763123, 66.142743 ] ] } }
]
}
