{
"type": "FeatureCollection",
"name": "n490_220kv_delaunay4_removed_land",
"crs": { "type": "name", "properties": { "name": "urn:ogc:def:crs:OGC:1.3:CRS84" } },
"features": [
{ "type": "Feature", "properties": { "voltage_kv": 220.0, "from_node": 43, "to_node": 108, "length_km": 252.13678147808488, "delaunay_k": 4, "edge_set": "Delaunay4" }, "geometry": { "type": "LineString", "coordinates": [ [ 15.843658, 61.88399 ], [ 18.623199, 60.071693 ] ] } },
{ "type": "Feature", "properties": { "voltage_kv": 220.0, "from_node": 43, "to_node": 109, "length_km": 259.39346940822566, "delaunay_k": 4, "edge_set": "Delaunay4" }, "geometry": { "type": "LineString", "coordinates": [ [ 15.843658, 61.88399 ], [ 18.8237, 60.06484 ] ] } },
{ "type": "Feature", "properties": { "voltage_kv": 220.0, "from_node": 54, "to_node": 105, "length_km": 227.33231403797694, "delaunay_k": 4, "edge_set": "Delaunay4" }, "geometry": { "type": "LineString", "coordinates": [ [ 16.316071, 61.771824 ], [ 18.233185, 59.961198 ] ] } },
{ "type": "Feature", "properties": { "voltage_kv": 220.0, "from_node": 54, "to_node": 107, "length_km": 249.69947816296386, "delaunay_k": 4, "edge_set": "Delaunay4" }, "geometry": { "type": "LineString", "coordinates": [ [ 16.316071, 61.771824 ], [ 18.621826, 59.837916 ] ] } },
{ "type": "Feature", "properties": { "voltage_kv": 220.0, "from_node": 56, "to_node": 108, "length_km": 287.26398940610477, "delaunay_k": 4, "edge_set": "Delaunay4" }, "geometry": { "type": "LineString", "coordinates": [ [ 16.333923, 62.398006 ], [ 18.623199, 60.071693 ] ] } },
{ "type": "Feature", "properties": { "voltage_kv": 220.0, "from_node": 61, "to_node": 107, "length_km": 211.82102133942908, "delaunay_k": 4, "edge_set": "Delaunay4" }, "geometry": { "type": "LineString", "coordinates": [ [ 16.44928, 61.407894 ], [ 18.621826, 59.837916 ] ] } },
{ "type": "Feature", "properties": { "voltage_kv": 220.0, "from_node": 80, "to_node": 108, "length_km": 278.22893113778423, "delaunay_k": 4, "edge_set": "Delaunay4" }, "geometry": { "type": "LineString", "coordinates": [ [ 16.993103, 62.438065 ], [ 18.623199, 60.071693 ] ] } },
{ "type": "Feature", "properties": { "voltage_kv": 220.0, "from_node": 80, "to_node": 109, "length_km": 282.53786038715708, "delaunay_k": 4, "edge_set": "Delaunay4" }, "geometry": { "type": "LineString", "coordinates": [ [ 16.993103, 62.438065 ], [ 18.8237, 60.06484 ] ] } },
{ "type": "Feature", "properties": { "voltage_kv": 220.0, "from_node": 87, "to_node": 100, "length_km": 165.68818744874903, "delaunay_k": 4, "edge_set": "Delaunay4" }, "geometry": { "type": "LineString", "coordinates": [ [ 17.166138, 61.172384 ], [ 17.789612, 59.719715 ] ] } },
{ "type": "Feature", "properties": { "voltage_kv": 220.0, "from_node": 87, "to_node": 101, "length_km": 166.20978622242234, "delaunay_k": 4, "edge_set": "Delaunay4" }, "geometry": { "type": "LineString", "coordinates": [ [ 17.166138, 61.172384 ], [ 17.925568, 59.730792 ] ] } },
{ "type": "Feature", "properties": { "voltage_kv": 220.0, "from_node": 87, "to_node": 102, "length_km": 213.34690911744687, "delaunay_k": 4, "edge_set": "Delaunay4" }, "geometry": { "type": "LineString", "coordinates": [ [ 17.166138, 61.172384 ], [ 18.095856, 59.317075 ] ] } },
{ "type": "Feature", "properties": { "voltage_kv": 220.0, "from_node": 87, "to_node": 103, "length_km": 229.71948216884218, "delaunay_k": 4, "edge_set": "Delaunay4" }, "geometry": { "type": "LineString", "coordinates": [ [ 17.166138, 61.172384 ], [ 18.110962, 59.168187 ] ] } },
{ "type": "Feature", "properties": { "voltage_kv": 220.0, "from_node": 87, "to_node": 104, "length_km": 239.02287712713292, "delaunay_k": 4, "edge_set": "Delaunay4" }, "geometry": { "type": "LineString", "coordinates": [ [ 17.166138, 61.172384 ], [ 18.124695, 59.084327 ] ] } },
{ "type": "Feature", "properties": { "voltage_kv": 220.0, "from_node": 92, "to_node": 95, "length_km": 216.47216146346003, "delaunay_k": 4, "edge_set": "Delaunay4" }, "geometry": { "type": "LineString", "coordinates": [ [ 17.274628, 60.412496 ], [ 17.362518, 62.352158 ] ] } },
{ "type": "Feature", "properties": { "voltage_kv": 220.0, "from_node": 95, "to_node": 108, "length_km": 263.4050560082112, "delaunay_k": 4, "edge_set": "Delaunay4" }, "geometry": { "type": "LineString", "coordinates": [ [ 17.362518, 62.352158 ], [ 18.623199, 60.071693 ] ] } },
{ "type": "Feature", "properties": { "voltage_kv": 220.0, "from_node": 95, "to_node": 109, "length_km": 267.13281061812876, "delaunay_k": 4, "edge_set": "Delaunay4" }, "geometry": { "type": "LineString", "coordinates": [ [ 17.362518, 62.352158 ], [ 18.8237, 60.06484 ] ] } },
{ "type": "Feature", "properties": { "voltage_kv": 220.0, "from_node": 111, "to_node": 125, "length_km": 201.78082024975905, "delaunay_k": 4, "edge_set": "Delaunay4" }, "geometry": { "type": "LineString", "coordinates": [ [ 23.100128, 65.837089 ], [ 26.455078, 64.709668 ] ] } },
{ "type": "Feature", "properties": { "voltage_kv": 220.0, "from_node": 111, "to_node": 129, "length_km": 227.19611706750499, "delaunay_k": 4, "edge_set": "Delaunay4" }, "geometry": { "type": "LineString", "coordinates": [ [ 23.100128, 65.837089 ], [ 26.843719, 64.556111 ] ] } }
]
}
