{
"type": "FeatureCollection",
"name": "n490_300kv_delaunay1",
"crs": { "type": "name", "properties": { "name": "urn:ogc:def:crs:OGC:1.3:CRS84" } },
"features": [
{ "type": "Feature", "properties": { "voltage_kv": 300.0, "from_node": 0, "to_node": 1, "length_km": 31.049362999871391, "edge_source": "delaunay", "edge_set": "Delaunay1" }, "geometry": { "type": "LineString", "coordinates": [ [ 4.998779, 60.703432 ], [ 5.259705, 60.456541 ] ] } },
{ "type": "Feature", "properties": { "voltage_kv": 300.0, "from_node": 0, "to_node": 3, "length_km": 136.63108891773246, "edge_source": "delaunay", "edge_set": "Delaunay1" }, "geometry": { "type": "LineString", "coordinates": [ [ 4.998779, 60.703432 ], [ 5.39978, 59.495303 ] ] } },
{ "type": "Feature", "properties": { "voltage_kv": 300.0, "from_node": 0, "to_node": 5, "length_km": 107.46200298302354, "edge_source": "delaunay", "edge_set": "Delaunay1" }, "geometry": { "type": "LineString", "coordinates": [ [ 4.998779, 60.703432 ], [ 5.461578, 59.768152 ] ] } },
{ "type": "Feature", "properties": { "voltage_kv": 300.0, "from_node": 0, "to_node": 11, "length_km": 46.677221695430937, "edge_source": "delaunay", "edge_set": "Delaunay1" }, "geometry": { "type": "LineString", "coordinates": [ [ 4.998779, 60.703432 ], [ 5.847473, 60.661069 ] ] } },
{ "type": "Feature", "properties": { "voltage_kv": 300.0, "from_node": 0, "to_node": 13, "length_km": 54.958135972218422, "edge_source": "delaunay", "edge_set": "Delaunay1" }, "geometry": { "type": "LineString", "coordinates": [ [ 4.998779, 60.703432 ], [ 5.968323, 60.836881 ] ] } },
{ "type": "Feature", "properties": { "voltage_kv": 300.0, "from_node": 0, "to_node": 15, "length_km": 83.761113540730349, "edge_source": "delaunay", "edge_set": "Delaunay1" }, "geometry": { "type": "LineString", "coordinates": [ [ 4.998779, 60.703432 ], [ 6.093292, 61.233245 ] ] } },
{ "type": "Feature", "properties": { "voltage_kv": 300.0, "from_node": 1, "to_node": 4, "length_km": 16.057772954997876, "edge_source": "delaunay", "edge_set": "Delaunay1" }, "geometry": { "type": "LineString", "coordinates": [ [ 5.259705, 60.456541 ], [ 5.449219, 60.347337 ] ] } },
{ "type": "Feature", "properties": { "voltage_kv": 300.0, "from_node": 1, "to_node": 5, "length_km": 77.617525487837867, "edge_source": "delaunay", "edge_set": "Delaunay1" }, "geometry": { "type": "LineString", "coordinates": [ [ 5.259705, 60.456541 ], [ 5.461578, 59.768152 ] ] } },
{ "type": "Feature", "properties": { "voltage_kv": 300.0, "from_node": 1, "to_node": 6, "length_km": 13.530091163544105, "edge_source": "delaunay", "edge_set": "Delaunay1" }, "geometry": { "type": "LineString", "coordinates": [ [ 5.259705, 60.456541 ], [ 5.494537, 60.42131 ] ] } },
{ "type": "Feature", "properties": { "voltage_kv": 300.0, "from_node": 1, "to_node": 11, "length_km": 39.531425578419388, "edge_source": "delaunay", "edge_set": "Delaunay1" }, "geometry": { "type": "LineString", "coordinates": [ [ 5.259705, 60.456541 ], [ 5.847473, 60.661069 ] ] } },
{ "type": "Feature", "properties": { "voltage_kv": 300.0, "from_node": 2, "to_node": 3, "length_km": 31.060557869950372, "edge_source": "delaunay", "edge_set": "Delaunay1" }, "geometry": { "type": "LineString", "coordinates": [ [ 5.262451, 59.225853 ], [ 5.39978, 59.495303 ] ] } },
{ "type": "Feature", "properties": { "voltage_kv": 300.0, "from_node": 2, "to_node": 7, "length_km": 20.232325698377061, "edge_source": "delaunay", "edge_set": "Delaunay1" }, "geometry": { "type": "LineString", "coordinates": [ [ 5.262451, 59.225853 ], [ 5.568695, 59.317075 ] ] } },
{ "type": "Feature", "properties": { "voltage_kv": 300.0, "from_node": 2, "to_node": 8, "length_km": 32.111097920274908, "edge_source": "delaunay", "edge_set": "Delaunay1" }, "geometry": { "type": "LineString", "coordinates": [ [ 5.262451, 59.225853 ], [ 5.623627, 59.00592 ] ] } },
{ "type": "Feature", "properties": { "voltage_kv": 300.0, "from_node": 3, "to_node": 5, "length_km": 30.637630853154921, "edge_source": "delaunay", "edge_set": "Delaunay1" }, "geometry": { "type": "LineString", "coordinates": [ [ 5.39978, 59.495303 ], [ 5.461578, 59.768152 ] ] } },
{ "type": "Feature", "properties": { "voltage_kv": 300.0, "from_node": 3, "to_node": 7, "length_km": 22.080965335338032, "edge_source": "delaunay", "edge_set": "Delaunay1" }, "geometry": { "type": "LineString", "coordinates": [ [ 5.39978, 59.495303 ], [ 5.568695, 59.317075 ] ] } },
{ "type": "Feature", "properties": { "voltage_kv": 300.0, "from_node": 3, "to_node": 20, "length_km": 61.502178140720311, "edge_source": "delaunay", "edge_set": "Delaunay1" }, "geometry": { "type": "LineString", "coordinates": [ [ 5.39978, 59.495303 ], [ 6.432495, 59.667741 ] ] } },
{ "type": "Feature", "properties": { "voltage_kv": 300.0, "from_node": 3, "to_node": 21, "length_km": 61.853851080961775, "edge_source": "delaunay", "edge_set": "Delaunay1" }, "geometry": { "type": "LineString", "coordinates": [ [ 5.39978, 59.495303 ], [ 6.481934, 59.569114 ] ] } },
{ "type": "Feature", "properties": { "voltage_kv": 300.0, "from_node": 4, "to_node": 5, "length_km": 64.616782584850043, "edge_source": "delaunay", "edge_set": "Delaunay1" }, "geometry": { "type": "LineString", "coordinates": [ [ 5.449219, 60.347337 ], [ 5.461578, 59.768152 ] ] } },
{ "type": "Feature", "properties": { "voltage_kv": 300.0, "from_node": 4, "to_node": 6, "length_km": 8.623567430115088, "edge_source": "delaunay", "edge_set": "Delaunay1" }, "geometry": { "type": "LineString", "coordinates": [ [ 5.449219, 60.347337 ], [ 5.494537, 60.42131 ] ] } },
{ "type": "Feature", "properties": { "voltage_kv": 300.0, "from_node": 4, "to_node": 12, "length_km": 52.723514146018331, "edge_source": "delaunay", "edge_set": "Delaunay1" }, "geometry": { "type": "LineString", "coordinates": [ [ 5.449219, 60.347337 ], [ 5.868073, 59.923367 ] ] } },
{ "type": "Feature", "properties": { "voltage_kv": 300.0, "from_node": 4, "to_node": 18, "length_km": 42.762445669785123, "edge_source": "delaunay", "edge_set": "Delaunay1" }, "geometry": { "type": "LineString", "coordinates": [ [ 5.449219, 60.347337 ], [ 6.156464, 60.504583 ] ] } },
{ "type": "Feature", "properties": { "voltage_kv": 300.0, "from_node": 4, "to_node": 19, "length_km": 53.600522959657312, "edge_source": "delaunay", "edge_set": "Delaunay1" }, "geometry": { "type": "LineString", "coordinates": [ [ 5.449219, 60.347337 ], [ 6.297913, 60.117566 ] ] } },
{ "type": "Feature", "properties": { "voltage_kv": 300.0, "from_node": 5, "to_node": 12, "length_km": 28.641372142098501, "edge_source": "delaunay", "edge_set": "Delaunay1" }, "geometry": { "type": "LineString", "coordinates": [ [ 5.461578, 59.768152 ], [ 5.868073, 59.923367 ] ] } },
{ "type": "Feature", "properties": { "voltage_kv": 300.0, "from_node": 5, "to_node": 17, "length_km": 38.349708331792513, "edge_source": "delaunay", "edge_set": "Delaunay1" }, "geometry": { "type": "LineString", "coordinates": [ [ 5.461578, 59.768152 ], [ 6.113892, 59.869641 ] ] } },
{ "type": "Feature", "properties": { "voltage_kv": 300.0, "from_node": 5, "to_node": 20, "length_km": 55.833074606115908, "edge_source": "delaunay", "edge_set": "Delaunay1" }, "geometry": { "type": "LineString", "coordinates": [ [ 5.461578, 59.768152 ], [ 6.432495, 59.667741 ] ] } },
{ "type": "Feature", "properties": { "voltage_kv": 300.0, "from_node": 6, "to_node": 11, "length_km": 33.037219889770761, "edge_source": "delaunay", "edge_set": "Delaunay1" }, "geometry": { "type": "LineString", "coordinates": [ [ 5.494537, 60.42131 ], [ 5.847473, 60.661069 ] ] } },
{ "type": "Feature", "properties": { "voltage_kv": 300.0, "from_node": 6, "to_node": 18, "length_km": 37.623508231303269, "edge_source": "delaunay", "edge_set": "Delaunay1" }, "geometry": { "type": "LineString", "coordinates": [ [ 5.494537, 60.42131 ], [ 6.156464, 60.504583 ] ] } },
{ "type": "Feature", "properties": { "voltage_kv": 300.0, "from_node": 7, "to_node": 8, "length_km": 34.849813253632597, "edge_source": "delaunay", "edge_set": "Delaunay1" }, "geometry": { "type": "LineString", "coordinates": [ [ 5.568695, 59.317075 ], [ 5.623627, 59.00592 ] ] } },
{ "type": "Feature", "properties": { "voltage_kv": 300.0, "from_node": 7, "to_node": 21, "length_km": 58.996123863817751, "edge_source": "delaunay", "edge_set": "Delaunay1" }, "geometry": { "type": "LineString", "coordinates": [ [ 5.568695, 59.317075 ], [ 6.481934, 59.569114 ] ] } },
{ "type": "Feature", "properties": { "voltage_kv": 300.0, "from_node": 7, "to_node": 22, "length_km": 54.880140183575406, "edge_source": "delaunay", "edge_set": "Delaunay1" }, "geometry": { "type": "LineString", "coordinates": [ [ 5.568695, 59.317075 ], [ 6.491547, 59.460431 ] ] } },
{ "type": "Feature", "properties": { "voltage_kv": 300.0, "from_node": 7, "to_node": 26, "length_km": 62.398040225395938, "edge_source": "delaunay", "edge_set": "Delaunay1" }, "geometry": { "type": "LineString", "coordinates": [ [ 5.568695, 59.317075 ], [ 6.663208, 59.314272 ] ] } },
{ "type": "Feature", "properties": { "voltage_kv": 300.0, "from_node": 8, "to_node": 9, "length_km": 10.310946208865028, "edge_source": "delaunay", "edge_set": "Delaunay1" }, "geometry": { "type": "LineString", "coordinates": [ [ 5.623627, 59.00592 ], [ 5.715637, 58.926626 ] ] } },
{ "type": "Feature", "properties": { "voltage_kv": 300.0, "from_node": 8, "to_node": 10, "length_km": 21.432561660303428, "edge_source": "delaunay", "edge_set": "Delaunay1" }, "geometry": { "type": "LineString", "coordinates": [ [ 5.623627, 59.00592 ], [ 5.756836, 58.82654 ] ] } },
{ "type": "Feature", "properties": { "voltage_kv": 300.0, "from_node": 8, "to_node": 26, "length_km": 68.75265069375709, "edge_source": "delaunay", "edge_set": "Delaunay1" }, "geometry": { "type": "LineString", "coordinates": [ [ 5.623627, 59.00592 ], [ 6.663208, 59.314272 ] ] } },
{ "type": "Feature", "properties": { "voltage_kv": 300.0, "from_node": 8, "to_node": 27, "length_km": 62.032835377192896, "edge_source": "delaunay", "edge_set": "Delaunay1" }, "geometry": { "type": "LineString", "coordinates": [ [ 5.623627, 59.00592 ], [ 6.696167, 59.068096 ] ] } },
{ "type": "Feature", "properties": { "voltage_kv": 300.0, "from_node": 9, "to_node": 10, "length_km": 11.413796912107729, "edge_source": "delaunay", "edge_set": "Delaunay1" }, "geometry": { "type": "LineString", "coordinates": [ [ 5.715637, 58.926626 ], [ 5.756836, 58.82654 ] ] } },
{ "type": "Feature", "properties": { "voltage_kv": 300.0, "from_node": 9, "to_node": 27, "length_km": 58.583831361171491, "edge_source": "delaunay", "edge_set": "Delaunay1" }, "geometry": { "type": "LineString", "coordinates": [ [ 5.715637, 58.926626 ], [ 6.696167, 59.068096 ] ] } },
{ "type": "Feature", "properties": { "voltage_kv": 300.0, "from_node": 10, "to_node": 14, "length_km": 37.886306861615388, "edge_source": "delaunay", "edge_set": "Delaunay1" }, "geometry": { "type": "LineString", "coordinates": [ [ 5.756836, 58.82654 ], [ 6.008148, 58.513066 ] ] } },
{ "type": "Feature", "properties": { "voltage_kv": 300.0, "from_node": 10, "to_node": 27, "length_km": 60.459142618125874, "edge_source": "delaunay", "edge_set": "Delaunay1" }, "geometry": { "type": "LineString", "coordinates": [ [ 5.756836, 58.82654 ], [ 6.696167, 59.068096 ] ] } },
{ "type": "Feature", "properties": { "voltage_kv": 300.0, "from_node": 10, "to_node": 30, "length_km": 58.055542625754278, "edge_source": "delaunay", "edge_set": "Delaunay1" }, "geometry": { "type": "LineString", "coordinates": [ [ 5.756836, 58.82654 ], [ 6.756592, 58.878393 ] ] } },
{ "type": "Feature", "properties": { "voltage_kv": 300.0, "from_node": 11, "to_node": 13, "length_km": 20.69073447247381, "edge_source": "delaunay", "edge_set": "Delaunay1" }, "geometry": { "type": "LineString", "coordinates": [ [ 5.847473, 60.661069 ], [ 5.968323, 60.836881 ] ] } },
{ "type": "Feature", "properties": { "voltage_kv": 300.0, "from_node": 11, "to_node": 16, "length_km": 13.836448262776919, "edge_source": "delaunay", "edge_set": "Delaunay1" }, "geometry": { "type": "LineString", "coordinates": [ [ 5.847473, 60.661069 ], [ 6.100159, 60.664433 ] ] } },
{ "type": "Feature", "properties": { "voltage_kv": 300.0, "from_node": 11, "to_node": 18, "length_km": 24.333552237964724, "edge_source": "delaunay", "edge_set": "Delaunay1" }, "geometry": { "type": "LineString", "coordinates": [ [ 5.847473, 60.661069 ], [ 6.156464, 60.504583 ] ] } },
{ "type": "Feature", "properties": { "voltage_kv": 300.0, "from_node": 12, "to_node": 17, "length_km": 15.021406835865003, "edge_source": "delaunay", "edge_set": "Delaunay1" }, "geometry": { "type": "LineString", "coordinates": [ [ 5.868073, 59.923367 ], [ 6.113892, 59.869641 ] ] } },
{ "type": "Feature", "properties": { "voltage_kv": 300.0, "from_node": 12, "to_node": 19, "length_km": 32.324479753337236, "edge_source": "delaunay", "edge_set": "Delaunay1" }, "geometry": { "type": "LineString", "coordinates": [ [ 5.868073, 59.923367 ], [ 6.297913, 60.117566 ] ] } },
{ "type": "Feature", "properties": { "voltage_kv": 300.0, "from_node": 13, "to_node": 15, "length_km": 44.724875682623463, "edge_source": "delaunay", "edge_set": "Delaunay1" }, "geometry": { "type": "LineString", "coordinates": [ [ 5.968323, 60.836881 ], [ 6.093292, 61.233245 ] ] } },
{ "type": "Feature", "properties": { "voltage_kv": 300.0, "from_node": 13, "to_node": 16, "length_km": 20.536714465815148, "edge_source": "delaunay", "edge_set": "Delaunay1" }, "geometry": { "type": "LineString", "coordinates": [ [ 5.968323, 60.836881 ], [ 6.100159, 60.664433 ] ] } },
{ "type": "Feature", "properties": { "voltage_kv": 300.0, "from_node": 13, "to_node": 24, "length_km": 41.745729866769537, "edge_source": "delaunay", "edge_set": "Delaunay1" }, "geometry": { "type": "LineString", "coordinates": [ [ 5.968323, 60.836881 ], [ 6.60965, 61.043662 ] ] } },
{ "type": "Feature", "properties": { "voltage_kv": 300.0, "from_node": 14, "to_node": 23, "length_km": 35.534868110234633, "edge_source": "delaunay", "edge_set": "Delaunay1" }, "geometry": { "type": "LineString", "coordinates": [ [ 6.008148, 58.513066 ], [ 6.554718, 58.373638 ] ] } },
{ "type": "Feature", "properties": { "voltage_kv": 300.0, "from_node": 14, "to_node": 30, "length_km": 59.550294474722207, "edge_source": "delaunay", "edge_set": "Delaunay1" }, "geometry": { "type": "LineString", "coordinates": [ [ 6.008148, 58.513066 ], [ 6.756592, 58.878393 ] ] } },
{ "type": "Feature", "properties": { "voltage_kv": 300.0, "from_node": 14, "to_node": 31, "length_km": 62.900859803986783, "edge_source": "delaunay", "edge_set": "Delaunay1" }, "geometry": { "type": "LineString", "coordinates": [ [ 6.008148, 58.513066 ], [ 6.764832, 58.11344 ] ] } },
{ "type": "Feature", "properties": { "voltage_kv": 300.0, "from_node": 14, "to_node": 33, "length_km": 50.156056779114692, "edge_source": "delaunay", "edge_set": "Delaunay1" }, "geometry": { "type": "LineString", "coordinates": [ [ 6.008148, 58.513066 ], [ 6.82251, 58.659799 ] ] } },
{ "type": "Feature", "properties": { "voltage_kv": 300.0, "from_node": 15, "to_node": 24, "length_km": 34.960144581980558, "edge_source": "delaunay", "edge_set": "Delaunay1" }, "geometry": { "type": "LineString", "coordinates": [ [ 6.093292, 61.233245 ], [ 6.60965, 61.043662 ] ] } },
{ "type": "Feature", "properties": { "voltage_kv": 300.0, "from_node": 15, "to_node": 34, "length_km": 44.394961611836507, "edge_source": "delaunay", "edge_set": "Delaunay1" }, "geometry": { "type": "LineString", "coordinates": [ [ 6.093292, 61.233245 ], [ 6.871948, 61.10278 ] ] } },
{ "type": "Feature", "properties": { "voltage_kv": 300.0, "from_node": 15, "to_node": 46, "length_km": 64.551856058230598, "edge_source": "delaunay", "edge_set": "Delaunay1" }, "geometry": { "type": "LineString", "coordinates": [ [ 6.093292, 61.233245 ], [ 7.293549, 61.259009 ] ] } },
{ "type": "Feature", "properties": { "voltage_kv": 300.0, "from_node": 15, "to_node": 50, "length_km": 79.786212965043944, "edge_source": "delaunay", "edge_set": "Delaunay1" }, "geometry": { "type": "LineString", "coordinates": [ [ 6.093292, 61.233245 ], [ 7.410278, 61.569805 ] ] } },
{ "type": "Feature", "properties": { "voltage_kv": 300.0, "from_node": 16, "to_node": 18, "length_km": 18.094162172047749, "edge_source": "delaunay", "edge_set": "Delaunay1" }, "geometry": { "type": "LineString", "coordinates": [ [ 6.100159, 60.664433 ], [ 6.156464, 60.504583 ] ] } },
{ "type": "Feature", "properties": { "voltage_kv": 300.0, "from_node": 16, "to_node": 24, "length_km": 50.567361163830611, "edge_source": "delaunay", "edge_set": "Delaunay1" }, "geometry": { "type": "LineString", "coordinates": [ [ 6.100159, 60.664433 ], [ 6.60965, 61.043662 ] ] } },
{ "type": "Feature", "properties": { "voltage_kv": 300.0, "from_node": 16, "to_node": 45, "length_km": 68.67754038687373, "edge_source": "delaunay", "edge_set": "Delaunay1" }, "geometry": { "type": "LineString", "coordinates": [ [ 6.100159, 60.664433 ], [ 7.216644, 60.950443 ] ] } },
{ "type": "Feature", "properties": { "voltage_kv": 300.0, "from_node": 17, "to_node": 19, "length_km": 29.498806859058433, "edge_source": "delaunay", "edge_set": "Delaunay1" }, "geometry": { "type": "LineString", "coordinates": [ [ 6.113892, 59.869641 ], [ 6.297913, 60.117566 ] ] } },
{ "type": "Feature", "properties": { "voltage_kv": 300.0, "from_node": 17, "to_node": 20, "length_km": 28.775977112157904, "edge_source": "delaunay", "edge_set": "Delaunay1" }, "geometry": { "type": "LineString", "coordinates": [ [ 6.113892, 59.869641 ], [ 6.432495, 59.667741 ] ] } },
{ "type": "Feature", "properties": { "voltage_kv": 300.0, "from_node": 17, "to_node": 28, "length_km": 39.499814636275062, "edge_source": "delaunay", "edge_set": "Delaunay1" }, "geometry": { "type": "LineString", "coordinates": [ [ 6.113892, 59.869641 ], [ 6.70166, 60.066211 ] ] } },
{ "type": "Feature", "properties": { "voltage_kv": 300.0, "from_node": 17, "to_node": 29, "length_km": 35.420209000026667, "edge_source": "delaunay", "edge_set": "Delaunay1" }, "geometry": { "type": "LineString", "coordinates": [ [ 6.113892, 59.869641 ], [ 6.745605, 59.871019 ] ] } },
{ "type": "Feature", "properties": { "voltage_kv": 300.0, "from_node": 18, "to_node": 19, "length_km": 43.866084815451174, "edge_source": "delaunay", "edge_set": "Delaunay1" }, "geometry": { "type": "LineString", "coordinates": [ [ 6.156464, 60.504583 ], [ 6.297913, 60.117566 ] ] } },
{ "type": "Feature", "properties": { "voltage_kv": 300.0, "from_node": 18, "to_node": 32, "length_km": 52.570822304587246, "edge_source": "delaunay", "edge_set": "Delaunay1" }, "geometry": { "type": "LineString", "coordinates": [ [ 6.156464, 60.504583 ], [ 6.797791, 60.156543 ] ] } },
{ "type": "Feature", "properties": { "voltage_kv": 300.0, "from_node": 18, "to_node": 45, "length_km": 76.316005436497321, "edge_source": "delaunay", "edge_set": "Delaunay1" }, "geometry": { "type": "LineString", "coordinates": [ [ 6.156464, 60.504583 ], [ 7.216644, 60.950443 ] ] } },
{ "type": "Feature", "properties": { "voltage_kv": 300.0, "from_node": 19, "to_node": 28, "length_km": 23.204113305632916, "edge_source": "delaunay", "edge_set": "Delaunay1" }, "geometry": { "type": "LineString", "coordinates": [ [ 6.297913, 60.117566 ], [ 6.70166, 60.066211 ] ] } },
{ "type": "Feature", "properties": { "voltage_kv": 300.0, "from_node": 19, "to_node": 32, "length_km": 28.139316705149945, "edge_source": "delaunay", "edge_set": "Delaunay1" }, "geometry": { "type": "LineString", "coordinates": [ [ 6.297913, 60.117566 ], [ 6.797791, 60.156543 ] ] } },
{ "type": "Feature", "properties": { "voltage_kv": 300.0, "from_node": 20, "to_node": 21, "length_km": 11.346864259763269, "edge_source": "delaunay", "edge_set": "Delaunay1" }, "geometry": { "type": "LineString", "coordinates": [ [ 6.432495, 59.667741 ], [ 6.481934, 59.569114 ] ] } },
{ "type": "Feature", "properties": { "voltage_kv": 300.0, "from_node": 20, "to_node": 29, "length_km": 28.702192250027242, "edge_source": "delaunay", "edge_set": "Delaunay1" }, "geometry": { "type": "LineString", "coordinates": [ [ 6.432495, 59.667741 ], [ 6.745605, 59.871019 ] ] } },
{ "type": "Feature", "properties": { "voltage_kv": 300.0, "from_node": 20, "to_node": 37, "length_km": 27.057363097573038, "edge_source": "delaunay", "edge_set": "Delaunay1" }, "geometry": { "type": "LineString", "coordinates": [ [ 6.432495, 59.667741 ], [ 6.904907, 59.710712 ] ] } },
{ "type": "Feature", "properties": { "voltage_kv": 300.0, "from_node": 21, "to_node": 22, "length_km": 12.131062775294689, "edge_source": "delaunay", "edge_set": "Delaunay1" }, "geometry": { "type": "LineString", "coordinates": [ [ 6.481934, 59.569114 ], [ 6.491547, 59.460431 ] ] } },
{ "type": "Feature", "properties": { "voltage_kv": 300.0, "from_node": 21, "to_node": 25, "length_km": 15.320647106523577, "edge_source": "delaunay", "edge_set": "Delaunay1" }, "geometry": { "type": "LineString", "coordinates": [ [ 6.481934, 59.569114 ], [ 6.650848, 59.461826 ] ] } },
{ "type": "Feature", "properties": { "voltage_kv": 300.0, "from_node": 21, "to_node": 37, "length_km": 28.625324744840668, "edge_source": "delaunay", "edge_set": "Delaunay1" }, "geometry": { "type": "LineString", "coordinates": [ [ 6.481934, 59.569114 ], [ 6.904907, 59.710712 ] ] } },
{ "type": "Feature", "properties": { "voltage_kv": 300.0, "from_node": 22, "to_node": 25, "length_km": 9.0425156087901382, "edge_source": "delaunay", "edge_set": "Delaunay1" }, "geometry": { "type": "LineString", "coordinates": [ [ 6.491547, 59.460431 ], [ 6.650848, 59.461826 ] ] } },
{ "type": "Feature", "properties": { "voltage_kv": 300.0, "from_node": 22, "to_node": 26, "length_km": 18.997928081464369, "edge_source": "delaunay", "edge_set": "Delaunay1" }, "geometry": { "type": "LineString", "coordinates": [ [ 6.491547, 59.460431 ], [ 6.663208, 59.314272 ] ] } },
{ "type": "Feature", "properties": { "voltage_kv": 300.0, "from_node": 23, "to_node": 31, "length_km": 31.528057859363379, "edge_source": "delaunay", "edge_set": "Delaunay1" }, "geometry": { "type": "LineString", "coordinates": [ [ 6.554718, 58.373638 ], [ 6.764832, 58.11344 ] ] } },
{ "type": "Feature", "properties": { "voltage_kv": 300.0, "from_node": 23, "to_node": 33, "length_km": 35.521772766828342, "edge_source": "delaunay", "edge_set": "Delaunay1" }, "geometry": { "type": "LineString", "coordinates": [ [ 6.554718, 58.373638 ], [ 6.82251, 58.659799 ] ] } },
{ "type": "Feature", "properties": { "voltage_kv": 300.0, "from_node": 23, "to_node": 39, "length_km": 28.153010570403183, "edge_source": "delaunay", "edge_set": "Delaunay1" }, "geometry": { "type": "LineString", "coordinates": [ [ 6.554718, 58.373638 ], [ 7.001038, 58.28062 ] ] } },
{ "type": "Feature", "properties": { "voltage_kv": 300.0, "from_node": 24, "to_node": 34, "length_km": 15.628667330038379, "edge_source": "delaunay", "edge_set": "Delaunay1" }, "geometry": { "type": "LineString", "coordinates": [ [ 6.60965, 61.043662 ], [ 6.871948, 61.10278 ] ] } },
{ "type": "Feature", "properties": { "voltage_kv": 300.0, "from_node": 24, "to_node": 45, "length_km": 34.473191404664448, "edge_source": "delaunay", "edge_set": "Delaunay1" }, "geometry": { "type": "LineString", "coordinates": [ [ 6.60965, 61.043662 ], [ 7.216644, 60.950443 ] ] } },
{ "type": "Feature", "properties": { "voltage_kv": 300.0, "from_node": 25, "to_node": 26, "length_km": 16.466939952967959, "edge_source": "delaunay", "edge_set": "Delaunay1" }, "geometry": { "type": "LineString", "coordinates": [ [ 6.650848, 59.461826 ], [ 6.663208, 59.314272 ] ] } },
{ "type": "Feature", "properties": { "voltage_kv": 300.0, "from_node": 25, "to_node": 37, "length_km": 31.247103540336809, "edge_source": "delaunay", "edge_set": "Delaunay1" }, "geometry": { "type": "LineString", "coordinates": [ [ 6.650848, 59.461826 ], [ 6.904907, 59.710712 ] ] } },
{ "type": "Feature", "properties": { "voltage_kv": 300.0, "from_node": 25, "to_node": 41, "length_km": 38.375479278834462, "edge_source": "delaunay", "edge_set": "Delaunay1" }, "geometry": { "type": "LineString", "coordinates": [ [ 6.650848, 59.461826 ], [ 7.086182, 59.725947 ] ] } },
{ "type": "Feature", "properties": { "voltage_kv": 300.0, "from_node": 25, "to_node": 43, "length_km": 47.417013860007209, "edge_source": "delaunay", "edge_set": "Delaunay1" }, "geometry": { "type": "LineString", "coordinates": [ [ 6.650848, 59.461826 ], [ 7.119141, 59.110423 ] ] } },
{ "type": "Feature", "properties": { "voltage_kv": 300.0, "from_node": 26, "to_node": 27, "length_km": 27.5119390881413, "edge_source": "delaunay", "edge_set": "Delaunay1" }, "geometry": { "type": "LineString", "coordinates": [ [ 6.663208, 59.314272 ], [ 6.696167, 59.068096 ] ] } },
{ "type": "Feature", "properties": { "voltage_kv": 300.0, "from_node": 26, "to_node": 35, "length_km": 26.159724012631862, "edge_source": "delaunay", "edge_set": "Delaunay1" }, "geometry": { "type": "LineString", "coordinates": [ [ 6.663208, 59.314272 ], [ 6.889801, 59.110423 ] ] } },
{ "type": "Feature", "properties": { "voltage_kv": 300.0, "from_node": 26, "to_node": 43, "length_km": 34.580336404170446, "edge_source": "delaunay", "edge_set": "Delaunay1" }, "geometry": { "type": "LineString", "coordinates": [ [ 6.663208, 59.314272 ], [ 7.119141, 59.110423 ] ] } },
{ "type": "Feature", "properties": { "voltage_kv": 300.0, "from_node": 27, "to_node": 30, "length_km": 21.434138795003392, "edge_source": "delaunay", "edge_set": "Delaunay1" }, "geometry": { "type": "LineString", "coordinates": [ [ 6.696167, 59.068096 ], [ 6.756592, 58.878393 ] ] } },
{ "type": "Feature", "properties": { "voltage_kv": 300.0, "from_node": 27, "to_node": 35, "length_km": 12.070213671013935, "edge_source": "delaunay", "edge_set": "Delaunay1" }, "geometry": { "type": "LineString", "coordinates": [ [ 6.696167, 59.068096 ], [ 6.889801, 59.110423 ] ] } },
{ "type": "Feature", "properties": { "voltage_kv": 300.0, "from_node": 27, "to_node": 36, "length_km": 22.118954999050043, "edge_source": "delaunay", "edge_set": "Delaunay1" }, "geometry": { "type": "LineString", "coordinates": [ [ 6.696167, 59.068096 ], [ 6.892548, 58.897552 ] ] } },
{ "type": "Feature", "properties": { "voltage_kv": 300.0, "from_node": 28, "to_node": 29, "length_km": 21.902431936918589, "edge_source": "delaunay", "edge_set": "Delaunay1" }, "geometry": { "type": "LineString", "coordinates": [ [ 6.70166, 60.066211 ], [ 6.745605, 59.871019 ] ] } },
{ "type": "Feature", "properties": { "voltage_kv": 300.0, "from_node": 28, "to_node": 32, "length_km": 11.405068925106326, "edge_source": "delaunay", "edge_set": "Delaunay1" }, "geometry": { "type": "LineString", "coordinates": [ [ 6.70166, 60.066211 ], [ 6.797791, 60.156543 ] ] } },
{ "type": "Feature", "properties": { "voltage_kv": 300.0, "from_node": 28, "to_node": 38, "length_km": 29.494087468507288, "edge_source": "delaunay", "edge_set": "Delaunay1" }, "geometry": { "type": "LineString", "coordinates": [ [ 6.70166, 60.066211 ], [ 6.968079, 59.837916 ] ] } },
{ "type": "Feature", "properties": { "voltage_kv": 300.0, "from_node": 29, "to_node": 37, "length_km": 19.990067080999918, "edge_source": "delaunay", "edge_set": "Delaunay1" }, "geometry": { "type": "LineString", "coordinates": [ [ 6.745605, 59.871019 ], [ 6.904907, 59.710712 ] ] } },
{ "type": "Feature", "properties": { "voltage_kv": 300.0, "from_node": 29, "to_node": 38, "length_km": 13.012492360175241, "edge_source": "delaunay", "edge_set": "Delaunay1" }, "geometry": { "type": "LineString", "coordinates": [ [ 6.745605, 59.871019 ], [ 6.968079, 59.837916 ] ] } },
{ "type": "Feature", "properties": { "voltage_kv": 300.0, "from_node": 30, "to_node": 33, "length_km": 24.667074707157621, "edge_source": "delaunay", "edge_set": "Delaunay1" }, "geometry": { "type": "LineString", "coordinates": [ [ 6.756592, 58.878393 ], [ 6.82251, 58.659799 ] ] } },
{ "type": "Feature", "properties": { "voltage_kv": 300.0, "from_node": 30, "to_node": 36, "length_km": 8.1314773715294812, "edge_source": "delaunay", "edge_set": "Delaunay1" }, "geometry": { "type": "LineString", "coordinates": [ [ 6.756592, 58.878393 ], [ 6.892548, 58.897552 ] ] } },
{ "type": "Feature", "properties": { "voltage_kv": 300.0, "from_node": 31, "to_node": 39, "length_km": 23.250437223857226, "edge_source": "delaunay", "edge_set": "Delaunay1" }, "geometry": { "type": "LineString", "coordinates": [ [ 6.764832, 58.11344 ], [ 7.001038, 58.28062 ] ] } },
{ "type": "Feature", "properties": { "voltage_kv": 300.0, "from_node": 31, "to_node": 59, "length_km": 80.093058732669036, "edge_source": "delaunay", "edge_set": "Delaunay1" }, "geometry": { "type": "LineString", "coordinates": [ [ 6.764832, 58.11344 ], [ 8.102417, 58.2445 ] ] } },
{ "type": "Feature", "properties": { "voltage_kv": 300.0, "from_node": 32, "to_node": 38, "length_km": 36.776463231041973, "edge_source": "delaunay", "edge_set": "Delaunay1" }, "geometry": { "type": "LineString", "coordinates": [ [ 6.797791, 60.156543 ], [ 6.968079, 59.837916 ] ] } },
{ "type": "Feature", "properties": { "voltage_kv": 300.0, "from_node": 32, "to_node": 45, "length_km": 91.456390613405745, "edge_source": "delaunay", "edge_set": "Delaunay1" }, "geometry": { "type": "LineString", "coordinates": [ [ 6.797791, 60.156543 ], [ 7.216644, 60.950443 ] ] } },
{ "type": "Feature", "properties": { "voltage_kv": 300.0, "from_node": 32, "to_node": 48, "length_km": 49.502380498018489, "edge_source": "delaunay", "edge_set": "Delaunay1" }, "geometry": { "type": "LineString", "coordinates": [ [ 6.797791, 60.156543 ], [ 7.34024, 59.805469 ] ] } },
{ "type": "Feature", "properties": { "voltage_kv": 300.0, "from_node": 32, "to_node": 58, "length_km": 81.573940561592906, "edge_source": "delaunay", "edge_set": "Delaunay1" }, "geometry": { "type": "LineString", "coordinates": [ [ 6.797791, 60.156543 ], [ 8.088684, 60.511343 ] ] } },
{ "type": "Feature", "properties": { "voltage_kv": 300.0, "from_node": 33, "to_node": 36, "length_km": 26.813564296997892, "edge_source": "delaunay", "edge_set": "Delaunay1" }, "geometry": { "type": "LineString", "coordinates": [ [ 6.82251, 58.659799 ], [ 6.892548, 58.897552 ] ] } },
{ "type": "Feature", "properties": { "voltage_kv": 300.0, "from_node": 33, "to_node": 39, "length_km": 43.53638086726167, "edge_source": "delaunay", "edge_set": "Delaunay1" }, "geometry": { "type": "LineString", "coordinates": [ [ 6.82251, 58.659799 ], [ 7.001038, 58.28062 ] ] } },
{ "type": "Feature", "properties": { "voltage_kv": 300.0, "from_node": 33, "to_node": 42, "length_km": 26.406722626202878, "edge_source": "delaunay", "edge_set": "Delaunay1" }, "geometry": { "type": "LineString", "coordinates": [ [ 6.82251, 58.659799 ], [ 7.115021, 58.841464 ] ] } },
{ "type": "Feature", "properties": { "voltage_kv": 300.0, "from_node": 34, "to_node": 45, "length_km": 25.223802297766607, "edge_source": "delaunay", "edge_set": "Delaunay1" }, "geometry": { "type": "LineString", "coordinates": [ [ 6.871948, 61.10278 ], [ 7.216644, 60.950443 ] ] } },
{ "type": "Feature", "properties": { "voltage_kv": 300.0, "from_node": 34, "to_node": 46, "length_km": 28.610830588765459, "edge_source": "delaunay", "edge_set": "Delaunay1" }, "geometry": { "type": "LineString", "coordinates": [ [ 6.871948, 61.10278 ], [ 7.293549, 61.259009 ] ] } },
{ "type": "Feature", "properties": { "voltage_kv": 300.0, "from_node": 34, "to_node": 47, "length_km": 27.70150854582063, "edge_source": "delaunay", "edge_set": "Delaunay1" }, "geometry": { "type": "LineString", "coordinates": [ [ 6.871948, 61.10278 ], [ 7.338867, 61.206798 ] ] } },
{ "type": "Feature", "properties": { "voltage_kv": 300.0, "from_node": 35, "to_node": 36, "length_km": 23.732163742769163, "edge_source": "delaunay", "edge_set": "Delaunay1" }, "geometry": { "type": "LineString", "coordinates": [ [ 6.889801, 59.110423 ], [ 6.892548, 58.897552 ] ] } },
{ "type": "Feature", "properties": { "voltage_kv": 300.0, "from_node": 35, "to_node": 43, "length_km": 13.149001913871059, "edge_source": "delaunay", "edge_set": "Delaunay1" }, "geometry": { "type": "LineString", "coordinates": [ [ 6.889801, 59.110423 ], [ 7.119141, 59.110423 ] ] } },
{ "type": "Feature", "properties": { "voltage_kv": 300.0, "from_node": 35, "to_node": 44, "length_km": 18.500530176303545, "edge_source": "delaunay", "edge_set": "Delaunay1" }, "geometry": { "type": "LineString", "coordinates": [ [ 6.889801, 59.110423 ], [ 7.120514, 58.994604 ] ] } },
{ "type": "Feature", "properties": { "voltage_kv": 300.0, "from_node": 36, "to_node": 42, "length_km": 14.285772740208222, "edge_source": "delaunay", "edge_set": "Delaunay1" }, "geometry": { "type": "LineString", "coordinates": [ [ 6.892548, 58.897552 ], [ 7.115021, 58.841464 ] ] } },
{ "type": "Feature", "properties": { "voltage_kv": 300.0, "from_node": 36, "to_node": 44, "length_km": 17.015451173790542, "edge_source": "delaunay", "edge_set": "Delaunay1" }, "geometry": { "type": "LineString", "coordinates": [ [ 6.892548, 58.897552 ], [ 7.120514, 58.994604 ] ] } },
{ "type": "Feature", "properties": { "voltage_kv": 300.0, "from_node": 37, "to_node": 38, "length_km": 14.620089064485517, "edge_source": "delaunay", "edge_set": "Delaunay1" }, "geometry": { "type": "LineString", "coordinates": [ [ 6.904907, 59.710712 ], [ 6.968079, 59.837916 ] ] } },
{ "type": "Feature", "properties": { "voltage_kv": 300.0, "from_node": 37, "to_node": 40, "length_km": 12.402998745588111, "edge_source": "delaunay", "edge_set": "Delaunay1" }, "geometry": { "type": "LineString", "coordinates": [ [ 6.904907, 59.710712 ], [ 7.080688, 59.777831 ] ] } },
{ "type": "Feature", "properties": { "voltage_kv": 300.0, "from_node": 37, "to_node": 41, "length_km": 10.348752053530546, "edge_source": "delaunay", "edge_set": "Delaunay1" }, "geometry": { "type": "LineString", "coordinates": [ [ 6.904907, 59.710712 ], [ 7.086182, 59.725947 ] ] } },
{ "type": "Feature", "properties": { "voltage_kv": 300.0, "from_node": 38, "to_node": 40, "length_km": 9.2126414878747234, "edge_source": "delaunay", "edge_set": "Delaunay1" }, "geometry": { "type": "LineString", "coordinates": [ [ 6.968079, 59.837916 ], [ 7.080688, 59.777831 ] ] } },
{ "type": "Feature", "properties": { "voltage_kv": 300.0, "from_node": 38, "to_node": 48, "length_km": 21.203043441411751, "edge_source": "delaunay", "edge_set": "Delaunay1" }, "geometry": { "type": "LineString", "coordinates": [ [ 6.968079, 59.837916 ], [ 7.34024, 59.805469 ] ] } },
{ "type": "Feature", "properties": { "voltage_kv": 300.0, "from_node": 39, "to_node": 42, "length_km": 62.869701741849553, "edge_source": "delaunay", "edge_set": "Delaunay1" }, "geometry": { "type": "LineString", "coordinates": [ [ 7.001038, 58.28062 ], [ 7.115021, 58.841464 ] ] } },
{ "type": "Feature", "properties": { "voltage_kv": 300.0, "from_node": 39, "to_node": 59, "length_km": 64.81380016112027, "edge_source": "delaunay", "edge_set": "Delaunay1" }, "geometry": { "type": "LineString", "coordinates": [ [ 7.001038, 58.28062 ], [ 8.102417, 58.2445 ] ] } },
{ "type": "Feature", "properties": { "voltage_kv": 300.0, "from_node": 40, "to_node": 41, "length_km": 5.792569427471042, "edge_source": "delaunay", "edge_set": "Delaunay1" }, "geometry": { "type": "LineString", "coordinates": [ [ 7.080688, 59.777831 ], [ 7.086182, 59.725947 ] ] } },
{ "type": "Feature", "properties": { "voltage_kv": 300.0, "from_node": 40, "to_node": 48, "length_km": 14.905416887181604, "edge_source": "delaunay", "edge_set": "Delaunay1" }, "geometry": { "type": "LineString", "coordinates": [ [ 7.080688, 59.777831 ], [ 7.34024, 59.805469 ] ] } },
{ "type": "Feature", "properties": { "voltage_kv": 300.0, "from_node": 40, "to_node": 49, "length_km": 16.568917586415882, "edge_source": "delaunay", "edge_set": "Delaunay1" }, "geometry": { "type": "LineString", "coordinates": [ [ 7.080688, 59.777831 ], [ 7.36908, 59.747402 ] ] } },
{ "type": "Feature", "properties": { "voltage_kv": 300.0, "from_node": 41, "to_node": 43, "length_km": 68.644580909669457, "edge_source": "delaunay", "edge_set": "Delaunay1" }, "geometry": { "type": "LineString", "coordinates": [ [ 7.086182, 59.725947 ], [ 7.119141, 59.110423 ] ] } },
{ "type": "Feature", "properties": { "voltage_kv": 300.0, "from_node": 41, "to_node": 49, "length_km": 16.099978109966802, "edge_source": "delaunay", "edge_set": "Delaunay1" }, "geometry": { "type": "LineString", "coordinates": [ [ 7.086182, 59.725947 ], [ 7.36908, 59.747402 ] ] } },
{ "type": "Feature", "properties": { "voltage_kv": 300.0, "from_node": 41, "to_node": 57, "length_km": 54.954703518985717, "edge_source": "delaunay", "edge_set": "Delaunay1" }, "geometry": { "type": "LineString", "coordinates": [ [ 7.086182, 59.725947 ], [ 7.901917, 59.457639 ] ] } },
{ "type": "Feature", "properties": { "voltage_kv": 300.0, "from_node": 42, "to_node": 44, "length_km": 17.074033434361677, "edge_source": "delaunay", "edge_set": "Delaunay1" }, "geometry": { "type": "LineString", "coordinates": [ [ 7.115021, 58.841464 ], [ 7.120514, 58.994604 ] ] } },
{ "type": "Feature", "properties": { "voltage_kv": 300.0, "from_node": 42, "to_node": 59, "length_km": 87.956861159209538, "edge_source": "delaunay", "edge_set": "Delaunay1" }, "geometry": { "type": "LineString", "coordinates": [ [ 7.115021, 58.841464 ], [ 8.102417, 58.2445 ] ] } },
{ "type": "Feature", "properties": { "voltage_kv": 300.0, "from_node": 42, "to_node": 66, "length_km": 101.11769795732801, "edge_source": "delaunay", "edge_set": "Delaunay1" }, "geometry": { "type": "LineString", "coordinates": [ [ 7.115021, 58.841464 ], [ 8.782196, 58.575413 ] ] } },
{ "type": "Feature", "properties": { "voltage_kv": 300.0, "from_node": 43, "to_node": 44, "length_km": 12.911213005368728, "edge_source": "delaunay", "edge_set": "Delaunay1" }, "geometry": { "type": "LineString", "coordinates": [ [ 7.119141, 59.110423 ], [ 7.120514, 58.994604 ] ] } },
{ "type": "Feature", "properties": { "voltage_kv": 300.0, "from_node": 43, "to_node": 57, "length_km": 59.084559736835189, "edge_source": "delaunay", "edge_set": "Delaunay1" }, "geometry": { "type": "LineString", "coordinates": [ [ 7.119141, 59.110423 ], [ 7.901917, 59.457639 ] ] } },
{ "type": "Feature", "properties": { "voltage_kv": 300.0, "from_node": 44, "to_node": 57, "length_km": 68.239378546307748, "edge_source": "delaunay", "edge_set": "Delaunay1" }, "geometry": { "type": "LineString", "coordinates": [ [ 7.120514, 58.994604 ], [ 7.901917, 59.457639 ] ] } },
{ "type": "Feature", "properties": { "voltage_kv": 300.0, "from_node": 44, "to_node": 66, "length_km": 106.89067531096704, "edge_source": "delaunay", "edge_set": "Delaunay1" }, "geometry": { "type": "LineString", "coordinates": [ [ 7.120514, 58.994604 ], [ 8.782196, 58.575413 ] ] } },
{ "type": "Feature", "properties": { "voltage_kv": 300.0, "from_node": 45, "to_node": 47, "length_km": 29.334697650127293, "edge_source": "delaunay", "edge_set": "Delaunay1" }, "geometry": { "type": "LineString", "coordinates": [ [ 7.216644, 60.950443 ], [ 7.338867, 61.206798 ] ] } },
{ "type": "Feature", "properties": { "voltage_kv": 300.0, "from_node": 45, "to_node": 56, "length_km": 38.067785441417506, "edge_source": "delaunay", "edge_set": "Delaunay1" }, "geometry": { "type": "LineString", "coordinates": [ [ 7.216644, 60.950443 ], [ 7.892303, 61.044991 ] ] } },
{ "type": "Feature", "properties": { "voltage_kv": 300.0, "from_node": 45, "to_node": 58, "length_km": 68.28142982803513, "edge_source": "delaunay", "edge_set": "Delaunay1" }, "geometry": { "type": "LineString", "coordinates": [ [ 7.216644, 60.950443 ], [ 8.088684, 60.511343 ] ] } },
{ "type": "Feature", "properties": { "voltage_kv": 300.0, "from_node": 46, "to_node": 47, "length_km": 6.3102556319735159, "edge_source": "delaunay", "edge_set": "Delaunay1" }, "geometry": { "type": "LineString", "coordinates": [ [ 7.293549, 61.259009 ], [ 7.338867, 61.206798 ] ] } },
{ "type": "Feature", "properties": { "voltage_kv": 300.0, "from_node": 46, "to_node": 50, "length_km": 35.209742810761178, "edge_source": "delaunay", "edge_set": "Delaunay1" }, "geometry": { "type": "LineString", "coordinates": [ [ 7.293549, 61.259009 ], [ 7.410278, 61.569805 ] ] } },
{ "type": "Feature", "properties": { "voltage_kv": 300.0, "from_node": 46, "to_node": 51, "length_km": 22.342953449050938, "edge_source": "delaunay", "edge_set": "Delaunay1" }, "geometry": { "type": "LineString", "coordinates": [ [ 7.293549, 61.259009 ], [ 7.436371, 61.447302 ] ] } },
{ "type": "Feature", "properties": { "voltage_kv": 300.0, "from_node": 46, "to_node": 52, "length_km": 8.6669222750353541, "edge_source": "delaunay", "edge_set": "Delaunay1" }, "geometry": { "type": "LineString", "coordinates": [ [ 7.293549, 61.259009 ], [ 7.439117, 61.292669 ] ] } },
{ "type": "Feature", "properties": { "voltage_kv": 300.0, "from_node": 47, "to_node": 52, "length_km": 10.984418994660189, "edge_source": "delaunay", "edge_set": "Delaunay1" }, "geometry": { "type": "LineString", "coordinates": [ [ 7.338867, 61.206798 ], [ 7.439117, 61.292669 ] ] } },
{ "type": "Feature", "properties": { "voltage_kv": 300.0, "from_node": 47, "to_node": 56, "length_km": 34.869628001665284, "edge_source": "delaunay", "edge_set": "Delaunay1" }, "geometry": { "type": "LineString", "coordinates": [ [ 7.338867, 61.206798 ], [ 7.892303, 61.044991 ] ] } },
{ "type": "Feature", "properties": { "voltage_kv": 300.0, "from_node": 48, "to_node": 49, "length_km": 6.6730029260123374, "edge_source": "delaunay", "edge_set": "Delaunay1" }, "geometry": { "type": "LineString", "coordinates": [ [ 7.34024, 59.805469 ], [ 7.36908, 59.747402 ] ] } },
{ "type": "Feature", "properties": { "voltage_kv": 300.0, "from_node": 48, "to_node": 54, "length_km": 24.459909776340059, "edge_source": "delaunay", "edge_set": "Delaunay1" }, "geometry": { "type": "LineString", "coordinates": [ [ 7.34024, 59.805469 ], [ 7.772827, 59.780596 ] ] } },
{ "type": "Feature", "properties": { "voltage_kv": 300.0, "from_node": 48, "to_node": 58, "length_km": 88.995244269960821, "edge_source": "delaunay", "edge_set": "Delaunay1" }, "geometry": { "type": "LineString", "coordinates": [ [ 7.34024, 59.805469 ], [ 8.088684, 60.511343 ] ] } },
{ "type": "Feature", "properties": { "voltage_kv": 300.0, "from_node": 49, "to_node": 54, "length_km": 23.001258763278312, "edge_source": "delaunay", "edge_set": "Delaunay1" }, "geometry": { "type": "LineString", "coordinates": [ [ 7.36908, 59.747402 ], [ 7.772827, 59.780596 ] ] } },
{ "type": "Feature", "properties": { "voltage_kv": 300.0, "from_node": 49, "to_node": 55, "length_km": 28.438713805913935, "edge_source": "delaunay", "edge_set": "Delaunay1" }, "geometry": { "type": "LineString", "coordinates": [ [ 7.36908, 59.747402 ], [ 7.819519, 59.632352 ] ] } },
{ "type": "Feature", "properties": { "voltage_kv": 300.0, "from_node": 49, "to_node": 57, "length_km": 44.152329594538841, "edge_source": "delaunay", "edge_set": "Delaunay1" }, "geometry": { "type": "LineString", "coordinates": [ [ 7.36908, 59.747402 ], [ 7.901917, 59.457639 ] ] } },
{ "type": "Feature", "properties": { "voltage_kv": 300.0, "from_node": 50, "to_node": 51, "length_km": 13.729191447956493, "edge_source": "delaunay", "edge_set": "Delaunay1" }, "geometry": { "type": "LineString", "coordinates": [ [ 7.410278, 61.569805 ], [ 7.436371, 61.447302 ] ] } },
{ "type": "Feature", "properties": { "voltage_kv": 300.0, "from_node": 50, "to_node": 53, "length_km": 18.412707419785132, "edge_source": "delaunay", "edge_set": "Delaunay1" }, "geometry": { "type": "LineString", "coordinates": [ [ 7.410278, 61.569805 ], [ 7.738495, 61.517456 ] ] } },
{ "type": "Feature", "properties": { "voltage_kv": 300.0, "from_node": 50, "to_node": 61, "length_km": 135.76932843725024, "edge_source": "delaunay", "edge_set": "Delaunay1" }, "geometry": { "type": "LineString", "coordinates": [ [ 7.410278, 61.569805 ], [ 8.480072, 62.679816 ] ] } },
{ "type": "Feature", "properties": { "voltage_kv": 300.0, "from_node": 50, "to_node": 69, "length_km": 94.270104465623021, "edge_source": "delaunay", "edge_set": "Delaunay1" }, "geometry": { "type": "LineString", "coordinates": [ [ 7.410278, 61.569805 ], [ 9.063721, 61.885931 ] ] } },
{ "type": "Feature", "properties": { "voltage_kv": 300.0, "from_node": 51, "to_node": 52, "length_km": 17.241320209500213, "edge_source": "delaunay", "edge_set": "Delaunay1" }, "geometry": { "type": "LineString", "coordinates": [ [ 7.436371, 61.447302 ], [ 7.439117, 61.292669 ] ] } },
{ "type": "Feature", "properties": { "voltage_kv": 300.0, "from_node": 51, "to_node": 53, "length_km": 17.905200309475227, "edge_source": "delaunay", "edge_set": "Delaunay1" }, "geometry": { "type": "LineString", "coordinates": [ [ 7.436371, 61.447302 ], [ 7.738495, 61.517456 ] ] } },
{ "type": "Feature", "properties": { "voltage_kv": 300.0, "from_node": 52, "to_node": 53, "length_km": 29.733310079052846, "edge_source": "delaunay", "edge_set": "Delaunay1" }, "geometry": { "type": "LineString", "coordinates": [ [ 7.439117, 61.292669 ], [ 7.738495, 61.517456 ] ] } },
{ "type": "Feature", "properties": { "voltage_kv": 300.0, "from_node": 52, "to_node": 56, "length_km": 36.849612506855358, "edge_source": "delaunay", "edge_set": "Delaunay1" }, "geometry": { "type": "LineString", "coordinates": [ [ 7.439117, 61.292669 ], [ 7.892303, 61.044991 ] ] } },
{ "type": "Feature", "properties": { "voltage_kv": 300.0, "from_node": 53, "to_node": 56, "length_km": 53.313921724051191, "edge_source": "delaunay", "edge_set": "Delaunay1" }, "geometry": { "type": "LineString", "coordinates": [ [ 7.738495, 61.517456 ], [ 7.892303, 61.044991 ] ] } },
{ "type": "Feature", "properties": { "voltage_kv": 300.0, "from_node": 53, "to_node": 69, "length_km": 81.27888977319536, "edge_source": "delaunay", "edge_set": "Delaunay1" }, "geometry": { "type": "LineString", "coordinates": [ [ 7.738495, 61.517456 ], [ 9.063721, 61.885931 ] ] } },
{ "type": "Feature", "properties": { "voltage_kv": 300.0, "from_node": 53, "to_node": 70, "length_km": 85.522075223598549, "edge_source": "delaunay", "edge_set": "Delaunay1" }, "geometry": { "type": "LineString", "coordinates": [ [ 7.738495, 61.517456 ], [ 9.341125, 61.473546 ] ] } },
{ "type": "Feature", "properties": { "voltage_kv": 300.0, "from_node": 54, "to_node": 55, "length_km": 16.731408424017275, "edge_source": "delaunay", "edge_set": "Delaunay1" }, "geometry": { "type": "LineString", "coordinates": [ [ 7.772827, 59.780596 ], [ 7.819519, 59.632352 ] ] } },
{ "type": "Feature", "properties": { "voltage_kv": 300.0, "from_node": 54, "to_node": 58, "length_km": 83.321626652032691, "edge_source": "delaunay", "edge_set": "Delaunay1" }, "geometry": { "type": "LineString", "coordinates": [ [ 7.772827, 59.780596 ], [ 8.088684, 60.511343 ] ] } },
{ "type": "Feature", "properties": { "voltage_kv": 300.0, "from_node": 54, "to_node": 62, "length_km": 44.612731405763263, "edge_source": "delaunay", "edge_set": "Delaunay1" }, "geometry": { "type": "LineString", "coordinates": [ [ 7.772827, 59.780596 ], [ 8.524017, 59.912353 ] ] } },
{ "type": "Feature", "properties": { "voltage_kv": 300.0, "from_node": 55, "to_node": 57, "length_km": 20.023499850546731, "edge_source": "delaunay", "edge_set": "Delaunay1" }, "geometry": { "type": "LineString", "coordinates": [ [ 7.819519, 59.632352 ], [ 7.901917, 59.457639 ] ] } },
{ "type": "Feature", "properties": { "voltage_kv": 300.0, "from_node": 55, "to_node": 62, "length_km": 50.414831126859099, "edge_source": "delaunay", "edge_set": "Delaunay1" }, "geometry": { "type": "LineString", "coordinates": [ [ 7.819519, 59.632352 ], [ 8.524017, 59.912353 ] ] } },
{ "type": "Feature", "properties": { "voltage_kv": 300.0, "from_node": 55, "to_node": 68, "length_km": 60.861385918986109, "edge_source": "delaunay", "edge_set": "Delaunay1" }, "geometry": { "type": "LineString", "coordinates": [ [ 7.819519, 59.632352 ], [ 8.87558, 59.525961 ] ] } },
{ "type": "Feature", "properties": { "voltage_kv": 300.0, "from_node": 56, "to_node": 58, "length_km": 60.441356493176258, "edge_source": "delaunay", "edge_set": "Delaunay1" }, "geometry": { "type": "LineString", "coordinates": [ [ 7.892303, 61.044991 ], [ 8.088684, 60.511343 ] ] } },
{ "type": "Feature", "properties": { "voltage_kv": 300.0, "from_node": 56, "to_node": 60, "length_km": 29.665336854949487, "edge_source": "delaunay", "edge_set": "Delaunay1" }, "geometry": { "type": "LineString", "coordinates": [ [ 7.892303, 61.044991 ], [ 8.311157, 60.873666 ] ] } },
{ "type": "Feature", "properties": { "voltage_kv": 300.0, "from_node": 56, "to_node": 70, "length_km": 91.268364385256703, "edge_source": "delaunay", "edge_set": "Delaunay1" }, "geometry": { "type": "LineString", "coordinates": [ [ 7.892303, 61.044991 ], [ 9.341125, 61.473546 ] ] } },
{ "type": "Feature", "properties": { "voltage_kv": 300.0, "from_node": 57, "to_node": 66, "length_km": 110.56139636164386, "edge_source": "delaunay", "edge_set": "Delaunay1" }, "geometry": { "type": "LineString", "coordinates": [ [ 7.901917, 59.457639 ], [ 8.782196, 58.575413 ] ] } },
{ "type": "Feature", "properties": { "voltage_kv": 300.0, "from_node": 57, "to_node": 67, "length_km": 55.16772739555482, "edge_source": "delaunay", "edge_set": "Delaunay1" }, "geometry": { "type": "LineString", "coordinates": [ [ 7.901917, 59.457639 ], [ 8.87146, 59.422728 ] ] } },
{ "type": "Feature", "properties": { "voltage_kv": 300.0, "from_node": 57, "to_node": 68, "length_km": 55.702751164742935, "edge_source": "delaunay", "edge_set": "Delaunay1" }, "geometry": { "type": "LineString", "coordinates": [ [ 7.901917, 59.457639 ], [ 8.87558, 59.525961 ] ] } },
{ "type": "Feature", "properties": { "voltage_kv": 300.0, "from_node": 58, "to_node": 60, "length_km": 42.176263172622129, "edge_source": "delaunay", "edge_set": "Delaunay1" }, "geometry": { "type": "LineString", "coordinates": [ [ 8.088684, 60.511343 ], [ 8.311157, 60.873666 ] ] } },
{ "type": "Feature", "properties": { "voltage_kv": 300.0, "from_node": 58, "to_node": 62, "length_km": 70.991513186703656, "edge_source": "delaunay", "edge_set": "Delaunay1" }, "geometry": { "type": "LineString", "coordinates": [ [ 8.088684, 60.511343 ], [ 8.524017, 59.912353 ] ] } },
{ "type": "Feature", "properties": { "voltage_kv": 300.0, "from_node": 58, "to_node": 63, "length_km": 45.922426689415445, "edge_source": "delaunay", "edge_set": "Delaunay1" }, "geometry": { "type": "LineString", "coordinates": [ [ 8.088684, 60.511343 ], [ 8.690186, 60.798714 ] ] } },
{ "type": "Feature", "properties": { "voltage_kv": 300.0, "from_node": 58, "to_node": 64, "length_km": 37.856836760102034, "edge_source": "delaunay", "edge_set": "Delaunay1" }, "geometry": { "type": "LineString", "coordinates": [ [ 8.088684, 60.511343 ], [ 8.75885, 60.591688 ] ] } },
{ "type": "Feature", "properties": { "voltage_kv": 300.0, "from_node": 59, "to_node": 66, "length_km": 54.217998387611502, "edge_source": "delaunay", "edge_set": "Delaunay1" }, "geometry": { "type": "LineString", "coordinates": [ [ 8.102417, 58.2445 ], [ 8.782196, 58.575413 ] ] } },
{ "type": "Feature", "properties": { "voltage_kv": 300.0, "from_node": 60, "to_node": 63, "length_km": 22.247835730059645, "edge_source": "delaunay", "edge_set": "Delaunay1" }, "geometry": { "type": "LineString", "coordinates": [ [ 8.311157, 60.873666 ], [ 8.690186, 60.798714 ] ] } },
{ "type": "Feature", "properties": { "voltage_kv": 300.0, "from_node": 60, "to_node": 70, "length_km": 86.852289277507396, "edge_source": "delaunay", "edge_set": "Delaunay1" }, "geometry": { "type": "LineString", "coordinates": [ [ 8.311157, 60.873666 ], [ 9.341125, 61.473546 ] ] } },
{ "type": "Feature", "properties": { "voltage_kv": 300.0, "from_node": 61, "to_node": 69, "length_km": 93.541863908413731, "edge_source": "delaunay", "edge_set": "Delaunay1" }, "geometry": { "type": "LineString", "coordinates": [ [ 8.480072, 62.679816 ], [ 9.063721, 61.885931 ] ] } },
{ "type": "Feature", "properties": { "voltage_kv": 300.0, "from_node": 61, "to_node": 75, "length_km": 98.932432614784204, "edge_source": "delaunay", "edge_set": "Delaunay1" }, "geometry": { "type": "LineString", "coordinates": [ [ 8.480072, 62.679816 ], [ 9.933014, 63.271947 ] ] } },
{ "type": "Feature", "properties": { "voltage_kv": 300.0, "from_node": 62, "to_node": 64, "length_km": 76.818960812052595, "edge_source": "delaunay", "edge_set": "Delaunay1" }, "geometry": { "type": "LineString", "coordinates": [ [ 8.524017, 59.912353 ], [ 8.75885, 60.591688 ] ] } },
{ "type": "Feature", "properties": { "voltage_kv": 300.0, "from_node": 62, "to_node": 65, "length_km": 13.228759867716334, "edge_source": "delaunay", "edge_set": "Delaunay1" }, "geometry": { "type": "LineString", "coordinates": [ [ 8.524017, 59.912353 ], [ 8.760223, 59.917172 ] ] } },
{ "type": "Feature", "properties": { "voltage_kv": 300.0, "from_node": 62, "to_node": 68, "length_km": 47.387897890888894, "edge_source": "delaunay", "edge_set": "Delaunay1" }, "geometry": { "type": "LineString", "coordinates": [ [ 8.524017, 59.912353 ], [ 8.87558, 59.525961 ] ] } },
{ "type": "Feature", "properties": { "voltage_kv": 300.0, "from_node": 63, "to_node": 64, "length_km": 23.376444158156147, "edge_source": "delaunay", "edge_set": "Delaunay1" }, "geometry": { "type": "LineString", "coordinates": [ [ 8.690186, 60.798714 ], [ 8.75885, 60.591688 ] ] } },
{ "type": "Feature", "properties": { "voltage_kv": 300.0, "from_node": 63, "to_node": 70, "length_km": 82.98833328071278, "edge_source": "delaunay", "edge_set": "Delaunay1" }, "geometry": { "type": "LineString", "coordinates": [ [ 8.690186, 60.798714 ], [ 9.341125, 61.473546 ] ] } },
{ "type": "Feature", "properties": { "voltage_kv": 300.0, "from_node": 63, "to_node": 80, "length_km": 102.78604624168597, "edge_source": "delaunay", "edge_set": "Delaunay1" }, "geometry": { "type": "LineString", "coordinates": [ [ 8.690186, 60.798714 ], [ 10.421906, 61.177019 ] ] } },
{ "type": "Feature", "properties": { "voltage_kv": 300.0, "from_node": 63, "to_node": 84, "length_km": 104.23625285460515, "edge_source": "delaunay", "edge_set": "Delaunay1" }, "geometry": { "type": "LineString", "coordinates": [ [ 8.690186, 60.798714 ], [ 10.604553, 60.818808 ] ] } },
{ "type": "Feature", "properties": { "voltage_kv": 300.0, "from_node": 64, "to_node": 65, "length_km": 75.171064556373182, "edge_source": "delaunay", "edge_set": "Delaunay1" }, "geometry": { "type": "LineString", "coordinates": [ [ 8.75885, 60.591688 ], [ 8.760223, 59.917172 ] ] } },
{ "type": "Feature", "properties": { "voltage_kv": 300.0, "from_node": 64, "to_node": 78, "length_km": 115.54741025880273, "edge_source": "delaunay", "edge_set": "Delaunay1" }, "geometry": { "type": "LineString", "coordinates": [ [ 8.75885, 60.591688 ], [ 10.288696, 59.88687 ] ] } },
{ "type": "Feature", "properties": { "voltage_kv": 300.0, "from_node": 64, "to_node": 84, "length_km": 103.92670858793832, "edge_source": "delaunay", "edge_set": "Delaunay1" }, "geometry": { "type": "LineString", "coordinates": [ [ 8.75885, 60.591688 ], [ 10.604553, 60.818808 ] ] } },
{ "type": "Feature", "properties": { "voltage_kv": 300.0, "from_node": 65, "to_node": 68, "length_km": 44.075374656066899, "edge_source": "delaunay", "edge_set": "Delaunay1" }, "geometry": { "type": "LineString", "coordinates": [ [ 8.760223, 59.917172 ], [ 8.87558, 59.525961 ] ] } },
{ "type": "Feature", "properties": { "voltage_kv": 300.0, "from_node": 65, "to_node": 74, "length_km": 68.802951144416951, "edge_source": "delaunay", "edge_set": "Delaunay1" }, "geometry": { "type": "LineString", "coordinates": [ [ 8.760223, 59.917172 ], [ 9.923401, 59.721792 ] ] } },
{ "type": "Feature", "properties": { "voltage_kv": 300.0, "from_node": 65, "to_node": 78, "length_km": 85.617119033491079, "edge_source": "delaunay", "edge_set": "Delaunay1" }, "geometry": { "type": "LineString", "coordinates": [ [ 8.760223, 59.917172 ], [ 10.288696, 59.88687 ] ] } },
{ "type": "Feature", "properties": { "voltage_kv": 300.0, "from_node": 66, "to_node": 67, "length_km": 94.550155744555823, "edge_source": "delaunay", "edge_set": "Delaunay1" }, "geometry": { "type": "LineString", "coordinates": [ [ 8.782196, 58.575413 ], [ 8.87146, 59.422728 ] ] } },
{ "type": "Feature", "properties": { "voltage_kv": 300.0, "from_node": 66, "to_node": 72, "length_km": 80.208082890725649, "edge_source": "delaunay", "edge_set": "Delaunay1" }, "geometry": { "type": "LineString", "coordinates": [ [ 8.782196, 58.575413 ], [ 9.61441, 59.151995 ] ] } },
{ "type": "Feature", "properties": { "voltage_kv": 300.0, "from_node": 67, "to_node": 68, "length_km": 11.505616451441345, "edge_source": "delaunay", "edge_set": "Delaunay1" }, "geometry": { "type": "LineString", "coordinates": [ [ 8.87146, 59.422728 ], [ 8.87558, 59.525961 ] ] } },
{ "type": "Feature", "properties": { "voltage_kv": 300.0, "from_node": 67, "to_node": 71, "length_km": 43.988137420289199, "edge_source": "delaunay", "edge_set": "Delaunay1" }, "geometry": { "type": "LineString", "coordinates": [ [ 8.87146, 59.422728 ], [ 9.593811, 59.282019 ] ] } },
{ "type": "Feature", "properties": { "voltage_kv": 300.0, "from_node": 67, "to_node": 72, "length_km": 51.996212833780888, "edge_source": "delaunay", "edge_set": "Delaunay1" }, "geometry": { "type": "LineString", "coordinates": [ [ 8.87146, 59.422728 ], [ 9.61441, 59.151995 ] ] } },
{ "type": "Feature", "properties": { "voltage_kv": 300.0, "from_node": 68, "to_node": 71, "length_km": 49.026892763454541, "edge_source": "delaunay", "edge_set": "Delaunay1" }, "geometry": { "type": "LineString", "coordinates": [ [ 8.87558, 59.525961 ], [ 9.593811, 59.282019 ] ] } },
{ "type": "Feature", "properties": { "voltage_kv": 300.0, "from_node": 68, "to_node": 74, "length_km": 63.035876922323666, "edge_source": "delaunay", "edge_set": "Delaunay1" }, "geometry": { "type": "LineString", "coordinates": [ [ 8.87558, 59.525961 ], [ 9.923401, 59.721792 ] ] } },
{ "type": "Feature", "properties": { "voltage_kv": 300.0, "from_node": 69, "to_node": 70, "length_km": 48.253917912876574, "edge_source": "delaunay", "edge_set": "Delaunay1" }, "geometry": { "type": "LineString", "coordinates": [ [ 9.063721, 61.885931 ], [ 9.341125, 61.473546 ] ] } },
{ "type": "Feature", "properties": { "voltage_kv": 300.0, "from_node": 69, "to_node": 73, "length_km": 52.454475871395196, "edge_source": "delaunay", "edge_set": "Delaunay1" }, "geometry": { "type": "LineString", "coordinates": [ [ 9.063721, 61.885931 ], [ 9.821777, 61.582225 ] ] } },
{ "type": "Feature", "properties": { "voltage_kv": 300.0, "from_node": 69, "to_node": 88, "length_km": 108.85274029017538, "edge_source": "delaunay", "edge_set": "Delaunay1" }, "geometry": { "type": "LineString", "coordinates": [ [ 9.063721, 61.885931 ], [ 11.12915, 61.837358 ] ] } },
{ "type": "Feature", "properties": { "voltage_kv": 300.0, "from_node": 70, "to_node": 73, "length_km": 28.299896709442976, "edge_source": "delaunay", "edge_set": "Delaunay1" }, "geometry": { "type": "LineString", "coordinates": [ [ 9.341125, 61.473546 ], [ 9.821777, 61.582225 ] ] } },
{ "type": "Feature", "properties": { "voltage_kv": 300.0, "from_node": 70, "to_node": 77, "length_km": 42.668082986973118, "edge_source": "delaunay", "edge_set": "Delaunay1" }, "geometry": { "type": "LineString", "coordinates": [ [ 9.341125, 61.473546 ], [ 10.134888, 61.525314 ] ] } },
{ "type": "Feature", "properties": { "voltage_kv": 300.0, "from_node": 70, "to_node": 80, "length_km": 66.65164072651018, "edge_source": "delaunay", "edge_set": "Delaunay1" }, "geometry": { "type": "LineString", "coordinates": [ [ 9.341125, 61.473546 ], [ 10.421906, 61.177019 ] ] } },
{ "type": "Feature", "properties": { "voltage_kv": 300.0, "from_node": 71, "to_node": 72, "length_km": 14.533996986316694, "edge_source": "delaunay", "edge_set": "Delaunay1" }, "geometry": { "type": "LineString", "coordinates": [ [ 9.593811, 59.282019 ], [ 9.61441, 59.151995 ] ] } },
{ "type": "Feature", "properties": { "voltage_kv": 300.0, "from_node": 71, "to_node": 74, "length_km": 52.433203610353061, "edge_source": "delaunay", "edge_set": "Delaunay1" }, "geometry": { "type": "LineString", "coordinates": [ [ 9.593811, 59.282019 ], [ 9.923401, 59.721792 ] ] } },
{ "type": "Feature", "properties": { "voltage_kv": 300.0, "from_node": 71, "to_node": 76, "length_km": 42.640434097689855, "edge_source": "delaunay", "edge_set": "Delaunay1" }, "geometry": { "type": "LineString", "coordinates": [ [ 9.593811, 59.282019 ], [ 10.122528, 59.553808 ] ] } },
{ "type": "Feature", "properties": { "voltage_kv": 300.0, "from_node": 71, "to_node": 79, "length_km": 46.048538637072284, "edge_source": "delaunay", "edge_set": "Delaunay1" }, "geometry": { "type": "LineString", "coordinates": [ [ 9.593811, 59.282019 ], [ 10.37796, 59.383584 ] ] } },
{ "type": "Feature", "properties": { "voltage_kv": 300.0, "from_node": 72, "to_node": 79, "length_km": 50.616352791330698, "edge_source": "delaunay", "edge_set": "Delaunay1" }, "geometry": { "type": "LineString", "coordinates": [ [ 9.61441, 59.151995 ], [ 10.37796, 59.383584 ] ] } },
{ "type": "Feature", "properties": { "voltage_kv": 300.0, "from_node": 72, "to_node": 90, "length_km": 91.334017024104753, "edge_source": "delaunay", "edge_set": "Delaunay1" }, "geometry": { "type": "LineString", "coordinates": [ [ 9.61441, 59.151995 ], [ 11.181335, 59.317776 ] ] } },
{ "type": "Feature", "properties": { "voltage_kv": 300.0, "from_node": 73, "to_node": 77, "length_km": 17.814326286874536, "edge_source": "delaunay", "edge_set": "Delaunay1" }, "geometry": { "type": "LineString", "coordinates": [ [ 9.821777, 61.582225 ], [ 10.134888, 61.525314 ] ] } },
{ "type": "Feature", "properties": { "voltage_kv": 300.0, "from_node": 73, "to_node": 88, "length_km": 74.772392649613622, "edge_source": "delaunay", "edge_set": "Delaunay1" }, "geometry": { "type": "LineString", "coordinates": [ [ 9.821777, 61.582225 ], [ 11.12915, 61.837358 ] ] } },
{ "type": "Feature", "properties": { "voltage_kv": 300.0, "from_node": 74, "to_node": 76, "length_km": 21.828097697046246, "edge_source": "delaunay", "edge_set": "Delaunay1" }, "geometry": { "type": "LineString", "coordinates": [ [ 9.923401, 59.721792 ], [ 10.122528, 59.553808 ] ] } },
{ "type": "Feature", "properties": { "voltage_kv": 300.0, "from_node": 74, "to_node": 78, "length_km": 27.545005456996218, "edge_source": "delaunay", "edge_set": "Delaunay1" }, "geometry": { "type": "LineString", "coordinates": [ [ 9.923401, 59.721792 ], [ 10.288696, 59.88687 ] ] } },
{ "type": "Feature", "properties": { "voltage_kv": 300.0, "from_node": 74, "to_node": 81, "length_km": 30.921035964643426, "edge_source": "delaunay", "edge_set": "Delaunay1" }, "geometry": { "type": "LineString", "coordinates": [ [ 9.923401, 59.721792 ], [ 10.434265, 59.620547 ] ] } },
{ "type": "Feature", "properties": { "voltage_kv": 300.0, "from_node": 75, "to_node": 82, "length_km": 29.196024777233546, "edge_source": "delaunay", "edge_set": "Delaunay1" }, "geometry": { "type": "LineString", "coordinates": [ [ 9.933014, 63.271947 ], [ 10.439758, 63.401361 ] ] } },
{ "type": "Feature", "properties": { "voltage_kv": 300.0, "from_node": 75, "to_node": 83, "length_km": 26.339838609871979, "edge_source": "delaunay", "edge_set": "Delaunay1" }, "geometry": { "type": "LineString", "coordinates": [ [ 9.933014, 63.271947 ], [ 10.457611, 63.276888 ] ] } },
{ "type": "Feature", "properties": { "voltage_kv": 300.0, "from_node": 76, "to_node": 79, "length_km": 23.861466167981515, "edge_source": "delaunay", "edge_set": "Delaunay1" }, "geometry": { "type": "LineString", "coordinates": [ [ 10.122528, 59.553808 ], [ 10.37796, 59.383584 ] ] } },
{ "type": "Feature", "properties": { "voltage_kv": 300.0, "from_node": 76, "to_node": 81, "length_km": 19.117217159160159, "edge_source": "delaunay", "edge_set": "Delaunay1" }, "geometry": { "type": "LineString", "coordinates": [ [ 10.122528, 59.553808 ], [ 10.434265, 59.620547 ] ] } },
{ "type": "Feature", "properties": { "voltage_kv": 300.0, "from_node": 77, "to_node": 80, "length_km": 41.742089456392826, "edge_source": "delaunay", "edge_set": "Delaunay1" }, "geometry": { "type": "LineString", "coordinates": [ [ 10.134888, 61.525314 ], [ 10.421906, 61.177019 ] ] } },
{ "type": "Feature", "properties": { "voltage_kv": 300.0, "from_node": 77, "to_node": 88, "length_km": 63.090256343650957, "edge_source": "delaunay", "edge_set": "Delaunay1" }, "geometry": { "type": "LineString", "coordinates": [ [ 10.134888, 61.525314 ], [ 11.12915, 61.837358 ] ] } },
{ "type": "Feature", "properties": { "voltage_kv": 300.0, "from_node": 78, "to_node": 81, "length_km": 30.779518407045934, "edge_source": "delaunay", "edge_set": "Delaunay1" }, "geometry": { "type": "LineString", "coordinates": [ [ 10.288696, 59.88687 ], [ 10.434265, 59.620547 ] ] } },
{ "type": "Feature", "properties": { "voltage_kv": 300.0, "from_node": 78, "to_node": 84, "length_km": 105.29204790403408, "edge_source": "delaunay", "edge_set": "Delaunay1" }, "geometry": { "type": "LineString", "coordinates": [ [ 10.288696, 59.88687 ], [ 10.604553, 60.818808 ] ] } },
{ "type": "Feature", "properties": { "voltage_kv": 300.0, "from_node": 78, "to_node": 86, "length_km": 31.816602437646647, "edge_source": "delaunay", "edge_set": "Delaunay1" }, "geometry": { "type": "LineString", "coordinates": [ [ 10.288696, 59.88687 ], [ 10.839386, 59.958448 ] ] } },
{ "type": "Feature", "properties": { "voltage_kv": 300.0, "from_node": 78, "to_node": 91, "length_km": 78.345015833639991, "edge_source": "delaunay", "edge_set": "Delaunay1" }, "geometry": { "type": "LineString", "coordinates": [ [ 10.288696, 59.88687 ], [ 11.288452, 60.382648 ] ] } },
{ "type": "Feature", "properties": { "voltage_kv": 300.0, "from_node": 79, "to_node": 81, "length_km": 26.591489049378943, "edge_source": "delaunay", "edge_set": "Delaunay1" }, "geometry": { "type": "LineString", "coordinates": [ [ 10.37796, 59.383584 ], [ 10.434265, 59.620547 ] ] } },
{ "type": "Feature", "properties": { "voltage_kv": 300.0, "from_node": 79, "to_node": 85, "length_km": 26.3556005104058, "edge_source": "delaunay", "edge_set": "Delaunay1" }, "geometry": { "type": "LineString", "coordinates": [ [ 10.37796, 59.383584 ], [ 10.770721, 59.509939 ] ] } },
{ "type": "Feature", "properties": { "voltage_kv": 300.0, "from_node": 79, "to_node": 90, "length_km": 46.288664144394652, "edge_source": "delaunay", "edge_set": "Delaunay1" }, "geometry": { "type": "LineString", "coordinates": [ [ 10.37796, 59.383584 ], [ 11.181335, 59.317776 ] ] } },
{ "type": "Feature", "properties": { "voltage_kv": 300.0, "from_node": 80, "to_node": 84, "length_km": 41.121624921424448, "edge_source": "delaunay", "edge_set": "Delaunay1" }, "geometry": { "type": "LineString", "coordinates": [ [ 10.421906, 61.177019 ], [ 10.604553, 60.818808 ] ] } },
{ "type": "Feature", "properties": { "voltage_kv": 300.0, "from_node": 80, "to_node": 88, "length_km": 82.661746155913292, "edge_source": "delaunay", "edge_set": "Delaunay1" }, "geometry": { "type": "LineString", "coordinates": [ [ 10.421906, 61.177019 ], [ 11.12915, 61.837358 ] ] } },
{ "type": "Feature", "properties": { "voltage_kv": 300.0, "from_node": 80, "to_node": 89, "length_km": 56.653176356058914, "edge_source": "delaunay", "edge_set": "Delaunay1" }, "geometry": { "type": "LineString", "coordinates": [ [ 10.421906, 61.177019 ], [ 11.160736, 60.816799 ] ] } },
{ "type": "Feature", "properties": { "voltage_kv": 300.0, "from_node": 81, "to_node": 85, "length_km": 22.663279374249736, "edge_source": "delaunay", "edge_set": "Delaunay1" }, "geometry": { "type": "LineString", "coordinates": [ [ 10.434265, 59.620547 ], [ 10.770721, 59.509939 ] ] } },
{ "type": "Feature", "properties": { "voltage_kv": 300.0, "from_node": 81, "to_node": 86, "length_km": 43.985872089391044, "edge_source": "delaunay", "edge_set": "Delaunay1" }, "geometry": { "type": "LineString", "coordinates": [ [ 10.434265, 59.620547 ], [ 10.839386, 59.958448 ] ] } },
{ "type": "Feature", "properties": { "voltage_kv": 300.0, "from_node": 82, "to_node": 83, "length_km": 13.903813995157375, "edge_source": "delaunay", "edge_set": "Delaunay1" }, "geometry": { "type": "LineString", "coordinates": [ [ 10.439758, 63.401361 ], [ 10.457611, 63.276888 ] ] } },
{ "type": "Feature", "properties": { "voltage_kv": 300.0, "from_node": 82, "to_node": 87, "length_km": 29.530984200485705, "edge_source": "delaunay", "edge_set": "Delaunay1" }, "geometry": { "type": "LineString", "coordinates": [ [ 10.439758, 63.401361 ], [ 11.017914, 63.45726 ] ] } },
{ "type": "Feature", "properties": { "voltage_kv": 300.0, "from_node": 82, "to_node": 92, "length_km": 66.369684312912938, "edge_source": "delaunay", "edge_set": "Delaunay1" }, "geometry": { "type": "LineString", "coordinates": [ [ 10.439758, 63.401361 ], [ 11.472473, 63.779452 ] ] } },
{ "type": "Feature", "properties": { "voltage_kv": 300.0, "from_node": 82, "to_node": 93, "length_km": 82.415912179427707, "edge_source": "delaunay", "edge_set": "Delaunay1" }, "geometry": { "type": "LineString", "coordinates": [ [ 10.439758, 63.401361 ], [ 11.477966, 63.979576 ] ] } },
{ "type": "Feature", "properties": { "voltage_kv": 300.0, "from_node": 82, "to_node": 94, "length_km": 130.84997256485309, "edge_source": "delaunay", "edge_set": "Delaunay1" }, "geometry": { "type": "LineString", "coordinates": [ [ 10.439758, 63.401361 ], [ 11.620789, 64.453849 ] ] } },
{ "type": "Feature", "properties": { "voltage_kv": 300.0, "from_node": 83, "to_node": 87, "length_km": 34.499648992621175, "edge_source": "delaunay", "edge_set": "Delaunay1" }, "geometry": { "type": "LineString", "coordinates": [ [ 10.457611, 63.276888 ], [ 11.017914, 63.45726 ] ] } },
{ "type": "Feature", "properties": { "voltage_kv": 300.0, "from_node": 84, "to_node": 89, "length_km": 30.267015661361501, "edge_source": "delaunay", "edge_set": "Delaunay1" }, "geometry": { "type": "LineString", "coordinates": [ [ 10.604553, 60.818808 ], [ 11.160736, 60.816799 ] ] } },
{ "type": "Feature", "properties": { "voltage_kv": 300.0, "from_node": 84, "to_node": 91, "length_km": 61.364446948213981, "edge_source": "delaunay", "edge_set": "Delaunay1" }, "geometry": { "type": "LineString", "coordinates": [ [ 10.604553, 60.818808 ], [ 11.288452, 60.382648 ] ] } },
{ "type": "Feature", "properties": { "voltage_kv": 300.0, "from_node": 85, "to_node": 86, "length_km": 50.11720448569141, "edge_source": "delaunay", "edge_set": "Delaunay1" }, "geometry": { "type": "LineString", "coordinates": [ [ 10.770721, 59.509939 ], [ 10.839386, 59.958448 ] ] } },
{ "type": "Feature", "properties": { "voltage_kv": 300.0, "from_node": 85, "to_node": 90, "length_km": 31.653489386224514, "edge_source": "delaunay", "edge_set": "Delaunay1" }, "geometry": { "type": "LineString", "coordinates": [ [ 10.770721, 59.509939 ], [ 11.181335, 59.317776 ] ] } },
{ "type": "Feature", "properties": { "voltage_kv": 300.0, "from_node": 86, "to_node": 90, "length_km": 73.93566485014432, "edge_source": "delaunay", "edge_set": "Delaunay1" }, "geometry": { "type": "LineString", "coordinates": [ [ 10.839386, 59.958448 ], [ 11.181335, 59.317776 ] ] } },
{ "type": "Feature", "properties": { "voltage_kv": 300.0, "from_node": 86, "to_node": 91, "length_km": 53.433990434418526, "edge_source": "delaunay", "edge_set": "Delaunay1" }, "geometry": { "type": "LineString", "coordinates": [ [ 10.839386, 59.958448 ], [ 11.288452, 60.382648 ] ] } },
{ "type": "Feature", "properties": { "voltage_kv": 300.0, "from_node": 87, "to_node": 92, "length_km": 42.40510199431445, "edge_source": "delaunay", "edge_set": "Delaunay1" }, "geometry": { "type": "LineString", "coordinates": [ [ 11.017914, 63.45726 ], [ 11.472473, 63.779452 ] ] } },
{ "type": "Feature", "properties": { "voltage_kv": 300.0, "from_node": 88, "to_node": 89, "length_km": 113.73886230886087, "edge_source": "delaunay", "edge_set": "Delaunay1" }, "geometry": { "type": "LineString", "coordinates": [ [ 11.12915, 61.837358 ], [ 11.160736, 60.816799 ] ] } },
{ "type": "Feature", "properties": { "voltage_kv": 300.0, "from_node": 89, "to_node": 91, "length_km": 48.877875883961678, "edge_source": "delaunay", "edge_set": "Delaunay1" }, "geometry": { "type": "LineString", "coordinates": [ [ 11.160736, 60.816799 ], [ 11.288452, 60.382648 ] ] } },
{ "type": "Feature", "properties": { "voltage_kv": 300.0, "from_node": 90, "to_node": 91, "length_km": 118.78962634469114, "edge_source": "delaunay", "edge_set": "Delaunay1" }, "geometry": { "type": "LineString", "coordinates": [ [ 11.181335, 59.317776 ], [ 11.288452, 60.382648 ] ] } },
{ "type": "Feature", "properties": { "voltage_kv": 300.0, "from_node": 92, "to_node": 93, "length_km": 22.310703741313052, "edge_source": "delaunay", "edge_set": "Delaunay1" }, "geometry": { "type": "LineString", "coordinates": [ [ 11.472473, 63.779452 ], [ 11.477966, 63.979576 ] ] } },
{ "type": "Feature", "properties": { "voltage_kv": 300.0, "from_node": 92, "to_node": 96, "length_km": 122.29579139962779, "edge_source": "delaunay", "edge_set": "Delaunay1" }, "geometry": { "type": "LineString", "coordinates": [ [ 11.472473, 63.779452 ], [ 12.800446, 64.712014 ] ] } },
{ "type": "Feature", "properties": { "voltage_kv": 300.0, "from_node": 93, "to_node": 94, "length_km": 53.325453538567906, "edge_source": "delaunay", "edge_set": "Delaunay1" }, "geometry": { "type": "LineString", "coordinates": [ [ 11.477966, 63.979576 ], [ 11.620789, 64.453849 ] ] } },
{ "type": "Feature", "properties": { "voltage_kv": 300.0, "from_node": 93, "to_node": 96, "length_km": 103.69009995763567, "edge_source": "delaunay", "edge_set": "Delaunay1" }, "geometry": { "type": "LineString", "coordinates": [ [ 11.477966, 63.979576 ], [ 12.800446, 64.712014 ] ] } },
{ "type": "Feature", "properties": { "voltage_kv": 300.0, "from_node": 94, "to_node": 95, "length_km": 99.380255811059314, "edge_source": "delaunay", "edge_set": "Delaunay1" }, "geometry": { "type": "LineString", "coordinates": [ [ 11.620789, 64.453849 ], [ 12.7565, 65.20262 ] ] } },
{ "type": "Feature", "properties": { "voltage_kv": 300.0, "from_node": 94, "to_node": 96, "length_km": 63.424517418671627, "edge_source": "delaunay", "edge_set": "Delaunay1" }, "geometry": { "type": "LineString", "coordinates": [ [ 11.620789, 64.453849 ], [ 12.800446, 64.712014 ] ] } },
{ "type": "Feature", "properties": { "voltage_kv": 300.0, "from_node": 95, "to_node": 96, "length_km": 54.741593725637472, "edge_source": "delaunay", "edge_set": "Delaunay1" }, "geometry": { "type": "LineString", "coordinates": [ [ 12.7565, 65.20262 ], [ 12.800446, 64.712014 ] ] } },
{ "type": "Feature", "properties": { "voltage_kv": 300.0, "from_node": 95, "to_node": 97, "length_km": 35.989458076242755, "edge_source": "delaunay", "edge_set": "Delaunay1" }, "geometry": { "type": "LineString", "coordinates": [ [ 12.7565, 65.20262 ], [ 13.099823, 64.914228 ] ] } },
{ "type": "Feature", "properties": { "voltage_kv": 300.0, "from_node": 95, "to_node": 98, "length_km": 75.333680422041525, "edge_source": "delaunay", "edge_set": "Delaunay1" }, "geometry": { "type": "LineString", "coordinates": [ [ 12.7565, 65.20262 ], [ 13.289337, 65.841024 ] ] } },
{ "type": "Feature", "properties": { "voltage_kv": 300.0, "from_node": 96, "to_node": 97, "length_km": 26.657841297756537, "edge_source": "delaunay", "edge_set": "Delaunay1" }, "geometry": { "type": "LineString", "coordinates": [ [ 12.800446, 64.712014 ], [ 13.099823, 64.914228 ] ] } },
{ "type": "Feature", "properties": { "voltage_kv": 300.0, "from_node": 97, "to_node": 98, "length_km": 103.72161178875125, "edge_source": "delaunay", "edge_set": "Delaunay1" }, "geometry": { "type": "LineString", "coordinates": [ [ 13.099823, 64.914228 ], [ 13.289337, 65.841024 ] ] } },
{ "type": "Feature", "properties": { "voltage_kv": 300.0, "from_node": 97, "to_node": 99, "length_km": 140.38735602113252, "edge_source": "delaunay", "edge_set": "Delaunay1" }, "geometry": { "type": "LineString", "coordinates": [ [ 13.099823, 64.914228 ], [ 13.763123, 66.142743 ] ] } },
{ "type": "Feature", "properties": { "voltage_kv": 300.0, "from_node": 98, "to_node": 99, "length_km": 39.942125745716375, "edge_source": "delaunay", "edge_set": "Delaunay1" }, "geometry": { "type": "LineString", "coordinates": [ [ 13.289337, 65.841024 ], [ 13.763123, 66.142743 ] ] } }
]
}
