{
"type": "FeatureCollection",
"name": "n490_132kv_delaunay1",
"crs": { "type": "name", "properties": { "name": "urn:ogc:def:crs:OGC:1.3:CRS84" } },
"features": [
{ "type": "Feature", "properties": { "voltage_kv": 132.0, "from_node": 0, "to_node": 1, "length_km": 38.879257539195216, "edge_source": "delaunay", "edge_set": "Delaunay1", "repair_iteration": null }, "geometry": { "type": "LineString", "coordinates": [ [ 5.218506, 61.732826 ], [ 5.748596, 61.49256 ] ] } },
{ "type": "Feature", "properties": { "voltage_kv": 132.0, "from_node": 0, "to_node": 2, "length_km": 72.688435985357387, "edge_source": "delaunay", "edge_set": "Delaunay1", "repair_iteration": null }, "geometry": { "type": "LineString", "coordinates": [ [ 5.218506, 61.732826 ], [ 6.093292, 61.233245 ] ] } },
{ "type": "Feature", "properties": { "voltage_kv": 132.0, "from_node": 1, "to_node": 2, "length_km": 34.312652862753779, "edge_source": "delaunay", "edge_set": "Delaunay1", "repair_iteration": null }, "geometry": { "type": "LineString", "coordinates": [ [ 5.748596, 61.49256 ], [ 6.093292, 61.233245 ] ] } },
{ "type": "Feature", "properties": { "voltage_kv": 132.0, "from_node": 1, "to_node": 4, "length_km": 90.931301130920602, "edge_source": "delaunay", "edge_set": "Delaunay1", "repair_iteration": null }, "geometry": { "type": "LineString", "coordinates": [ [ 5.748596, 61.49256 ], [ 7.338867, 61.206798 ] ] } },
{ "type": "Feature", "properties": { "voltage_kv": 132.0, "from_node": 2, "to_node": 4, "length_km": 67.04265282865488, "edge_source": "delaunay", "edge_set": "Delaunay1", "repair_iteration": null }, "geometry": { "type": "LineString", "coordinates": [ [ 6.093292, 61.233245 ], [ 7.338867, 61.206798 ] ] } },
{ "type": "Feature", "properties": { "voltage_kv": 132.0, "from_node": 5, "to_node": 6, "length_km": 36.70330683936718, "edge_source": "delaunay", "edge_set": "Delaunay1", "repair_iteration": null }, "geometry": { "type": "LineString", "coordinates": [ [ 9.602051, 63.058071 ], [ 9.930267, 62.764783 ] ] } },
{ "type": "Feature", "properties": { "voltage_kv": 132.0, "from_node": 5, "to_node": 7, "length_km": 29.095466966537103, "edge_source": "delaunay", "edge_set": "Delaunay1", "repair_iteration": null }, "geometry": { "type": "LineString", "coordinates": [ [ 9.602051, 63.058071 ], [ 9.933014, 63.271947 ] ] } },
{ "type": "Feature", "properties": { "voltage_kv": 132.0, "from_node": 6, "to_node": 7, "length_km": 56.533350068881148, "edge_source": "delaunay", "edge_set": "Delaunay1", "repair_iteration": null }, "geometry": { "type": "LineString", "coordinates": [ [ 9.930267, 62.764783 ], [ 9.933014, 63.271947 ] ] } },
{ "type": "Feature", "properties": { "voltage_kv": 132.0, "from_node": 6, "to_node": 8, "length_km": 13.508360531678658, "edge_source": "delaunay", "edge_set": "Delaunay1", "repair_iteration": null }, "geometry": { "type": "LineString", "coordinates": [ [ 9.930267, 62.764783 ], [ 10.122528, 62.681707 ] ] } },
{ "type": "Feature", "properties": { "voltage_kv": 132.0, "from_node": 7, "to_node": 8, "length_km": 66.490946721543409, "edge_source": "delaunay", "edge_set": "Delaunay1", "repair_iteration": null }, "geometry": { "type": "LineString", "coordinates": [ [ 9.933014, 63.271947 ], [ 10.122528, 62.681707 ] ] } },
{ "type": "Feature", "properties": { "voltage_kv": 132.0, "from_node": 7, "to_node": 9, "length_km": 73.672140136930395, "edge_source": "delaunay", "edge_set": "Delaunay1", "repair_iteration": null }, "geometry": { "type": "LineString", "coordinates": [ [ 9.933014, 63.271947 ], [ 10.266724, 62.628719 ] ] } },
{ "type": "Feature", "properties": { "voltage_kv": 132.0, "from_node": 8, "to_node": 9, "length_km": 9.4626342136910822, "edge_source": "delaunay", "edge_set": "Delaunay1", "repair_iteration": null }, "geometry": { "type": "LineString", "coordinates": [ [ 10.122528, 62.681707 ], [ 10.266724, 62.628719 ] ] } },
{ "type": "Feature", "properties": { "voltage_kv": 132.0, "from_node": 9, "to_node": 11, "length_km": 98.942537957331439, "edge_source": "delaunay", "edge_set": "Delaunay1", "repair_iteration": null }, "geometry": { "type": "LineString", "coordinates": [ [ 10.266724, 62.628719 ], [ 11.12915, 61.837358 ] ] } },
{ "type": "Feature", "properties": { "voltage_kv": 132.0, "from_node": 10, "to_node": 13, "length_km": 50.958386838847865, "edge_source": "delaunay", "edge_set": "Delaunay1", "repair_iteration": null }, "geometry": { "type": "LineString", "coordinates": [ [ 11.089325, 55.66132 ], [ 11.295319, 55.21884 ] ] } },
{ "type": "Feature", "properties": { "voltage_kv": 132.0, "from_node": 10, "to_node": 14, "length_km": 28.166420873259181, "edge_source": "delaunay", "edge_set": "Delaunay1", "repair_iteration": null }, "geometry": { "type": "LineString", "coordinates": [ [ 11.089325, 55.66132 ], [ 11.348877, 55.455499 ] ] } },
{ "type": "Feature", "properties": { "voltage_kv": 132.0, "from_node": 10, "to_node": 18, "length_km": 29.845629123232619, "edge_source": "delaunay", "edge_set": "Delaunay1", "repair_iteration": null }, "geometry": { "type": "LineString", "coordinates": [ [ 11.089325, 55.66132 ], [ 11.550751, 55.724017 ] ] } },
{ "type": "Feature", "properties": { "voltage_kv": 132.0, "from_node": 10, "to_node": 19, "length_km": 41.527013012419403, "edge_source": "delaunay", "edge_set": "Delaunay1", "repair_iteration": null }, "geometry": { "type": "LineString", "coordinates": [ [ 11.089325, 55.66132 ], [ 11.641388, 55.866835 ] ] } },
{ "type": "Feature", "properties": { "voltage_kv": 132.0, "from_node": 12, "to_node": 17, "length_km": 26.19308537621632, "edge_source": "delaunay", "edge_set": "Delaunay1", "repair_iteration": null }, "geometry": { "type": "LineString", "coordinates": [ [ 11.190948, 54.867915 ], [ 11.504059, 54.717482 ] ] } },
{ "type": "Feature", "properties": { "voltage_kv": 132.0, "from_node": 12, "to_node": 22, "length_km": 34.962265087875686, "edge_source": "delaunay", "edge_set": "Delaunay1", "repair_iteration": null }, "geometry": { "type": "LineString", "coordinates": [ [ 11.190948, 54.867915 ], [ 11.712799, 54.779306 ] ] } },
{ "type": "Feature", "properties": { "voltage_kv": 132.0, "from_node": 12, "to_node": 27, "length_km": 50.372269206060011, "edge_source": "delaunay", "edge_set": "Delaunay1", "repair_iteration": null }, "geometry": { "type": "LineString", "coordinates": [ [ 11.190948, 54.867915 ], [ 11.797943, 55.15612 ] ] } },
{ "type": "Feature", "properties": { "voltage_kv": 132.0, "from_node": 12, "to_node": 29, "length_km": 42.929327391935225, "edge_source": "delaunay", "edge_set": "Delaunay1", "repair_iteration": null }, "geometry": { "type": "LineString", "coordinates": [ [ 11.190948, 54.867915 ], [ 11.851501, 54.929509 ] ] } },
{ "type": "Feature", "properties": { "voltage_kv": 132.0, "from_node": 13, "to_node": 14, "length_km": 26.565632333594841, "edge_source": "delaunay", "edge_set": "Delaunay1", "repair_iteration": null }, "geometry": { "type": "LineString", "coordinates": [ [ 11.295319, 55.21884 ], [ 11.348877, 55.455499 ] ] } },
{ "type": "Feature", "properties": { "voltage_kv": 132.0, "from_node": 13, "to_node": 15, "length_km": 8.2097095075150808, "edge_source": "delaunay", "edge_set": "Delaunay1", "repair_iteration": null }, "geometry": { "type": "LineString", "coordinates": [ [ 11.295319, 55.21884 ], [ 11.416168, 55.244684 ] ] } },
{ "type": "Feature", "properties": { "voltage_kv": 132.0, "from_node": 13, "to_node": 27, "length_km": 32.767667307791591, "edge_source": "delaunay", "edge_set": "Delaunay1", "repair_iteration": null }, "geometry": { "type": "LineString", "coordinates": [ [ 11.295319, 55.21884 ], [ 11.797943, 55.15612 ] ] } },
{ "type": "Feature", "properties": { "voltage_kv": 132.0, "from_node": 14, "to_node": 15, "length_km": 23.855199764982, "edge_source": "delaunay", "edge_set": "Delaunay1", "repair_iteration": null }, "geometry": { "type": "LineString", "coordinates": [ [ 11.348877, 55.455499 ], [ 11.416168, 55.244684 ] ] } },
{ "type": "Feature", "properties": { "voltage_kv": 132.0, "from_node": 14, "to_node": 18, "length_km": 32.492414314613292, "edge_source": "delaunay", "edge_set": "Delaunay1", "repair_iteration": null }, "geometry": { "type": "LineString", "coordinates": [ [ 11.348877, 55.455499 ], [ 11.550751, 55.724017 ] ] } },
{ "type": "Feature", "properties": { "voltage_kv": 132.0, "from_node": 14, "to_node": 21, "length_km": 22.772238015386211, "edge_source": "delaunay", "edge_set": "Delaunay1", "repair_iteration": null }, "geometry": { "type": "LineString", "coordinates": [ [ 11.348877, 55.455499 ], [ 11.670227, 55.548058 ] ] } },
{ "type": "Feature", "properties": { "voltage_kv": 132.0, "from_node": 14, "to_node": 23, "length_km": 27.766887332551434, "edge_source": "delaunay", "edge_set": "Delaunay1", "repair_iteration": null }, "geometry": { "type": "LineString", "coordinates": [ [ 11.348877, 55.455499 ], [ 11.715546, 55.318987 ] ] } },
{ "type": "Feature", "properties": { "voltage_kv": 132.0, "from_node": 14, "to_node": 24, "length_km": 25.37891841593413, "edge_source": "delaunay", "edge_set": "Delaunay1", "repair_iteration": null }, "geometry": { "type": "LineString", "coordinates": [ [ 11.348877, 55.455499 ], [ 11.727905, 55.381451 ] ] } },
{ "type": "Feature", "properties": { "voltage_kv": 132.0, "from_node": 15, "to_node": 23, "length_km": 20.744722740474565, "edge_source": "delaunay", "edge_set": "Delaunay1", "repair_iteration": null }, "geometry": { "type": "LineString", "coordinates": [ [ 11.416168, 55.244684 ], [ 11.715546, 55.318987 ] ] } },
{ "type": "Feature", "properties": { "voltage_kv": 132.0, "from_node": 15, "to_node": 25, "length_km": 22.116066917728553, "edge_source": "delaunay", "edge_set": "Delaunay1", "repair_iteration": null }, "geometry": { "type": "LineString", "coordinates": [ [ 11.416168, 55.244684 ], [ 11.762238, 55.22589 ] ] } },
{ "type": "Feature", "properties": { "voltage_kv": 132.0, "from_node": 15, "to_node": 27, "length_km": 26.233054529978254, "edge_source": "delaunay", "edge_set": "Delaunay1", "repair_iteration": null }, "geometry": { "type": "LineString", "coordinates": [ [ 11.416168, 55.244684 ], [ 11.797943, 55.15612 ] ] } },
{ "type": "Feature", "properties": { "voltage_kv": 132.0, "from_node": 17, "to_node": 22, "length_km": 15.101176275570243, "edge_source": "delaunay", "edge_set": "Delaunay1", "repair_iteration": null }, "geometry": { "type": "LineString", "coordinates": [ [ 11.504059, 54.717482 ], [ 11.712799, 54.779306 ] ] } },
{ "type": "Feature", "properties": { "voltage_kv": 132.0, "from_node": 18, "to_node": 19, "length_km": 16.886934514001307, "edge_source": "delaunay", "edge_set": "Delaunay1", "repair_iteration": null }, "geometry": { "type": "LineString", "coordinates": [ [ 11.550751, 55.724017 ], [ 11.641388, 55.866835 ] ] } },
{ "type": "Feature", "properties": { "voltage_kv": 132.0, "from_node": 18, "to_node": 21, "length_km": 20.985938839185653, "edge_source": "delaunay", "edge_set": "Delaunay1", "repair_iteration": null }, "geometry": { "type": "LineString", "coordinates": [ [ 11.550751, 55.724017 ], [ 11.670227, 55.548058 ] ] } },
{ "type": "Feature", "properties": { "voltage_kv": 132.0, "from_node": 18, "to_node": 30, "length_km": 21.850881691696799, "edge_source": "delaunay", "edge_set": "Delaunay1", "repair_iteration": null }, "geometry": { "type": "LineString", "coordinates": [ [ 11.550751, 55.724017 ], [ 11.877594, 55.657447 ] ] } },
{ "type": "Feature", "properties": { "voltage_kv": 132.0, "from_node": 18, "to_node": 31, "length_km": 23.426844280972574, "edge_source": "delaunay", "edge_set": "Delaunay1", "repair_iteration": null }, "geometry": { "type": "LineString", "coordinates": [ [ 11.550751, 55.724017 ], [ 11.885834, 55.816715 ] ] } },
{ "type": "Feature", "properties": { "voltage_kv": 132.0, "from_node": 19, "to_node": 31, "length_km": 16.299207671204137, "edge_source": "delaunay", "edge_set": "Delaunay1", "repair_iteration": null }, "geometry": { "type": "LineString", "coordinates": [ [ 11.641388, 55.866835 ], [ 11.885834, 55.816715 ] ] } },
{ "type": "Feature", "properties": { "voltage_kv": 132.0, "from_node": 19, "to_node": 42, "length_km": 28.640050537656045, "edge_source": "delaunay", "edge_set": "Delaunay1", "repair_iteration": null }, "geometry": { "type": "LineString", "coordinates": [ [ 11.641388, 55.866835 ], [ 12.061615, 55.969187 ] ] } },
{ "type": "Feature", "properties": { "voltage_kv": 132.0, "from_node": 21, "to_node": 24, "length_km": 18.9043330514444, "edge_source": "delaunay", "edge_set": "Delaunay1", "repair_iteration": null }, "geometry": { "type": "LineString", "coordinates": [ [ 11.670227, 55.548058 ], [ 11.727905, 55.381451 ] ] } },
{ "type": "Feature", "properties": { "voltage_kv": 132.0, "from_node": 21, "to_node": 26, "length_km": 14.046358039624915, "edge_source": "delaunay", "edge_set": "Delaunay1", "repair_iteration": null }, "geometry": { "type": "LineString", "coordinates": [ [ 11.670227, 55.548058 ], [ 11.786957, 55.4407 ] ] } },
{ "type": "Feature", "properties": { "voltage_kv": 132.0, "from_node": 21, "to_node": 30, "length_km": 17.865425557230758, "edge_source": "delaunay", "edge_set": "Delaunay1", "repair_iteration": null }, "geometry": { "type": "LineString", "coordinates": [ [ 11.670227, 55.548058 ], [ 11.877594, 55.657447 ] ] } },
{ "type": "Feature", "properties": { "voltage_kv": 132.0, "from_node": 21, "to_node": 37, "length_km": 17.648029291808349, "edge_source": "delaunay", "edge_set": "Delaunay1", "repair_iteration": null }, "geometry": { "type": "LineString", "coordinates": [ [ 11.670227, 55.548058 ], [ 11.949005, 55.560486 ] ] } },
{ "type": "Feature", "properties": { "voltage_kv": 132.0, "from_node": 22, "to_node": 29, "length_km": 18.946011651187465, "edge_source": "delaunay", "edge_set": "Delaunay1", "repair_iteration": null }, "geometry": { "type": "LineString", "coordinates": [ [ 11.712799, 54.779306 ], [ 11.851501, 54.929509 ] ] } },
{ "type": "Feature", "properties": { "voltage_kv": 132.0, "from_node": 22, "to_node": 34, "length_km": 16.09959684149845, "edge_source": "delaunay", "edge_set": "Delaunay1", "repair_iteration": null }, "geometry": { "type": "LineString", "coordinates": [ [ 11.712799, 54.779306 ], [ 11.921539, 54.859221 ] ] } },
{ "type": "Feature", "properties": { "voltage_kv": 132.0, "from_node": 22, "to_node": 39, "length_km": 16.463861678124161, "edge_source": "delaunay", "edge_set": "Delaunay1", "repair_iteration": null }, "geometry": { "type": "LineString", "coordinates": [ [ 11.712799, 54.779306 ], [ 11.965485, 54.756331 ] ] } },
{ "type": "Feature", "properties": { "voltage_kv": 132.0, "from_node": 23, "to_node": 24, "length_km": 6.9982706522649138, "edge_source": "delaunay", "edge_set": "Delaunay1", "repair_iteration": null }, "geometry": { "type": "LineString", "coordinates": [ [ 11.715546, 55.318987 ], [ 11.727905, 55.381451 ] ] } },
{ "type": "Feature", "properties": { "voltage_kv": 132.0, "from_node": 23, "to_node": 25, "length_km": 10.781038666763065, "edge_source": "delaunay", "edge_set": "Delaunay1", "repair_iteration": null }, "geometry": { "type": "LineString", "coordinates": [ [ 11.715546, 55.318987 ], [ 11.762238, 55.22589 ] ] } },
{ "type": "Feature", "properties": { "voltage_kv": 132.0, "from_node": 23, "to_node": 28, "length_km": 11.011299752271956, "edge_source": "delaunay", "edge_set": "Delaunay1", "repair_iteration": null }, "geometry": { "type": "LineString", "coordinates": [ [ 11.715546, 55.318987 ], [ 11.8480685, 55.255251001923504 ] ] } },
{ "type": "Feature", "properties": { "voltage_kv": 132.0, "from_node": 23, "to_node": 32, "length_km": 12.098579339027983, "edge_source": "delaunay", "edge_set": "Delaunay1", "repair_iteration": null }, "geometry": { "type": "LineString", "coordinates": [ [ 11.715546, 55.318987 ], [ 11.90094, 55.293974 ] ] } },
{ "type": "Feature", "properties": { "voltage_kv": 132.0, "from_node": 24, "to_node": 26, "length_km": 7.5829987873788651, "edge_source": "delaunay", "edge_set": "Delaunay1", "repair_iteration": null }, "geometry": { "type": "LineString", "coordinates": [ [ 11.727905, 55.381451 ], [ 11.786957, 55.4407 ] ] } },
{ "type": "Feature", "properties": { "voltage_kv": 132.0, "from_node": 24, "to_node": 32, "length_km": 14.676951102743406, "edge_source": "delaunay", "edge_set": "Delaunay1", "repair_iteration": null }, "geometry": { "type": "LineString", "coordinates": [ [ 11.727905, 55.381451 ], [ 11.90094, 55.293974 ] ] } },
{ "type": "Feature", "properties": { "voltage_kv": 132.0, "from_node": 25, "to_node": 27, "length_km": 8.0934713261885243, "edge_source": "delaunay", "edge_set": "Delaunay1", "repair_iteration": null }, "geometry": { "type": "LineString", "coordinates": [ [ 11.762238, 55.22589 ], [ 11.797943, 55.15612 ] ] } },
{ "type": "Feature", "properties": { "voltage_kv": 132.0, "from_node": 25, "to_node": 28, "length_km": 6.3635364897609996, "edge_source": "delaunay", "edge_set": "Delaunay1", "repair_iteration": null }, "geometry": { "type": "LineString", "coordinates": [ [ 11.762238, 55.22589 ], [ 11.8480685, 55.255251001923504 ] ] } },
{ "type": "Feature", "properties": { "voltage_kv": 132.0, "from_node": 26, "to_node": 32, "length_km": 17.862881934052144, "edge_source": "delaunay", "edge_set": "Delaunay1", "repair_iteration": null }, "geometry": { "type": "LineString", "coordinates": [ [ 11.786957, 55.4407 ], [ 11.90094, 55.293974 ] ] } },
{ "type": "Feature", "properties": { "voltage_kv": 132.0, "from_node": 26, "to_node": 37, "length_km": 16.814684117286003, "edge_source": "delaunay", "edge_set": "Delaunay1", "repair_iteration": null }, "geometry": { "type": "LineString", "coordinates": [ [ 11.786957, 55.4407 ], [ 11.949005, 55.560486 ] ] } },
{ "type": "Feature", "properties": { "voltage_kv": 132.0, "from_node": 26, "to_node": 38, "length_km": 11.050270662435594, "edge_source": "delaunay", "edge_set": "Delaunay1", "repair_iteration": null }, "geometry": { "type": "LineString", "coordinates": [ [ 11.786957, 55.4407 ], [ 11.961365, 55.445374 ] ] } },
{ "type": "Feature", "properties": { "voltage_kv": 132.0, "from_node": 26, "to_node": 40, "length_km": 14.365668871731414, "edge_source": "delaunay", "edge_set": "Delaunay1", "repair_iteration": null }, "geometry": { "type": "LineString", "coordinates": [ [ 11.786957, 55.4407 ], [ 11.990204, 55.498305 ] ] } },
{ "type": "Feature", "properties": { "voltage_kv": 132.0, "from_node": 27, "to_node": 28, "length_km": 11.488365748144311, "edge_source": "delaunay", "edge_set": "Delaunay1", "repair_iteration": null }, "geometry": { "type": "LineString", "coordinates": [ [ 11.797943, 55.15612 ], [ 11.8480685, 55.255251001923504 ] ] } },
{ "type": "Feature", "properties": { "voltage_kv": 132.0, "from_node": 27, "to_node": 29, "length_km": 25.459077337829868, "edge_source": "delaunay", "edge_set": "Delaunay1", "repair_iteration": null }, "geometry": { "type": "LineString", "coordinates": [ [ 11.797943, 55.15612 ], [ 11.851501, 54.929509 ] ] } },
{ "type": "Feature", "properties": { "voltage_kv": 132.0, "from_node": 27, "to_node": 33, "length_km": 19.388175342892048, "edge_source": "delaunay", "edge_set": "Delaunay1", "repair_iteration": null }, "geometry": { "type": "LineString", "coordinates": [ [ 11.797943, 55.15612 ], [ 11.902313, 54.992585 ] ] } },
{ "type": "Feature", "properties": { "voltage_kv": 132.0, "from_node": 27, "to_node": 35, "length_km": 9.1406066010591775, "edge_source": "delaunay", "edge_set": "Delaunay1", "repair_iteration": null }, "geometry": { "type": "LineString", "coordinates": [ [ 11.797943, 55.15612 ], [ 11.932526, 55.127864 ] ] } },
{ "type": "Feature", "properties": { "voltage_kv": 132.0, "from_node": 27, "to_node": 36, "length_km": 11.290212035987953, "edge_source": "delaunay", "edge_set": "Delaunay1", "repair_iteration": null }, "geometry": { "type": "LineString", "coordinates": [ [ 11.797943, 55.15612 ], [ 11.933899, 55.22119 ] ] } },
{ "type": "Feature", "properties": { "voltage_kv": 132.0, "from_node": 28, "to_node": 32, "length_km": 5.4660374072011493, "edge_source": "delaunay", "edge_set": "Delaunay1", "repair_iteration": null }, "geometry": { "type": "LineString", "coordinates": [ [ 11.8480685, 55.255251001923504 ], [ 11.90094, 55.293974 ] ] } },
{ "type": "Feature", "properties": { "voltage_kv": 132.0, "from_node": 28, "to_node": 36, "length_km": 6.6477863991020296, "edge_source": "delaunay", "edge_set": "Delaunay1", "repair_iteration": null }, "geometry": { "type": "LineString", "coordinates": [ [ 11.8480685, 55.255251001923504 ], [ 11.933899, 55.22119 ] ] } },
{ "type": "Feature", "properties": { "voltage_kv": 132.0, "from_node": 29, "to_node": 33, "length_km": 7.7396489377349988, "edge_source": "delaunay", "edge_set": "Delaunay1", "repair_iteration": null }, "geometry": { "type": "LineString", "coordinates": [ [ 11.851501, 54.929509 ], [ 11.902313, 54.992585 ] ] } },
{ "type": "Feature", "properties": { "voltage_kv": 132.0, "from_node": 29, "to_node": 34, "length_km": 9.023401887695476, "edge_source": "delaunay", "edge_set": "Delaunay1", "repair_iteration": null }, "geometry": { "type": "LineString", "coordinates": [ [ 11.851501, 54.929509 ], [ 11.921539, 54.859221 ] ] } },
{ "type": "Feature", "properties": { "voltage_kv": 132.0, "from_node": 30, "to_node": 31, "length_km": 17.740371063820927, "edge_source": "delaunay", "edge_set": "Delaunay1", "repair_iteration": null }, "geometry": { "type": "LineString", "coordinates": [ [ 11.877594, 55.657447 ], [ 11.885834, 55.816715 ] ] } },
{ "type": "Feature", "properties": { "voltage_kv": 132.0, "from_node": 30, "to_node": 37, "length_km": 11.695936538334713, "edge_source": "delaunay", "edge_set": "Delaunay1", "repair_iteration": null }, "geometry": { "type": "LineString", "coordinates": [ [ 11.877594, 55.657447 ], [ 11.949005, 55.560486 ] ] } },
{ "type": "Feature", "properties": { "voltage_kv": 132.0, "from_node": 30, "to_node": 43, "length_km": 15.397186113270275, "edge_source": "delaunay", "edge_set": "Delaunay1", "repair_iteration": null }, "geometry": { "type": "LineString", "coordinates": [ [ 11.877594, 55.657447 ], [ 12.108307, 55.611711 ] ] } },
{ "type": "Feature", "properties": { "voltage_kv": 132.0, "from_node": 30, "to_node": 44, "length_km": 19.610772694054553, "edge_source": "delaunay", "edge_set": "Delaunay1", "repair_iteration": null }, "geometry": { "type": "LineString", "coordinates": [ [ 11.877594, 55.657447 ], [ 12.154999, 55.737935 ] ] } },
{ "type": "Feature", "properties": { "voltage_kv": 132.0, "from_node": 31, "to_node": 42, "length_km": 20.22781417298679, "edge_source": "delaunay", "edge_set": "Delaunay1", "repair_iteration": null }, "geometry": { "type": "LineString", "coordinates": [ [ 11.885834, 55.816715 ], [ 12.061615, 55.969187 ] ] } },
{ "type": "Feature", "properties": { "voltage_kv": 132.0, "from_node": 31, "to_node": 44, "length_km": 19.03261671568649, "edge_source": "delaunay", "edge_set": "Delaunay1", "repair_iteration": null }, "geometry": { "type": "LineString", "coordinates": [ [ 11.885834, 55.816715 ], [ 12.154999, 55.737935 ] ] } },
{ "type": "Feature", "properties": { "voltage_kv": 132.0, "from_node": 31, "to_node": 47, "length_km": 21.873954285321496, "edge_source": "delaunay", "edge_set": "Delaunay1", "repair_iteration": null }, "geometry": { "type": "LineString", "coordinates": [ [ 11.885834, 55.816715 ], [ 12.23465, 55.822116 ] ] } },
{ "type": "Feature", "properties": { "voltage_kv": 132.0, "from_node": 32, "to_node": 36, "length_km": 8.3697331166319948, "edge_source": "delaunay", "edge_set": "Delaunay1", "repair_iteration": null }, "geometry": { "type": "LineString", "coordinates": [ [ 11.90094, 55.293974 ], [ 11.933899, 55.22119 ] ] } },
{ "type": "Feature", "properties": { "voltage_kv": 132.0, "from_node": 32, "to_node": 38, "length_km": 17.285777097612939, "edge_source": "delaunay", "edge_set": "Delaunay1", "repair_iteration": null }, "geometry": { "type": "LineString", "coordinates": [ [ 11.90094, 55.293974 ], [ 11.961365, 55.445374 ] ] } },
{ "type": "Feature", "properties": { "voltage_kv": 132.0, "from_node": 32, "to_node": 41, "length_km": 10.093837651420053, "edge_source": "delaunay", "edge_set": "Delaunay1", "repair_iteration": null }, "geometry": { "type": "LineString", "coordinates": [ [ 11.90094, 55.293974 ], [ 12.024536, 55.351012 ] ] } },
{ "type": "Feature", "properties": { "voltage_kv": 132.0, "from_node": 33, "to_node": 34, "length_km": 14.897814968336974, "edge_source": "delaunay", "edge_set": "Delaunay1", "repair_iteration": null }, "geometry": { "type": "LineString", "coordinates": [ [ 11.902313, 54.992585 ], [ 11.921539, 54.859221 ] ] } },
{ "type": "Feature", "properties": { "voltage_kv": 132.0, "from_node": 33, "to_node": 35, "length_km": 15.18349729686461, "edge_source": "delaunay", "edge_set": "Delaunay1", "repair_iteration": null }, "geometry": { "type": "LineString", "coordinates": [ [ 11.902313, 54.992585 ], [ 11.932526, 55.127864 ] ] } },
{ "type": "Feature", "properties": { "voltage_kv": 132.0, "from_node": 34, "to_node": 35, "length_km": 29.915280032580981, "edge_source": "delaunay", "edge_set": "Delaunay1", "repair_iteration": null }, "geometry": { "type": "LineString", "coordinates": [ [ 11.921539, 54.859221 ], [ 11.932526, 55.127864 ] ] } },
{ "type": "Feature", "properties": { "voltage_kv": 132.0, "from_node": 34, "to_node": 39, "length_km": 11.797440499538979, "edge_source": "delaunay", "edge_set": "Delaunay1", "repair_iteration": null }, "geometry": { "type": "LineString", "coordinates": [ [ 11.921539, 54.859221 ], [ 11.965485, 54.756331 ] ] } },
{ "type": "Feature", "properties": { "voltage_kv": 132.0, "from_node": 35, "to_node": 36, "length_km": 10.390313359641848, "edge_source": "delaunay", "edge_set": "Delaunay1", "repair_iteration": null }, "geometry": { "type": "LineString", "coordinates": [ [ 11.932526, 55.127864 ], [ 11.933899, 55.22119 ] ] } },
{ "type": "Feature", "properties": { "voltage_kv": 132.0, "from_node": 35, "to_node": 39, "length_km": 41.414977127703295, "edge_source": "delaunay", "edge_set": "Delaunay1", "repair_iteration": null }, "geometry": { "type": "LineString", "coordinates": [ [ 11.932526, 55.127864 ], [ 11.965485, 54.756331 ] ] } },
{ "type": "Feature", "properties": { "voltage_kv": 132.0, "from_node": 35, "to_node": 41, "length_km": 25.523503306841263, "edge_source": "delaunay", "edge_set": "Delaunay1", "repair_iteration": null }, "geometry": { "type": "LineString", "coordinates": [ [ 11.932526, 55.127864 ], [ 12.024536, 55.351012 ] ] } },
{ "type": "Feature", "properties": { "voltage_kv": 132.0, "from_node": 35, "to_node": 60, "length_km": 72.38178792315253, "edge_source": "delaunay", "edge_set": "Delaunay1", "repair_iteration": null }, "geometry": { "type": "LineString", "coordinates": [ [ 11.932526, 55.127864 ], [ 12.583466, 55.662095 ] ] } },
{ "type": "Feature", "properties": { "voltage_kv": 132.0, "from_node": 36, "to_node": 41, "length_km": 15.558456331623747, "edge_source": "delaunay", "edge_set": "Delaunay1", "repair_iteration": null }, "geometry": { "type": "LineString", "coordinates": [ [ 11.933899, 55.22119 ], [ 12.024536, 55.351012 ] ] } },
{ "type": "Feature", "properties": { "voltage_kv": 132.0, "from_node": 37, "to_node": 40, "length_km": 7.3957429968405917, "edge_source": "delaunay", "edge_set": "Delaunay1", "repair_iteration": null }, "geometry": { "type": "LineString", "coordinates": [ [ 11.949005, 55.560486 ], [ 11.990204, 55.498305 ] ] } },
{ "type": "Feature", "properties": { "voltage_kv": 132.0, "from_node": 37, "to_node": 43, "length_km": 11.551658440915441, "edge_source": "delaunay", "edge_set": "Delaunay1", "repair_iteration": null }, "geometry": { "type": "LineString", "coordinates": [ [ 11.949005, 55.560486 ], [ 12.108307, 55.611711 ] ] } },
{ "type": "Feature", "properties": { "voltage_kv": 132.0, "from_node": 38, "to_node": 40, "length_km": 6.1688698586967012, "edge_source": "delaunay", "edge_set": "Delaunay1", "repair_iteration": null }, "geometry": { "type": "LineString", "coordinates": [ [ 11.961365, 55.445374 ], [ 11.990204, 55.498305 ] ] } },
{ "type": "Feature", "properties": { "voltage_kv": 132.0, "from_node": 38, "to_node": 41, "length_km": 11.242345794053122, "edge_source": "delaunay", "edge_set": "Delaunay1", "repair_iteration": null }, "geometry": { "type": "LineString", "coordinates": [ [ 11.961365, 55.445374 ], [ 12.024536, 55.351012 ] ] } },
{ "type": "Feature", "properties": { "voltage_kv": 132.0, "from_node": 38, "to_node": 45, "length_km": 14.492412942857595, "edge_source": "delaunay", "edge_set": "Delaunay1", "repair_iteration": null }, "geometry": { "type": "LineString", "coordinates": [ [ 11.961365, 55.445374 ], [ 12.170105, 55.499083 ] ] } },
{ "type": "Feature", "properties": { "voltage_kv": 132.0, "from_node": 39, "to_node": 60, "length_km": 108.24372120706811, "edge_source": "delaunay", "edge_set": "Delaunay1", "repair_iteration": null }, "geometry": { "type": "LineString", "coordinates": [ [ 11.965485, 54.756331 ], [ 12.583466, 55.662095 ] ] } },
{ "type": "Feature", "properties": { "voltage_kv": 132.0, "from_node": 40, "to_node": 43, "length_km": 14.662132067802814, "edge_source": "delaunay", "edge_set": "Delaunay1", "repair_iteration": null }, "geometry": { "type": "LineString", "coordinates": [ [ 11.990204, 55.498305 ], [ 12.108307, 55.611711 ] ] } },
{ "type": "Feature", "properties": { "voltage_kv": 132.0, "from_node": 40, "to_node": 45, "length_km": 11.37010900403515, "edge_source": "delaunay", "edge_set": "Delaunay1", "repair_iteration": null }, "geometry": { "type": "LineString", "coordinates": [ [ 11.990204, 55.498305 ], [ 12.170105, 55.499083 ] ] } },
{ "type": "Feature", "properties": { "voltage_kv": 132.0, "from_node": 41, "to_node": 45, "length_km": 18.887273674311558, "edge_source": "delaunay", "edge_set": "Delaunay1", "repair_iteration": null }, "geometry": { "type": "LineString", "coordinates": [ [ 12.024536, 55.351012 ], [ 12.170105, 55.499083 ] ] } },
{ "type": "Feature", "properties": { "voltage_kv": 132.0, "from_node": 41, "to_node": 60, "length_km": 49.466912102060277, "edge_source": "delaunay", "edge_set": "Delaunay1", "repair_iteration": null }, "geometry": { "type": "LineString", "coordinates": [ [ 12.024536, 55.351012 ], [ 12.583466, 55.662095 ] ] } },
{ "type": "Feature", "properties": { "voltage_kv": 132.0, "from_node": 42, "to_node": 46, "length_km": 12.002668224577979, "edge_source": "delaunay", "edge_set": "Delaunay1", "repair_iteration": null }, "geometry": { "type": "LineString", "coordinates": [ [ 12.061615, 55.969187 ], [ 12.22641, 55.913812 ] ] } },
{ "type": "Feature", "properties": { "voltage_kv": 132.0, "from_node": 42, "to_node": 47, "length_km": 19.630383722933999, "edge_source": "delaunay", "edge_set": "Delaunay1", "repair_iteration": null }, "geometry": { "type": "LineString", "coordinates": [ [ 12.061615, 55.969187 ], [ 12.23465, 55.822116 ] ] } },
{ "type": "Feature", "properties": { "voltage_kv": 132.0, "from_node": 42, "to_node": 58, "length_km": 32.827829977417124, "edge_source": "delaunay", "edge_set": "Delaunay1", "repair_iteration": null }, "geometry": { "type": "LineString", "coordinates": [ [ 12.061615, 55.969187 ], [ 12.571106, 56.042897 ] ] } },
{ "type": "Feature", "properties": { "voltage_kv": 132.0, "from_node": 43, "to_node": 44, "length_km": 14.357580360578796, "edge_source": "delaunay", "edge_set": "Delaunay1", "repair_iteration": null }, "geometry": { "type": "LineString", "coordinates": [ [ 12.108307, 55.611711 ], [ 12.154999, 55.737935 ] ] } },
{ "type": "Feature", "properties": { "voltage_kv": 132.0, "from_node": 43, "to_node": 45, "length_km": 13.132281342603028, "edge_source": "delaunay", "edge_set": "Delaunay1", "repair_iteration": null }, "geometry": { "type": "LineString", "coordinates": [ [ 12.108307, 55.611711 ], [ 12.170105, 55.499083 ] ] } },
{ "type": "Feature", "properties": { "voltage_kv": 132.0, "from_node": 43, "to_node": 49, "length_km": 11.669940769143341, "edge_source": "delaunay", "edge_set": "Delaunay1", "repair_iteration": null }, "geometry": { "type": "LineString", "coordinates": [ [ 12.108307, 55.611711 ], [ 12.268982, 55.559709 ] ] } },
{ "type": "Feature", "properties": { "voltage_kv": 132.0, "from_node": 43, "to_node": 50, "length_km": 14.381450328086274, "edge_source": "delaunay", "edge_set": "Delaunay1", "repair_iteration": null }, "geometry": { "type": "LineString", "coordinates": [ [ 12.108307, 55.611711 ], [ 12.311554, 55.670615 ] ] } },
{ "type": "Feature", "properties": { "voltage_kv": 132.0, "from_node": 44, "to_node": 47, "length_km": 10.622269277650949, "edge_source": "delaunay", "edge_set": "Delaunay1", "repair_iteration": null }, "geometry": { "type": "LineString", "coordinates": [ [ 12.154999, 55.737935 ], [ 12.23465, 55.822116 ] ] } },
{ "type": "Feature", "properties": { "voltage_kv": 132.0, "from_node": 44, "to_node": 48, "length_km": 6.0949016679233408, "edge_source": "delaunay", "edge_set": "Delaunay1", "repair_iteration": null }, "geometry": { "type": "LineString", "coordinates": [ [ 12.154999, 55.737935 ], [ 12.240143, 55.764213 ] ] } },
{ "type": "Feature", "properties": { "voltage_kv": 132.0, "from_node": 44, "to_node": 50, "length_km": 12.371904503591105, "edge_source": "delaunay", "edge_set": "Delaunay1", "repair_iteration": null }, "geometry": { "type": "LineString", "coordinates": [ [ 12.154999, 55.737935 ], [ 12.311554, 55.670615 ] ] } },
{ "type": "Feature", "properties": { "voltage_kv": 132.0, "from_node": 45, "to_node": 49, "length_km": 9.1952856603702209, "edge_source": "delaunay", "edge_set": "Delaunay1", "repair_iteration": null }, "geometry": { "type": "LineString", "coordinates": [ [ 12.170105, 55.499083 ], [ 12.268982, 55.559709 ] ] } },
{ "type": "Feature", "properties": { "voltage_kv": 132.0, "from_node": 45, "to_node": 60, "length_km": 31.766501269873952, "edge_source": "delaunay", "edge_set": "Delaunay1", "repair_iteration": null }, "geometry": { "type": "LineString", "coordinates": [ [ 12.170105, 55.499083 ], [ 12.583466, 55.662095 ] ] } },
{ "type": "Feature", "properties": { "voltage_kv": 132.0, "from_node": 46, "to_node": 47, "length_km": 10.222885782209438, "edge_source": "delaunay", "edge_set": "Delaunay1", "repair_iteration": null }, "geometry": { "type": "LineString", "coordinates": [ [ 12.22641, 55.913812 ], [ 12.23465, 55.822116 ] ] } },
{ "type": "Feature", "properties": { "voltage_kv": 132.0, "from_node": 46, "to_node": 53, "length_km": 15.723872919611221, "edge_source": "delaunay", "edge_set": "Delaunay1", "repair_iteration": null }, "geometry": { "type": "LineString", "coordinates": [ [ 12.22641, 55.913812 ], [ 12.474976, 55.935356 ] ] } },
{ "type": "Feature", "properties": { "voltage_kv": 132.0, "from_node": 46, "to_node": 58, "length_km": 25.878560187728137, "edge_source": "delaunay", "edge_set": "Delaunay1", "repair_iteration": null }, "geometry": { "type": "LineString", "coordinates": [ [ 12.22641, 55.913812 ], [ 12.571106, 56.042897 ] ] } },
{ "type": "Feature", "properties": { "voltage_kv": 132.0, "from_node": 47, "to_node": 48, "length_km": 6.4563174145078088, "edge_source": "delaunay", "edge_set": "Delaunay1", "repair_iteration": null }, "geometry": { "type": "LineString", "coordinates": [ [ 12.23465, 55.822116 ], [ 12.240143, 55.764213 ] ] } },
{ "type": "Feature", "properties": { "voltage_kv": 132.0, "from_node": 47, "to_node": 52, "length_km": 11.869576006202294, "edge_source": "delaunay", "edge_set": "Delaunay1", "repair_iteration": null }, "geometry": { "type": "LineString", "coordinates": [ [ 12.23465, 55.822116 ], [ 12.389832, 55.761123 ] ] } },
{ "type": "Feature", "properties": { "voltage_kv": 132.0, "from_node": 47, "to_node": 53, "length_km": 19.627944885154712, "edge_source": "delaunay", "edge_set": "Delaunay1", "repair_iteration": null }, "geometry": { "type": "LineString", "coordinates": [ [ 12.23465, 55.822116 ], [ 12.474976, 55.935356 ] ] } },
{ "type": "Feature", "properties": { "voltage_kv": 132.0, "from_node": 48, "to_node": 50, "length_km": 11.346815429952068, "edge_source": "delaunay", "edge_set": "Delaunay1", "repair_iteration": null }, "geometry": { "type": "LineString", "coordinates": [ [ 12.240143, 55.764213 ], [ 12.311554, 55.670615 ] ] } },
{ "type": "Feature", "properties": { "voltage_kv": 132.0, "from_node": 48, "to_node": 52, "length_km": 9.403478112636579, "edge_source": "delaunay", "edge_set": "Delaunay1", "repair_iteration": null }, "geometry": { "type": "LineString", "coordinates": [ [ 12.240143, 55.764213 ], [ 12.389832, 55.761123 ] ] } },
{ "type": "Feature", "properties": { "voltage_kv": 132.0, "from_node": 49, "to_node": 50, "length_km": 12.636397009144099, "edge_source": "delaunay", "edge_set": "Delaunay1", "repair_iteration": null }, "geometry": { "type": "LineString", "coordinates": [ [ 12.268982, 55.559709 ], [ 12.311554, 55.670615 ] ] } },
{ "type": "Feature", "properties": { "voltage_kv": 132.0, "from_node": 49, "to_node": 51, "length_km": 8.3804296279425454, "edge_source": "delaunay", "edge_set": "Delaunay1", "repair_iteration": null }, "geometry": { "type": "LineString", "coordinates": [ [ 12.268982, 55.559709 ], [ 12.362366, 55.613262 ] ] } },
{ "type": "Feature", "properties": { "voltage_kv": 132.0, "from_node": 49, "to_node": 60, "length_km": 22.864169454994389, "edge_source": "delaunay", "edge_set": "Delaunay1", "repair_iteration": null }, "geometry": { "type": "LineString", "coordinates": [ [ 12.268982, 55.559709 ], [ 12.583466, 55.662095 ] ] } },
{ "type": "Feature", "properties": { "voltage_kv": 132.0, "from_node": 50, "to_node": 51, "length_km": 7.1425838113664684, "edge_source": "delaunay", "edge_set": "Delaunay1", "repair_iteration": null }, "geometry": { "type": "LineString", "coordinates": [ [ 12.311554, 55.670615 ], [ 12.362366, 55.613262 ] ] } },
{ "type": "Feature", "properties": { "voltage_kv": 132.0, "from_node": 50, "to_node": 52, "length_km": 11.21435629146197, "edge_source": "delaunay", "edge_set": "Delaunay1", "repair_iteration": null }, "geometry": { "type": "LineString", "coordinates": [ [ 12.311554, 55.670615 ], [ 12.389832, 55.761123 ] ] } },
{ "type": "Feature", "properties": { "voltage_kv": 132.0, "from_node": 50, "to_node": 54, "length_km": 11.269889121937243, "edge_source": "delaunay", "edge_set": "Delaunay1", "repair_iteration": null }, "geometry": { "type": "LineString", "coordinates": [ [ 12.311554, 55.670615 ], [ 12.490645134825497, 55.671527244775099 ] ] } },
{ "type": "Feature", "properties": { "voltage_kv": 132.0, "from_node": 51, "to_node": 54, "length_km": 10.360512665753584, "edge_source": "delaunay", "edge_set": "Delaunay1", "repair_iteration": null }, "geometry": { "type": "LineString", "coordinates": [ [ 12.362366, 55.613262 ], [ 12.490645134825497, 55.671527244775099 ] ] } },
{ "type": "Feature", "properties": { "voltage_kv": 132.0, "from_node": 51, "to_node": 60, "length_km": 14.948714608827123, "edge_source": "delaunay", "edge_set": "Delaunay1", "repair_iteration": null }, "geometry": { "type": "LineString", "coordinates": [ [ 12.362366, 55.613262 ], [ 12.583466, 55.662095 ] ] } },
{ "type": "Feature", "properties": { "voltage_kv": 132.0, "from_node": 52, "to_node": 53, "length_km": 20.120030586931438, "edge_source": "delaunay", "edge_set": "Delaunay1", "repair_iteration": null }, "geometry": { "type": "LineString", "coordinates": [ [ 12.389832, 55.761123 ], [ 12.474976, 55.935356 ] ] } },
{ "type": "Feature", "properties": { "voltage_kv": 132.0, "from_node": 52, "to_node": 54, "length_km": 11.818225047007081, "edge_source": "delaunay", "edge_set": "Delaunay1", "repair_iteration": null }, "geometry": { "type": "LineString", "coordinates": [ [ 12.389832, 55.761123 ], [ 12.490645134825497, 55.671527244775099 ] ] } },
{ "type": "Feature", "properties": { "voltage_kv": 132.0, "from_node": 52, "to_node": 56, "length_km": 9.1074867571376501, "edge_source": "delaunay", "edge_set": "Delaunay1", "repair_iteration": null }, "geometry": { "type": "LineString", "coordinates": [ [ 12.389832, 55.761123 ], [ 12.527161, 55.734843 ] ] } },
{ "type": "Feature", "properties": { "voltage_kv": 132.0, "from_node": 52, "to_node": 57, "length_km": 11.608704548613467, "edge_source": "delaunay", "edge_set": "Delaunay1", "repair_iteration": null }, "geometry": { "type": "LineString", "coordinates": [ [ 12.389832, 55.761123 ], [ 12.56424, 55.795877 ] ] } },
{ "type": "Feature", "properties": { "voltage_kv": 132.0, "from_node": 53, "to_node": 55, "length_km": 2.8376713702691214, "edge_source": "delaunay", "edge_set": "Delaunay1", "repair_iteration": null }, "geometry": { "type": "LineString", "coordinates": [ [ 12.474976, 55.935356 ], [ 12.520294, 55.933818 ] ] } },
{ "type": "Feature", "properties": { "voltage_kv": 132.0, "from_node": 53, "to_node": 57, "length_km": 16.505795012899195, "edge_source": "delaunay", "edge_set": "Delaunay1", "repair_iteration": null }, "geometry": { "type": "LineString", "coordinates": [ [ 12.474976, 55.935356 ], [ 12.56424, 55.795877 ] ] } },
{ "type": "Feature", "properties": { "voltage_kv": 132.0, "from_node": 53, "to_node": 58, "length_km": 13.393771155147691, "edge_source": "delaunay", "edge_set": "Delaunay1", "repair_iteration": null }, "geometry": { "type": "LineString", "coordinates": [ [ 12.474976, 55.935356 ], [ 12.571106, 56.042897 ] ] } },
{ "type": "Feature", "properties": { "voltage_kv": 132.0, "from_node": 54, "to_node": 56, "length_km": 7.4143232502491259, "edge_source": "delaunay", "edge_set": "Delaunay1", "repair_iteration": null }, "geometry": { "type": "LineString", "coordinates": [ [ 12.490645134825497, 55.671527244775099 ], [ 12.527161, 55.734843 ] ] } },
{ "type": "Feature", "properties": { "voltage_kv": 132.0, "from_node": 54, "to_node": 60, "length_km": 5.9351986221862791, "edge_source": "delaunay", "edge_set": "Delaunay1", "repair_iteration": null }, "geometry": { "type": "LineString", "coordinates": [ [ 12.490645134825497, 55.671527244775099 ], [ 12.583466, 55.662095 ] ] } },
{ "type": "Feature", "properties": { "voltage_kv": 132.0, "from_node": 55, "to_node": 57, "length_km": 15.604022884895977, "edge_source": "delaunay", "edge_set": "Delaunay1", "repair_iteration": null }, "geometry": { "type": "LineString", "coordinates": [ [ 12.520294, 55.933818 ], [ 12.56424, 55.795877 ] ] } },
{ "type": "Feature", "properties": { "voltage_kv": 132.0, "from_node": 55, "to_node": 58, "length_km": 12.553232625847063, "edge_source": "delaunay", "edge_set": "Delaunay1", "repair_iteration": null }, "geometry": { "type": "LineString", "coordinates": [ [ 12.520294, 55.933818 ], [ 12.571106, 56.042897 ] ] } },
{ "type": "Feature", "properties": { "voltage_kv": 132.0, "from_node": 55, "to_node": 61, "length_km": 29.947881013958344, "edge_source": "delaunay", "edge_set": "Delaunay1", "repair_iteration": null }, "geometry": { "type": "LineString", "coordinates": [ [ 12.520294, 55.933818 ], [ 12.933655, 56.070502 ] ] } },
{ "type": "Feature", "properties": { "voltage_kv": 132.0, "from_node": 56, "to_node": 57, "length_km": 7.1834864133349576, "edge_source": "delaunay", "edge_set": "Delaunay1", "repair_iteration": null }, "geometry": { "type": "LineString", "coordinates": [ [ 12.527161, 55.734843 ], [ 12.56424, 55.795877 ] ] } },
{ "type": "Feature", "properties": { "voltage_kv": 132.0, "from_node": 56, "to_node": 59, "length_km": 3.3658822414989231, "edge_source": "delaunay", "edge_set": "Delaunay1", "repair_iteration": null }, "geometry": { "type": "LineString", "coordinates": [ [ 12.527161, 55.734843 ], [ 12.580719, 55.73407 ] ] } },
{ "type": "Feature", "properties": { "voltage_kv": 132.0, "from_node": 56, "to_node": 60, "length_km": 8.8401638898101567, "edge_source": "delaunay", "edge_set": "Delaunay1", "repair_iteration": null }, "geometry": { "type": "LineString", "coordinates": [ [ 12.527161, 55.734843 ], [ 12.583466, 55.662095 ] ] } },
{ "type": "Feature", "properties": { "voltage_kv": 132.0, "from_node": 57, "to_node": 59, "length_km": 6.9593306905323358, "edge_source": "delaunay", "edge_set": "Delaunay1", "repair_iteration": null }, "geometry": { "type": "LineString", "coordinates": [ [ 12.56424, 55.795877 ], [ 12.580719, 55.73407 ] ] } },
{ "type": "Feature", "properties": { "voltage_kv": 132.0, "from_node": 57, "to_node": 61, "length_km": 38.318826497839048, "edge_source": "delaunay", "edge_set": "Delaunay1", "repair_iteration": null }, "geometry": { "type": "LineString", "coordinates": [ [ 12.56424, 55.795877 ], [ 12.933655, 56.070502 ] ] } },
{ "type": "Feature", "properties": { "voltage_kv": 132.0, "from_node": 58, "to_node": 61, "length_km": 22.797863442096897, "edge_source": "delaunay", "edge_set": "Delaunay1", "repair_iteration": null }, "geometry": { "type": "LineString", "coordinates": [ [ 12.571106, 56.042897 ], [ 12.933655, 56.070502 ] ] } },
{ "type": "Feature", "properties": { "voltage_kv": 132.0, "from_node": 59, "to_node": 60, "length_km": 8.0159741480045685, "edge_source": "delaunay", "edge_set": "Delaunay1", "repair_iteration": null }, "geometry": { "type": "LineString", "coordinates": [ [ 12.580719, 55.73407 ], [ 12.583466, 55.662095 ] ] } },
{ "type": "Feature", "properties": { "voltage_kv": 132.0, "from_node": 59, "to_node": 61, "length_km": 43.48425541023628, "edge_source": "delaunay", "edge_set": "Delaunay1", "repair_iteration": null }, "geometry": { "type": "LineString", "coordinates": [ [ 12.580719, 55.73407 ], [ 12.933655, 56.070502 ] ] } },
{ "type": "Feature", "properties": { "voltage_kv": 132.0, "from_node": 60, "to_node": 61, "length_km": 50.486686257028232, "edge_source": "delaunay", "edge_set": "Delaunay1", "repair_iteration": null }, "geometry": { "type": "LineString", "coordinates": [ [ 12.583466, 55.662095 ], [ 12.933655, 56.070502 ] ] } },
{ "type": "Feature", "properties": { "voltage_kv": 132.0, "from_node": 62, "to_node": 63, "length_km": 49.015382441431974, "edge_source": "delaunay", "edge_set": "Delaunay1", "repair_iteration": null }, "geometry": { "type": "LineString", "coordinates": [ [ 19.158783, 69.620772 ], [ 19.24942, 69.183065 ] ] } },
{ "type": "Feature", "properties": { "voltage_kv": 132.0, "from_node": 62, "to_node": 64, "length_km": 26.725472484211217, "edge_source": "delaunay", "edge_set": "Delaunay1", "repair_iteration": null }, "geometry": { "type": "LineString", "coordinates": [ [ 19.158783, 69.620772 ], [ 19.820709, 69.558512 ] ] } },
{ "type": "Feature", "properties": { "voltage_kv": 132.0, "from_node": 62, "to_node": 67, "length_km": 116.24672849594903, "edge_source": "delaunay", "edge_set": "Delaunay1", "repair_iteration": null }, "geometry": { "type": "LineString", "coordinates": [ [ 19.158783, 69.620772 ], [ 22.138824, 69.713346 ] ] } },
{ "type": "Feature", "properties": { "voltage_kv": 132.0, "from_node": 63, "to_node": 64, "length_km": 47.590793849544212, "edge_source": "delaunay", "edge_set": "Delaunay1", "repair_iteration": null }, "geometry": { "type": "LineString", "coordinates": [ [ 19.24942, 69.183065 ], [ 19.820709, 69.558512 ] ] } },
{ "type": "Feature", "properties": { "voltage_kv": 132.0, "from_node": 63, "to_node": 65, "length_km": 45.248601028669455, "edge_source": "delaunay", "edge_set": "Delaunay1", "repair_iteration": null }, "geometry": { "type": "LineString", "coordinates": [ [ 19.24942, 69.183065 ], [ 20.376892, 69.243986 ] ] } },
{ "type": "Feature", "properties": { "voltage_kv": 132.0, "from_node": 64, "to_node": 65, "length_km": 41.392247064990798, "edge_source": "delaunay", "edge_set": "Delaunay1", "repair_iteration": null }, "geometry": { "type": "LineString", "coordinates": [ [ 19.820709, 69.558512 ], [ 20.376892, 69.243986 ] ] } },
{ "type": "Feature", "properties": { "voltage_kv": 132.0, "from_node": 64, "to_node": 66, "length_km": 49.880479644071087, "edge_source": "delaunay", "edge_set": "Delaunay1", "repair_iteration": null }, "geometry": { "type": "LineString", "coordinates": [ [ 19.820709, 69.558512 ], [ 21.041565, 69.431516 ] ] } },
{ "type": "Feature", "properties": { "voltage_kv": 132.0, "from_node": 64, "to_node": 67, "length_km": 91.856979825334591, "edge_source": "delaunay", "edge_set": "Delaunay1", "repair_iteration": null }, "geometry": { "type": "LineString", "coordinates": [ [ 19.820709, 69.558512 ], [ 22.138824, 69.713346 ] ] } },
{ "type": "Feature", "properties": { "voltage_kv": 132.0, "from_node": 65, "to_node": 66, "length_km": 33.571392311526346, "edge_source": "delaunay", "edge_set": "Delaunay1", "repair_iteration": null }, "geometry": { "type": "LineString", "coordinates": [ [ 20.376892, 69.243986 ], [ 21.041565, 69.431516 ] ] } },
{ "type": "Feature", "properties": { "voltage_kv": 132.0, "from_node": 66, "to_node": 67, "length_km": 53.175036577215309, "edge_source": "delaunay", "edge_set": "Delaunay1", "repair_iteration": null }, "geometry": { "type": "LineString", "coordinates": [ [ 21.041565, 69.431516 ], [ 22.138824, 69.713346 ] ] } },
{ "type": "Feature", "properties": { "voltage_kv": 132.0, "from_node": 66, "to_node": 69, "length_km": 118.57468262811982, "edge_source": "delaunay", "edge_set": "Delaunay1", "repair_iteration": null }, "geometry": { "type": "LineString", "coordinates": [ [ 21.041565, 69.431516 ], [ 23.990021, 69.68142 ] ] } },
{ "type": "Feature", "properties": { "voltage_kv": 132.0, "from_node": 67, "to_node": 68, "length_km": 54.98767242897425, "edge_source": "delaunay", "edge_set": "Delaunay1", "repair_iteration": null }, "geometry": { "type": "LineString", "coordinates": [ [ 22.138824, 69.713346 ], [ 23.410492, 69.935012 ] ] } },
{ "type": "Feature", "properties": { "voltage_kv": 132.0, "from_node": 67, "to_node": 69, "length_km": 71.981515217677568, "edge_source": "delaunay", "edge_set": "Delaunay1", "repair_iteration": null }, "geometry": { "type": "LineString", "coordinates": [ [ 22.138824, 69.713346 ], [ 23.990021, 69.68142 ] ] } },
{ "type": "Feature", "properties": { "voltage_kv": 132.0, "from_node": 67, "to_node": 70, "length_km": 119.25149610044164, "edge_source": "delaunay", "edge_set": "Delaunay1", "repair_iteration": null }, "geometry": { "type": "LineString", "coordinates": [ [ 22.138824, 69.713346 ], [ 24.613495, 70.363091 ] ] } },
{ "type": "Feature", "properties": { "voltage_kv": 132.0, "from_node": 68, "to_node": 69, "length_km": 36.142958064333634, "edge_source": "delaunay", "edge_set": "Delaunay1", "repair_iteration": null }, "geometry": { "type": "LineString", "coordinates": [ [ 23.410492, 69.935012 ], [ 23.990021, 69.68142 ] ] } },
{ "type": "Feature", "properties": { "voltage_kv": 132.0, "from_node": 68, "to_node": 70, "length_km": 66.222024580422257, "edge_source": "delaunay", "edge_set": "Delaunay1", "repair_iteration": null }, "geometry": { "type": "LineString", "coordinates": [ [ 23.410492, 69.935012 ], [ 24.613495, 70.363091 ] ] } },
{ "type": "Feature", "properties": { "voltage_kv": 132.0, "from_node": 68, "to_node": 71, "length_km": 67.127353852122695, "edge_source": "delaunay", "edge_set": "Delaunay1", "repair_iteration": null }, "geometry": { "type": "LineString", "coordinates": [ [ 23.410492, 69.935012 ], [ 25.157318, 69.959498 ] ] } },
{ "type": "Feature", "properties": { "voltage_kv": 132.0, "from_node": 69, "to_node": 71, "length_km": 54.793605964741943, "edge_source": "delaunay", "edge_set": "Delaunay1", "repair_iteration": null }, "geometry": { "type": "LineString", "coordinates": [ [ 23.990021, 69.68142 ], [ 25.157318, 69.959498 ] ] } },
{ "type": "Feature", "properties": { "voltage_kv": 132.0, "from_node": 70, "to_node": 71, "length_km": 49.675638922185897, "edge_source": "delaunay", "edge_set": "Delaunay1", "repair_iteration": null }, "geometry": { "type": "LineString", "coordinates": [ [ 24.613495, 70.363091 ], [ 25.157318, 69.959498 ] ] } },
{ "type": "Feature", "properties": { "voltage_kv": 132.0, "from_node": 70, "to_node": 72, "length_km": 73.382881049533623, "edge_source": "delaunay", "edge_set": "Delaunay1", "repair_iteration": null }, "geometry": { "type": "LineString", "coordinates": [ [ 24.613495, 70.363091 ], [ 26.545715, 70.286801 ] ] } },
{ "type": "Feature", "properties": { "voltage_kv": 132.0, "from_node": 71, "to_node": 72, "length_km": 64.351635391996481, "edge_source": "delaunay", "edge_set": "Delaunay1", "repair_iteration": null }, "geometry": { "type": "LineString", "coordinates": [ [ 25.157318, 69.959498 ], [ 26.545715, 70.286801 ] ] } },
{ "type": "Feature", "properties": { "voltage_kv": 132.0, "from_node": 72, "to_node": 73, "length_km": 78.148264712200287, "edge_source": "delaunay", "edge_set": "Delaunay1", "repair_iteration": null }, "geometry": { "type": "LineString", "coordinates": [ [ 26.545715, 70.286801 ], [ 28.572693, 70.163212 ] ] } },
{ "type": "Feature", "properties": { "voltage_kv": 132.0, "from_node": 73, "to_node": 74, "length_km": 89.456387459036051, "edge_source": "delaunay", "edge_set": "Delaunay1", "repair_iteration": null }, "geometry": { "type": "LineString", "coordinates": [ [ 28.572693, 70.163212 ], [ 29.549103, 69.440681 ] ] } },
{ "type": "Feature", "properties": { "voltage_kv": 132.0, "from_node": 73, "to_node": 75, "length_km": 80.430628990490661, "edge_source": "delaunay", "edge_set": "Delaunay1", "repair_iteration": null }, "geometry": { "type": "LineString", "coordinates": [ [ 28.572693, 70.163212 ], [ 30.120392, 69.682374 ] ] } },
{ "type": "Feature", "properties": { "voltage_kv": 132.0, "from_node": 74, "to_node": 75, "length_km": 35.189753526954817, "edge_source": "delaunay", "edge_set": "Delaunay1", "repair_iteration": null }, "geometry": { "type": "LineString", "coordinates": [ [ 29.549103, 69.440681 ], [ 30.120392, 69.682374 ] ] } },
{ "type": "Feature", "properties": { "voltage_kv": 132.0, "from_node": 16, "to_node": 17, "length_km": 16.631939868225754, "edge_source": "connectivity_repair", "edge_set": "Delaunay1", "repair_iteration": 1.0 }, "geometry": { "type": "LineString", "coordinates": [ [ 11.501312, 54.568081 ], [ 11.504059, 54.717482 ] ] } },
{ "type": "Feature", "properties": { "voltage_kv": 132.0, "from_node": 20, "to_node": 16, "length_km": 10.628642701527369, "edge_source": "connectivity_repair", "edge_set": "Delaunay1", "repair_iteration": 2.0 }, "geometry": { "type": "LineString", "coordinates": [ [ 11.661987, 54.548173 ], [ 11.501312, 54.568081 ] ] } },
{ "type": "Feature", "properties": { "voltage_kv": 132.0, "from_node": 4, "to_node": 42, "length_km": 644.54189935757233, "edge_source": "connectivity_repair", "edge_set": "Delaunay1", "repair_iteration": 3.0 }, "geometry": { "type": "LineString", "coordinates": [ [ 7.338867, 61.206798 ], [ 12.061615, 55.969187 ] ] } },
{ "type": "Feature", "properties": { "voltage_kv": 132.0, "from_node": 3, "to_node": 0, "length_km": 126.14342707818348, "edge_source": "connectivity_repair", "edge_set": "Delaunay1", "repair_iteration": 4.0 }, "geometry": { "type": "LineString", "coordinates": [ [ 7.033997, 62.47807 ], [ 5.218506, 61.732826 ] ] } },
{ "type": "Feature", "properties": { "voltage_kv": 132.0, "from_node": 5, "to_node": 3, "length_km": 146.25915717679811, "edge_source": "connectivity_repair", "edge_set": "Delaunay1", "repair_iteration": 5.0 }, "geometry": { "type": "LineString", "coordinates": [ [ 9.602051, 63.058071 ], [ 7.033997, 62.47807 ] ] } },
{ "type": "Feature", "properties": { "voltage_kv": 132.0, "from_node": 63, "to_node": 7, "length_km": 779.58930703987642, "edge_source": "connectivity_repair", "edge_set": "Delaunay1", "repair_iteration": 6.0 }, "geometry": { "type": "LineString", "coordinates": [ [ 19.24942, 69.183065 ], [ 9.933014, 63.271947 ] ] } }
]
}
