{
"type": "FeatureCollection",
"name": "n490_132kv_delaunay2_removed_length",
"crs": { "type": "name", "properties": { "name": "urn:ogc:def:crs:OGC:1.3:CRS84" } },
"features": [
{ "type": "Feature", "properties": { "voltage_kv": 132.0, "from_node": 0, "to_node": 4, "length_km": 127.43069388010503, "delaunay_k": 2, "edge_set": "Delaunay2" }, "geometry": { "type": "LineString", "coordinates": [ [ 5.218506, 61.732826 ], [ 7.338867, 61.206798 ] ] } },
{ "type": "Feature", "properties": { "voltage_kv": 132.0, "from_node": 0, "to_node": 5, "length_km": 270.64430742761414, "delaunay_k": 2, "edge_set": "Delaunay2" }, "geometry": { "type": "LineString", "coordinates": [ [ 5.218506, 61.732826 ], [ 9.602051, 63.058071 ] ] } },
{ "type": "Feature", "properties": { "voltage_kv": 132.0, "from_node": 1, "to_node": 3, "length_km": 128.95549559254422, "delaunay_k": 2, "edge_set": "Delaunay2" }, "geometry": { "type": "LineString", "coordinates": [ [ 5.748596, 61.49256 ], [ 7.033997, 62.47807 ] ] } },
{ "type": "Feature", "properties": { "voltage_kv": 132.0, "from_node": 1, "to_node": 42, "length_km": 715.20761904364952, "delaunay_k": 2, "edge_set": "Delaunay2" }, "geometry": { "type": "LineString", "coordinates": [ [ 5.748596, 61.49256 ], [ 12.061615, 55.969187 ] ] } },
{ "type": "Feature", "properties": { "voltage_kv": 132.0, "from_node": 2, "to_node": 3, "length_km": 147.41238478089511, "delaunay_k": 2, "edge_set": "Delaunay2" }, "geometry": { "type": "LineString", "coordinates": [ [ 6.093292, 61.233245 ], [ 7.033997, 62.47807 ] ] } },
{ "type": "Feature", "properties": { "voltage_kv": 132.0, "from_node": 2, "to_node": 42, "length_km": 680.89887901675513, "delaunay_k": 2, "edge_set": "Delaunay2" }, "geometry": { "type": "LineString", "coordinates": [ [ 6.093292, 61.233245 ], [ 12.061615, 55.969187 ] ] } },
{ "type": "Feature", "properties": { "voltage_kv": 132.0, "from_node": 3, "to_node": 6, "length_km": 152.08487556669425, "delaunay_k": 2, "edge_set": "Delaunay2" }, "geometry": { "type": "LineString", "coordinates": [ [ 7.033997, 62.47807 ], [ 9.930267, 62.764783 ] ] } },
{ "type": "Feature", "properties": { "voltage_kv": 132.0, "from_node": 3, "to_node": 7, "length_km": 172.05623714726079, "delaunay_k": 2, "edge_set": "Delaunay2" }, "geometry": { "type": "LineString", "coordinates": [ [ 7.033997, 62.47807 ], [ 9.933014, 63.271947 ] ] } },
{ "type": "Feature", "properties": { "voltage_kv": 132.0, "from_node": 4, "to_node": 19, "length_km": 645.2155864238747, "delaunay_k": 2, "edge_set": "Delaunay2" }, "geometry": { "type": "LineString", "coordinates": [ [ 7.338867, 61.206798 ], [ 11.641388, 55.866835 ] ] } },
{ "type": "Feature", "properties": { "voltage_kv": 132.0, "from_node": 4, "to_node": 31, "length_km": 656.00779048667493, "delaunay_k": 2, "edge_set": "Delaunay2" }, "geometry": { "type": "LineString", "coordinates": [ [ 7.338867, 61.206798 ], [ 11.885834, 55.816715 ] ] } },
{ "type": "Feature", "properties": { "voltage_kv": 132.0, "from_node": 4, "to_node": 46, "length_km": 654.29513916026872, "delaunay_k": 2, "edge_set": "Delaunay2" }, "geometry": { "type": "LineString", "coordinates": [ [ 7.338867, 61.206798 ], [ 12.22641, 55.913812 ] ] } },
{ "type": "Feature", "properties": { "voltage_kv": 132.0, "from_node": 4, "to_node": 47, "length_km": 663.8627368746055, "delaunay_k": 2, "edge_set": "Delaunay2" }, "geometry": { "type": "LineString", "coordinates": [ [ 7.338867, 61.206798 ], [ 12.23465, 55.822116 ] ] } },
{ "type": "Feature", "properties": { "voltage_kv": 132.0, "from_node": 4, "to_node": 58, "length_km": 650.2096042441791, "delaunay_k": 2, "edge_set": "Delaunay2" }, "geometry": { "type": "LineString", "coordinates": [ [ 7.338867, 61.206798 ], [ 12.571106, 56.042897 ] ] } },
{ "type": "Feature", "properties": { "voltage_kv": 132.0, "from_node": 5, "to_node": 63, "length_km": 808.48205029795724, "delaunay_k": 2, "edge_set": "Delaunay2" }, "geometry": { "type": "LineString", "coordinates": [ [ 9.602051, 63.058071 ], [ 19.24942, 69.183065 ] ] } },
{ "type": "Feature", "properties": { "voltage_kv": 132.0, "from_node": 6, "to_node": 63, "length_km": 829.8914228329445, "delaunay_k": 2, "edge_set": "Delaunay2" }, "geometry": { "type": "LineString", "coordinates": [ [ 9.930267, 62.764783 ], [ 19.24942, 69.183065 ] ] } },
{ "type": "Feature", "properties": { "voltage_kv": 132.0, "from_node": 7, "to_node": 11, "length_km": 171.32057311388297, "delaunay_k": 2, "edge_set": "Delaunay2" }, "geometry": { "type": "LineString", "coordinates": [ [ 9.933014, 63.271947 ], [ 11.12915, 61.837358 ] ] } },
{ "type": "Feature", "properties": { "voltage_kv": 132.0, "from_node": 7, "to_node": 62, "length_km": 817.20236583869905, "delaunay_k": 2, "edge_set": "Delaunay2" }, "geometry": { "type": "LineString", "coordinates": [ [ 9.933014, 63.271947 ], [ 19.158783, 69.620772 ] ] } },
{ "type": "Feature", "properties": { "voltage_kv": 132.0, "from_node": 7, "to_node": 64, "length_km": 826.63427600774719, "delaunay_k": 2, "edge_set": "Delaunay2" }, "geometry": { "type": "LineString", "coordinates": [ [ 9.933014, 63.271947 ], [ 19.820709, 69.558512 ] ] } },
{ "type": "Feature", "properties": { "voltage_kv": 132.0, "from_node": 7, "to_node": 65, "length_km": 812.78028880719194, "delaunay_k": 2, "edge_set": "Delaunay2" }, "geometry": { "type": "LineString", "coordinates": [ [ 9.933014, 63.271947 ], [ 20.376892, 69.243986 ] ] } },
{ "type": "Feature", "properties": { "voltage_kv": 132.0, "from_node": 8, "to_node": 63, "length_km": 833.89521601494539, "delaunay_k": 2, "edge_set": "Delaunay2" }, "geometry": { "type": "LineString", "coordinates": [ [ 10.122528, 62.681707 ], [ 19.24942, 69.183065 ] ] } },
{ "type": "Feature", "properties": { "voltage_kv": 132.0, "from_node": 9, "to_node": 63, "length_km": 836.05538902550506, "delaunay_k": 2, "edge_set": "Delaunay2" }, "geometry": { "type": "LineString", "coordinates": [ [ 10.266724, 62.628719 ], [ 19.24942, 69.183065 ] ] } },
{ "type": "Feature", "properties": { "voltage_kv": 132.0, "from_node": 39, "to_node": 61, "length_km": 158.64560648277677, "delaunay_k": 2, "edge_set": "Delaunay2" }, "geometry": { "type": "LineString", "coordinates": [ [ 11.965485, 54.756331 ], [ 12.933655, 56.070502 ] ] } },
{ "type": "Feature", "properties": { "voltage_kv": 132.0, "from_node": 62, "to_node": 68, "length_km": 168.05650704546179, "delaunay_k": 2, "edge_set": "Delaunay2" }, "geometry": { "type": "LineString", "coordinates": [ [ 19.158783, 69.620772 ], [ 23.410492, 69.935012 ] ] } },
{ "type": "Feature", "properties": { "voltage_kv": 132.0, "from_node": 62, "to_node": 69, "length_km": 188.01058503919799, "delaunay_k": 2, "edge_set": "Delaunay2" }, "geometry": { "type": "LineString", "coordinates": [ [ 19.158783, 69.620772 ], [ 23.990021, 69.68142 ] ] } },
{ "type": "Feature", "properties": { "voltage_kv": 132.0, "from_node": 62, "to_node": 70, "length_km": 224.58252938487993, "delaunay_k": 2, "edge_set": "Delaunay2" }, "geometry": { "type": "LineString", "coordinates": [ [ 19.158783, 69.620772 ], [ 24.613495, 70.363091 ] ] } },
{ "type": "Feature", "properties": { "voltage_kv": 132.0, "from_node": 63, "to_node": 67, "length_km": 127.96158241195981, "delaunay_k": 2, "edge_set": "Delaunay2" }, "geometry": { "type": "LineString", "coordinates": [ [ 19.24942, 69.183065 ], [ 22.138824, 69.713346 ] ] } },
{ "type": "Feature", "properties": { "voltage_kv": 132.0, "from_node": 64, "to_node": 68, "length_km": 145.21843890720737, "delaunay_k": 2, "edge_set": "Delaunay2" }, "geometry": { "type": "LineString", "coordinates": [ [ 19.820709, 69.558512 ], [ 23.410492, 69.935012 ] ] } },
{ "type": "Feature", "properties": { "voltage_kv": 132.0, "from_node": 64, "to_node": 69, "length_km": 162.99327193133269, "delaunay_k": 2, "edge_set": "Delaunay2" }, "geometry": { "type": "LineString", "coordinates": [ [ 19.820709, 69.558512 ], [ 23.990021, 69.68142 ] ] } },
{ "type": "Feature", "properties": { "voltage_kv": 132.0, "from_node": 64, "to_node": 70, "length_km": 204.5138496888066, "delaunay_k": 2, "edge_set": "Delaunay2" }, "geometry": { "type": "LineString", "coordinates": [ [ 19.820709, 69.558512 ], [ 24.613495, 70.363091 ] ] } },
{ "type": "Feature", "properties": { "voltage_kv": 132.0, "from_node": 65, "to_node": 69, "length_km": 150.00038805771231, "delaunay_k": 2, "edge_set": "Delaunay2" }, "geometry": { "type": "LineString", "coordinates": [ [ 20.376892, 69.243986 ], [ 23.990021, 69.68142 ] ] } },
{ "type": "Feature", "properties": { "voltage_kv": 132.0, "from_node": 66, "to_node": 70, "length_km": 172.37856629812808, "delaunay_k": 2, "edge_set": "Delaunay2" }, "geometry": { "type": "LineString", "coordinates": [ [ 21.041565, 69.431516 ], [ 24.613495, 70.363091 ] ] } },
{ "type": "Feature", "properties": { "voltage_kv": 132.0, "from_node": 66, "to_node": 71, "length_km": 170.37912979550535, "delaunay_k": 2, "edge_set": "Delaunay2" }, "geometry": { "type": "LineString", "coordinates": [ [ 21.041565, 69.431516 ], [ 25.157318, 69.959498 ] ] } },
{ "type": "Feature", "properties": { "voltage_kv": 132.0, "from_node": 67, "to_node": 72, "length_km": 180.52457906634388, "delaunay_k": 2, "edge_set": "Delaunay2" }, "geometry": { "type": "LineString", "coordinates": [ [ 22.138824, 69.713346 ], [ 26.545715, 70.286801 ] ] } },
{ "type": "Feature", "properties": { "voltage_kv": 132.0, "from_node": 70, "to_node": 73, "length_km": 151.5153634886712, "delaunay_k": 2, "edge_set": "Delaunay2" }, "geometry": { "type": "LineString", "coordinates": [ [ 24.613495, 70.363091 ], [ 28.572693, 70.163212 ] ] } },
{ "type": "Feature", "properties": { "voltage_kv": 132.0, "from_node": 71, "to_node": 73, "length_km": 132.54833432046973, "delaunay_k": 2, "edge_set": "Delaunay2" }, "geometry": { "type": "LineString", "coordinates": [ [ 25.157318, 69.959498 ], [ 28.572693, 70.163212 ] ] } },
{ "type": "Feature", "properties": { "voltage_kv": 132.0, "from_node": 72, "to_node": 74, "length_km": 149.83408004820896, "delaunay_k": 2, "edge_set": "Delaunay2" }, "geometry": { "type": "LineString", "coordinates": [ [ 26.545715, 70.286801 ], [ 29.549103, 69.440681 ] ] } },
{ "type": "Feature", "properties": { "voltage_kv": 132.0, "from_node": 72, "to_node": 75, "length_km": 153.08804491772494, "delaunay_k": 2, "edge_set": "Delaunay2" }, "geometry": { "type": "LineString", "coordinates": [ [ 26.545715, 70.286801 ], [ 30.120392, 69.682374 ] ] } }
]
}
