{
"type": "FeatureCollection",
"name": "n490_132kv_delaunay5_removed_length",
"crs": { "type": "name", "properties": { "name": "urn:ogc:def:crs:OGC:1.3:CRS84" } },
"features": [
{ "type": "Feature", "properties": { "voltage_kv": 132.0, "from_node": 0, "to_node": 10, "length_km": 756.76531662662478, "delaunay_k": 5, "edge_set": "Delaunay5" }, "geometry": { "type": "LineString", "coordinates": [ [ 5.218506, 61.732826 ], [ 11.089325, 55.66132 ] ] } },
{ "type": "Feature", "properties": { "voltage_kv": 132.0, "from_node": 0, "to_node": 11, "length_km": 312.13371622224929, "delaunay_k": 5, "edge_set": "Delaunay5" }, "geometry": { "type": "LineString", "coordinates": [ [ 5.218506, 61.732826 ], [ 11.12915, 61.837358 ] ] } },
{ "type": "Feature", "properties": { "voltage_kv": 132.0, "from_node": 0, "to_node": 18, "length_km": 762.74946404373202, "delaunay_k": 5, "edge_set": "Delaunay5" }, "geometry": { "type": "LineString", "coordinates": [ [ 5.218506, 61.732826 ], [ 11.550751, 55.724017 ] ] } },
{ "type": "Feature", "properties": { "voltage_kv": 132.0, "from_node": 0, "to_node": 30, "length_km": 778.53630355935229, "delaunay_k": 5, "edge_set": "Delaunay5" }, "geometry": { "type": "LineString", "coordinates": [ [ 5.218506, 61.732826 ], [ 11.877594, 55.657447 ] ] } },
{ "type": "Feature", "properties": { "voltage_kv": 132.0, "from_node": 0, "to_node": 44, "length_km": 778.62900954717566, "delaunay_k": 5, "edge_set": "Delaunay5" }, "geometry": { "type": "LineString", "coordinates": [ [ 5.218506, 61.732826 ], [ 12.154999, 55.737935 ] ] } },
{ "type": "Feature", "properties": { "voltage_kv": 132.0, "from_node": 0, "to_node": 48, "length_km": 778.58321446080595, "delaunay_k": 5, "edge_set": "Delaunay5" }, "geometry": { "type": "LineString", "coordinates": [ [ 5.218506, 61.732826 ], [ 12.240143, 55.764213 ] ] } },
{ "type": "Feature", "properties": { "voltage_kv": 132.0, "from_node": 0, "to_node": 52, "length_km": 783.39520423701254, "delaunay_k": 5, "edge_set": "Delaunay5" }, "geometry": { "type": "LineString", "coordinates": [ [ 5.218506, 61.732826 ], [ 12.389832, 55.761123 ] ] } },
{ "type": "Feature", "properties": { "voltage_kv": 132.0, "from_node": 0, "to_node": 53, "length_km": 769.11180107967675, "delaunay_k": 5, "edge_set": "Delaunay5" }, "geometry": { "type": "LineString", "coordinates": [ [ 5.218506, 61.732826 ], [ 12.474976, 55.935356 ] ] } },
{ "type": "Feature", "properties": { "voltage_kv": 132.0, "from_node": 0, "to_node": 55, "length_km": 770.67466738831865, "delaunay_k": 5, "edge_set": "Delaunay5" }, "geometry": { "type": "LineString", "coordinates": [ [ 5.218506, 61.732826 ], [ 12.520294, 55.933818 ] ] } },
{ "type": "Feature", "properties": { "voltage_kv": 132.0, "from_node": 0, "to_node": 61, "length_km": 770.8962184823697, "delaunay_k": 5, "edge_set": "Delaunay5" }, "geometry": { "type": "LineString", "coordinates": [ [ 5.218506, 61.732826 ], [ 12.933655, 56.070502 ] ] } },
{ "type": "Feature", "properties": { "voltage_kv": 132.0, "from_node": 0, "to_node": 62, "length_km": 1083.2722987730397, "delaunay_k": 5, "edge_set": "Delaunay5" }, "geometry": { "type": "LineString", "coordinates": [ [ 5.218506, 61.732826 ], [ 19.158783, 69.620772 ] ] } },
{ "type": "Feature", "properties": { "voltage_kv": 132.0, "from_node": 0, "to_node": 64, "length_km": 1096.0312489875739, "delaunay_k": 5, "edge_set": "Delaunay5" }, "geometry": { "type": "LineString", "coordinates": [ [ 5.218506, 61.732826 ], [ 19.820709, 69.558512 ] ] } },
{ "type": "Feature", "properties": { "voltage_kv": 132.0, "from_node": 0, "to_node": 65, "length_km": 1087.2447469813808, "delaunay_k": 5, "edge_set": "Delaunay5" }, "geometry": { "type": "LineString", "coordinates": [ [ 5.218506, 61.732826 ], [ 20.376892, 69.243986 ] ] } },
{ "type": "Feature", "properties": { "voltage_kv": 132.0, "from_node": 1, "to_node": 8, "length_km": 264.21820644536257, "delaunay_k": 5, "edge_set": "Delaunay5" }, "geometry": { "type": "LineString", "coordinates": [ [ 5.748596, 61.49256 ], [ 10.122528, 62.681707 ] ] } },
{ "type": "Feature", "properties": { "voltage_kv": 132.0, "from_node": 1, "to_node": 9, "length_km": 268.09727882948721, "delaunay_k": 5, "edge_set": "Delaunay5" }, "geometry": { "type": "LineString", "coordinates": [ [ 5.748596, 61.49256 ], [ 10.266724, 62.628719 ] ] } },
{ "type": "Feature", "properties": { "voltage_kv": 132.0, "from_node": 1, "to_node": 13, "length_km": 770.18865811489468, "delaunay_k": 5, "edge_set": "Delaunay5" }, "geometry": { "type": "LineString", "coordinates": [ [ 5.748596, 61.49256 ], [ 11.295319, 55.21884 ] ] } },
{ "type": "Feature", "properties": { "voltage_kv": 132.0, "from_node": 1, "to_node": 14, "length_km": 747.26822681321426, "delaunay_k": 5, "edge_set": "Delaunay5" }, "geometry": { "type": "LineString", "coordinates": [ [ 5.748596, 61.49256 ], [ 11.348877, 55.455499 ] ] } },
{ "type": "Feature", "properties": { "voltage_kv": 132.0, "from_node": 1, "to_node": 21, "length_km": 746.21237581346384, "delaunay_k": 5, "edge_set": "Delaunay5" }, "geometry": { "type": "LineString", "coordinates": [ [ 5.748596, 61.49256 ], [ 11.670227, 55.548058 ] ] } },
{ "type": "Feature", "properties": { "voltage_kv": 132.0, "from_node": 1, "to_node": 37, "length_km": 752.53911593738508, "delaunay_k": 5, "edge_set": "Delaunay5" }, "geometry": { "type": "LineString", "coordinates": [ [ 5.748596, 61.49256 ], [ 11.949005, 55.560486 ] ] } },
{ "type": "Feature", "properties": { "voltage_kv": 132.0, "from_node": 1, "to_node": 43, "length_km": 751.89552416851689, "delaunay_k": 5, "edge_set": "Delaunay5" }, "geometry": { "type": "LineString", "coordinates": [ [ 5.748596, 61.49256 ], [ 12.108307, 55.611711 ] ] } },
{ "type": "Feature", "properties": { "voltage_kv": 132.0, "from_node": 1, "to_node": 50, "length_km": 751.91998228860018, "delaunay_k": 5, "edge_set": "Delaunay5" }, "geometry": { "type": "LineString", "coordinates": [ [ 5.748596, 61.49256 ], [ 12.311554, 55.670615 ] ] } },
{ "type": "Feature", "properties": { "voltage_kv": 132.0, "from_node": 1, "to_node": 54, "length_km": 757.12076825068311, "delaunay_k": 5, "edge_set": "Delaunay5" }, "geometry": { "type": "LineString", "coordinates": [ [ 5.748596, 61.49256 ], [ 12.490645134825497, 55.671527244775099 ] ] } },
{ "type": "Feature", "properties": { "voltage_kv": 132.0, "from_node": 1, "to_node": 56, "length_km": 752.02000782646485, "delaunay_k": 5, "edge_set": "Delaunay5" }, "geometry": { "type": "LineString", "coordinates": [ [ 5.748596, 61.49256 ], [ 12.527161, 55.734843 ] ] } },
{ "type": "Feature", "properties": { "voltage_kv": 132.0, "from_node": 1, "to_node": 57, "length_km": 747.19242694069453, "delaunay_k": 5, "edge_set": "Delaunay5" }, "geometry": { "type": "LineString", "coordinates": [ [ 5.748596, 61.49256 ], [ 12.56424, 55.795877 ] ] } },
{ "type": "Feature", "properties": { "voltage_kv": 132.0, "from_node": 1, "to_node": 59, "length_km": 753.71490836684984, "delaunay_k": 5, "edge_set": "Delaunay5" }, "geometry": { "type": "LineString", "coordinates": [ [ 5.748596, 61.49256 ], [ 12.580719, 55.73407 ] ] } },
{ "type": "Feature", "properties": { "voltage_kv": 132.0, "from_node": 1, "to_node": 60, "length_km": 760.8262774516146, "delaunay_k": 5, "edge_set": "Delaunay5" }, "geometry": { "type": "LineString", "coordinates": [ [ 5.748596, 61.49256 ], [ 12.583466, 55.662095 ] ] } },
{ "type": "Feature", "properties": { "voltage_kv": 132.0, "from_node": 1, "to_node": 63, "length_km": 1058.7839561981355, "delaunay_k": 5, "edge_set": "Delaunay5" }, "geometry": { "type": "LineString", "coordinates": [ [ 5.748596, 61.49256 ], [ 19.24942, 69.183065 ] ] } },
{ "type": "Feature", "properties": { "voltage_kv": 132.0, "from_node": 2, "to_node": 8, "length_km": 266.02942603228496, "delaunay_k": 5, "edge_set": "Delaunay5" }, "geometry": { "type": "LineString", "coordinates": [ [ 6.093292, 61.233245 ], [ 10.122528, 62.681707 ] ] } },
{ "type": "Feature", "properties": { "voltage_kv": 132.0, "from_node": 2, "to_node": 9, "length_km": 268.76934348487009, "delaunay_k": 5, "edge_set": "Delaunay5" }, "geometry": { "type": "LineString", "coordinates": [ [ 6.093292, 61.233245 ], [ 10.266724, 62.628719 ] ] } },
{ "type": "Feature", "properties": { "voltage_kv": 132.0, "from_node": 2, "to_node": 13, "length_km": 736.02843798218737, "delaunay_k": 5, "edge_set": "Delaunay5" }, "geometry": { "type": "LineString", "coordinates": [ [ 6.093292, 61.233245 ], [ 11.295319, 55.21884 ] ] } },
{ "type": "Feature", "properties": { "voltage_kv": 132.0, "from_node": 2, "to_node": 14, "length_km": 713.05524442220587, "delaunay_k": 5, "edge_set": "Delaunay5" }, "geometry": { "type": "LineString", "coordinates": [ [ 6.093292, 61.233245 ], [ 11.348877, 55.455499 ] ] } },
{ "type": "Feature", "properties": { "voltage_kv": 132.0, "from_node": 2, "to_node": 21, "length_km": 711.93454119157411, "delaunay_k": 5, "edge_set": "Delaunay5" }, "geometry": { "type": "LineString", "coordinates": [ [ 6.093292, 61.233245 ], [ 11.670227, 55.548058 ] ] } },
{ "type": "Feature", "properties": { "voltage_kv": 132.0, "from_node": 2, "to_node": 37, "length_km": 718.2351790139428, "delaunay_k": 5, "edge_set": "Delaunay5" }, "geometry": { "type": "LineString", "coordinates": [ [ 6.093292, 61.233245 ], [ 11.949005, 55.560486 ] ] } },
{ "type": "Feature", "properties": { "voltage_kv": 132.0, "from_node": 2, "to_node": 43, "length_km": 717.58367516869998, "delaunay_k": 5, "edge_set": "Delaunay5" }, "geometry": { "type": "LineString", "coordinates": [ [ 6.093292, 61.233245 ], [ 12.108307, 55.611711 ] ] } },
{ "type": "Feature", "properties": { "voltage_kv": 132.0, "from_node": 2, "to_node": 50, "length_km": 717.61011124421918, "delaunay_k": 5, "edge_set": "Delaunay5" }, "geometry": { "type": "LineString", "coordinates": [ [ 6.093292, 61.233245 ], [ 12.311554, 55.670615 ] ] } },
{ "type": "Feature", "properties": { "voltage_kv": 132.0, "from_node": 2, "to_node": 54, "length_km": 722.81997575564594, "delaunay_k": 5, "edge_set": "Delaunay5" }, "geometry": { "type": "LineString", "coordinates": [ [ 6.093292, 61.233245 ], [ 12.490645134825497, 55.671527244775099 ] ] } },
{ "type": "Feature", "properties": { "voltage_kv": 132.0, "from_node": 2, "to_node": 56, "length_km": 717.72671891424102, "delaunay_k": 5, "edge_set": "Delaunay5" }, "geometry": { "type": "LineString", "coordinates": [ [ 6.093292, 61.233245 ], [ 12.527161, 55.734843 ] ] } },
{ "type": "Feature", "properties": { "voltage_kv": 132.0, "from_node": 2, "to_node": 57, "length_km": 712.90842396413007, "delaunay_k": 5, "edge_set": "Delaunay5" }, "geometry": { "type": "LineString", "coordinates": [ [ 6.093292, 61.233245 ], [ 12.56424, 55.795877 ] ] } },
{ "type": "Feature", "properties": { "voltage_kv": 132.0, "from_node": 2, "to_node": 59, "length_km": 719.42644198699759, "delaunay_k": 5, "edge_set": "Delaunay5" }, "geometry": { "type": "LineString", "coordinates": [ [ 6.093292, 61.233245 ], [ 12.580719, 55.73407 ] ] } },
{ "type": "Feature", "properties": { "voltage_kv": 132.0, "from_node": 2, "to_node": 60, "length_km": 726.53179099340218, "delaunay_k": 5, "edge_set": "Delaunay5" }, "geometry": { "type": "LineString", "coordinates": [ [ 6.093292, 61.233245 ], [ 12.583466, 55.662095 ] ] } },
{ "type": "Feature", "properties": { "voltage_kv": 132.0, "from_node": 2, "to_node": 63, "length_km": 1074.7952793207201, "delaunay_k": 5, "edge_set": "Delaunay5" }, "geometry": { "type": "LineString", "coordinates": [ [ 6.093292, 61.233245 ], [ 19.24942, 69.183065 ] ] } },
{ "type": "Feature", "properties": { "voltage_kv": 132.0, "from_node": 3, "to_node": 19, "length_km": 781.85301549521796, "delaunay_k": 5, "edge_set": "Delaunay5" }, "geometry": { "type": "LineString", "coordinates": [ [ 7.033997, 62.47807 ], [ 11.641388, 55.866835 ] ] } },
{ "type": "Feature", "properties": { "voltage_kv": 132.0, "from_node": 3, "to_node": 31, "length_km": 791.9059671811807, "delaunay_k": 5, "edge_set": "Delaunay5" }, "geometry": { "type": "LineString", "coordinates": [ [ 7.033997, 62.47807 ], [ 11.885834, 55.816715 ] ] } },
{ "type": "Feature", "properties": { "voltage_kv": 132.0, "from_node": 3, "to_node": 46, "length_km": 788.68457630959574, "delaunay_k": 5, "edge_set": "Delaunay5" }, "geometry": { "type": "LineString", "coordinates": [ [ 7.033997, 62.47807 ], [ 12.22641, 55.913812 ] ] } },
{ "type": "Feature", "properties": { "voltage_kv": 132.0, "from_node": 3, "to_node": 47, "length_km": 798.46824239525768, "delaunay_k": 5, "edge_set": "Delaunay5" }, "geometry": { "type": "LineString", "coordinates": [ [ 7.033997, 62.47807 ], [ 12.23465, 55.822116 ] ] } },
{ "type": "Feature", "properties": { "voltage_kv": 132.0, "from_node": 3, "to_node": 58, "length_km": 782.81632186536149, "delaunay_k": 5, "edge_set": "Delaunay5" }, "geometry": { "type": "LineString", "coordinates": [ [ 7.033997, 62.47807 ], [ 12.571106, 56.042897 ] ] } },
{ "type": "Feature", "properties": { "voltage_kv": 132.0, "from_node": 3, "to_node": 66, "length_km": 999.1648215762973, "delaunay_k": 5, "edge_set": "Delaunay5" }, "geometry": { "type": "LineString", "coordinates": [ [ 7.033997, 62.47807 ], [ 21.041565, 69.431516 ] ] } },
{ "type": "Feature", "properties": { "voltage_kv": 132.0, "from_node": 3, "to_node": 67, "length_km": 1051.9562494554107, "delaunay_k": 5, "edge_set": "Delaunay5" }, "geometry": { "type": "LineString", "coordinates": [ [ 7.033997, 62.47807 ], [ 22.138824, 69.713346 ] ] } },
{ "type": "Feature", "properties": { "voltage_kv": 132.0, "from_node": 4, "to_node": 6, "length_km": 220.48348222326791, "delaunay_k": 5, "edge_set": "Delaunay5" }, "geometry": { "type": "LineString", "coordinates": [ [ 7.338867, 61.206798 ], [ 9.930267, 62.764783 ] ] } },
{ "type": "Feature", "properties": { "voltage_kv": 132.0, "from_node": 4, "to_node": 7, "length_km": 266.78408592919499, "delaunay_k": 5, "edge_set": "Delaunay5" }, "geometry": { "type": "LineString", "coordinates": [ [ 7.338867, 61.206798 ], [ 9.933014, 63.271947 ] ] } },
{ "type": "Feature", "properties": { "voltage_kv": 132.0, "from_node": 4, "to_node": 15, "length_km": 705.75864898035752, "delaunay_k": 5, "edge_set": "Delaunay5" }, "geometry": { "type": "LineString", "coordinates": [ [ 7.338867, 61.206798 ], [ 11.416168, 55.244684 ] ] } },
{ "type": "Feature", "properties": { "voltage_kv": 132.0, "from_node": 4, "to_node": 23, "length_km": 704.06004160802752, "delaunay_k": 5, "edge_set": "Delaunay5" }, "geometry": { "type": "LineString", "coordinates": [ [ 7.338867, 61.206798 ], [ 11.715546, 55.318987 ] ] } },
{ "type": "Feature", "properties": { "voltage_kv": 132.0, "from_node": 4, "to_node": 24, "length_km": 697.7740033426951, "delaunay_k": 5, "edge_set": "Delaunay5" }, "geometry": { "type": "LineString", "coordinates": [ [ 7.338867, 61.206798 ], [ 11.727905, 55.381451 ] ] } },
{ "type": "Feature", "properties": { "voltage_kv": 132.0, "from_node": 4, "to_node": 26, "length_km": 692.85222316980298, "delaunay_k": 5, "edge_set": "Delaunay5" }, "geometry": { "type": "LineString", "coordinates": [ [ 7.338867, 61.206798 ], [ 11.786957, 55.4407 ] ] } },
{ "type": "Feature", "properties": { "voltage_kv": 132.0, "from_node": 4, "to_node": 27, "length_km": 722.90278417018067, "delaunay_k": 5, "edge_set": "Delaunay5" }, "geometry": { "type": "LineString", "coordinates": [ [ 7.338867, 61.206798 ], [ 11.797943, 55.15612 ] ] } },
{ "type": "Feature", "properties": { "voltage_kv": 132.0, "from_node": 4, "to_node": 35, "length_km": 728.74387245479193, "delaunay_k": 5, "edge_set": "Delaunay5" }, "geometry": { "type": "LineString", "coordinates": [ [ 7.338867, 61.206798 ], [ 11.932526, 55.127864 ] ] } },
{ "type": "Feature", "properties": { "voltage_kv": 132.0, "from_node": 4, "to_node": 39, "length_km": 768.46945757765297, "delaunay_k": 5, "edge_set": "Delaunay5" }, "geometry": { "type": "LineString", "coordinates": [ [ 7.338867, 61.206798 ], [ 11.965485, 54.756331 ] ] } },
{ "type": "Feature", "properties": { "voltage_kv": 132.0, "from_node": 4, "to_node": 40, "length_km": 691.39567344319426, "delaunay_k": 5, "edge_set": "Delaunay5" }, "geometry": { "type": "LineString", "coordinates": [ [ 7.338867, 61.206798 ], [ 11.990204, 55.498305 ] ] } },
{ "type": "Feature", "properties": { "voltage_kv": 132.0, "from_node": 4, "to_node": 41, "length_km": 707.48219114138976, "delaunay_k": 5, "edge_set": "Delaunay5" }, "geometry": { "type": "LineString", "coordinates": [ [ 7.338867, 61.206798 ], [ 12.024536, 55.351012 ] ] } },
{ "type": "Feature", "properties": { "voltage_kv": 132.0, "from_node": 4, "to_node": 45, "length_km": 695.49488081177049, "delaunay_k": 5, "edge_set": "Delaunay5" }, "geometry": { "type": "LineString", "coordinates": [ [ 7.338867, 61.206798 ], [ 12.170105, 55.499083 ] ] } },
{ "type": "Feature", "properties": { "voltage_kv": 132.0, "from_node": 4, "to_node": 49, "length_km": 691.60968110727924, "delaunay_k": 5, "edge_set": "Delaunay5" }, "geometry": { "type": "LineString", "coordinates": [ [ 7.338867, 61.206798 ], [ 12.268982, 55.559709 ] ] } },
{ "type": "Feature", "properties": { "voltage_kv": 132.0, "from_node": 4, "to_node": 51, "length_km": 688.39782480823942, "delaunay_k": 5, "edge_set": "Delaunay5" }, "geometry": { "type": "LineString", "coordinates": [ [ 7.338867, 61.206798 ], [ 12.362366, 55.613262 ] ] } },
{ "type": "Feature", "properties": { "voltage_kv": 132.0, "from_node": 5, "to_node": 42, "length_km": 801.7808192810528, "delaunay_k": 5, "edge_set": "Delaunay5" }, "geometry": { "type": "LineString", "coordinates": [ [ 9.602051, 63.058071 ], [ 12.061615, 55.969187 ] ] } },
{ "type": "Feature", "properties": { "voltage_kv": 132.0, "from_node": 5, "to_node": 68, "length_km": 978.90678867387669, "delaunay_k": 5, "edge_set": "Delaunay5" }, "geometry": { "type": "LineString", "coordinates": [ [ 9.602051, 63.058071 ], [ 23.410492, 69.935012 ] ] } },
{ "type": "Feature", "properties": { "voltage_kv": 132.0, "from_node": 5, "to_node": 69, "length_km": 975.7459198948228, "delaunay_k": 5, "edge_set": "Delaunay5" }, "geometry": { "type": "LineString", "coordinates": [ [ 9.602051, 63.058071 ], [ 23.990021, 69.68142 ] ] } },
{ "type": "Feature", "properties": { "voltage_kv": 132.0, "from_node": 5, "to_node": 70, "length_km": 1045.0798745776976, "delaunay_k": 5, "edge_set": "Delaunay5" }, "geometry": { "type": "LineString", "coordinates": [ [ 9.602051, 63.058071 ], [ 24.613495, 70.363091 ] ] } },
{ "type": "Feature", "properties": { "voltage_kv": 132.0, "from_node": 6, "to_node": 68, "length_km": 997.95499046694124, "delaunay_k": 5, "edge_set": "Delaunay5" }, "geometry": { "type": "LineString", "coordinates": [ [ 9.930267, 62.764783 ], [ 23.410492, 69.935012 ] ] } },
{ "type": "Feature", "properties": { "voltage_kv": 132.0, "from_node": 6, "to_node": 69, "length_km": 993.63840153072874, "delaunay_k": 5, "edge_set": "Delaunay5" }, "geometry": { "type": "LineString", "coordinates": [ [ 9.930267, 62.764783 ], [ 23.990021, 69.68142 ] ] } },
{ "type": "Feature", "properties": { "voltage_kv": 132.0, "from_node": 6, "to_node": 70, "length_km": 1064.1750364062148, "delaunay_k": 5, "edge_set": "Delaunay5" }, "geometry": { "type": "LineString", "coordinates": [ [ 9.930267, 62.764783 ], [ 24.613495, 70.363091 ] ] } },
{ "type": "Feature", "properties": { "voltage_kv": 132.0, "from_node": 7, "to_node": 71, "length_km": 1001.0771646295807, "delaunay_k": 5, "edge_set": "Delaunay5" }, "geometry": { "type": "LineString", "coordinates": [ [ 9.933014, 63.271947 ], [ 25.157318, 69.959498 ] ] } },
{ "type": "Feature", "properties": { "voltage_kv": 132.0, "from_node": 7, "to_node": 72, "length_km": 1065.1882891578778, "delaunay_k": 5, "edge_set": "Delaunay5" }, "geometry": { "type": "LineString", "coordinates": [ [ 9.933014, 63.271947 ], [ 26.545715, 70.286801 ] ] } },
{ "type": "Feature", "properties": { "voltage_kv": 132.0, "from_node": 8, "to_node": 68, "length_km": 1000.9071826396796, "delaunay_k": 5, "edge_set": "Delaunay5" }, "geometry": { "type": "LineString", "coordinates": [ [ 10.122528, 62.681707 ], [ 23.410492, 69.935012 ] ] } },
{ "type": "Feature", "properties": { "voltage_kv": 132.0, "from_node": 8, "to_node": 69, "length_km": 996.11477918528021, "delaunay_k": 5, "edge_set": "Delaunay5" }, "geometry": { "type": "LineString", "coordinates": [ [ 10.122528, 62.681707 ], [ 23.990021, 69.68142 ] ] } },
{ "type": "Feature", "properties": { "voltage_kv": 132.0, "from_node": 8, "to_node": 70, "length_km": 1067.1283652834663, "delaunay_k": 5, "edge_set": "Delaunay5" }, "geometry": { "type": "LineString", "coordinates": [ [ 10.122528, 62.681707 ], [ 24.613495, 70.363091 ] ] } },
{ "type": "Feature", "properties": { "voltage_kv": 132.0, "from_node": 9, "to_node": 68, "length_km": 1002.2999528239235, "delaunay_k": 5, "edge_set": "Delaunay5" }, "geometry": { "type": "LineString", "coordinates": [ [ 10.266724, 62.628719 ], [ 23.410492, 69.935012 ] ] } },
{ "type": "Feature", "properties": { "voltage_kv": 132.0, "from_node": 9, "to_node": 69, "length_km": 997.17133252485655, "delaunay_k": 5, "edge_set": "Delaunay5" }, "geometry": { "type": "LineString", "coordinates": [ [ 10.266724, 62.628719 ], [ 23.990021, 69.68142 ] ] } },
{ "type": "Feature", "properties": { "voltage_kv": 132.0, "from_node": 9, "to_node": 70, "length_km": 1068.5154010132983, "delaunay_k": 5, "edge_set": "Delaunay5" }, "geometry": { "type": "LineString", "coordinates": [ [ 10.266724, 62.628719 ], [ 24.613495, 70.363091 ] ] } },
{ "type": "Feature", "properties": { "voltage_kv": 132.0, "from_node": 11, "to_node": 66, "length_km": 959.82422108705248, "delaunay_k": 5, "edge_set": "Delaunay5" }, "geometry": { "type": "LineString", "coordinates": [ [ 11.12915, 61.837358 ], [ 21.041565, 69.431516 ] ] } },
{ "type": "Feature", "properties": { "voltage_kv": 132.0, "from_node": 11, "to_node": 67, "length_km": 1009.9375378555553, "delaunay_k": 5, "edge_set": "Delaunay5" }, "geometry": { "type": "LineString", "coordinates": [ [ 11.12915, 61.837358 ], [ 22.138824, 69.713346 ] ] } },
{ "type": "Feature", "properties": { "voltage_kv": 132.0, "from_node": 12, "to_node": 42, "length_km": 134.43206575846318, "delaunay_k": 5, "edge_set": "Delaunay5" }, "geometry": { "type": "LineString", "coordinates": [ [ 11.190948, 54.867915 ], [ 12.061615, 55.969187 ] ] } },
{ "type": "Feature", "properties": { "voltage_kv": 132.0, "from_node": 12, "to_node": 55, "length_km": 145.51478274923812, "delaunay_k": 5, "edge_set": "Delaunay5" }, "geometry": { "type": "LineString", "coordinates": [ [ 11.190948, 54.867915 ], [ 12.520294, 55.933818 ] ] } },
{ "type": "Feature", "properties": { "voltage_kv": 132.0, "from_node": 12, "to_node": 57, "length_km": 135.16145135590492, "delaunay_k": 5, "edge_set": "Delaunay5" }, "geometry": { "type": "LineString", "coordinates": [ [ 11.190948, 54.867915 ], [ 12.56424, 55.795877 ] ] } },
{ "type": "Feature", "properties": { "voltage_kv": 132.0, "from_node": 12, "to_node": 58, "length_km": 157.27632651643239, "delaunay_k": 5, "edge_set": "Delaunay5" }, "geometry": { "type": "LineString", "coordinates": [ [ 11.190948, 54.867915 ], [ 12.571106, 56.042897 ] ] } },
{ "type": "Feature", "properties": { "voltage_kv": 132.0, "from_node": 16, "to_node": 51, "length_km": 128.69095542197439, "delaunay_k": 5, "edge_set": "Delaunay5" }, "geometry": { "type": "LineString", "coordinates": [ [ 11.501312, 54.568081 ], [ 12.362366, 55.613262 ] ] } },
{ "type": "Feature", "properties": { "voltage_kv": 132.0, "from_node": 16, "to_node": 54, "length_km": 138.11205081730338, "delaunay_k": 5, "edge_set": "Delaunay5" }, "geometry": { "type": "LineString", "coordinates": [ [ 11.501312, 54.568081 ], [ 12.490645134825497, 55.671527244775099 ] ] } },
{ "type": "Feature", "properties": { "voltage_kv": 132.0, "from_node": 16, "to_node": 56, "length_km": 145.42811713011605, "delaunay_k": 5, "edge_set": "Delaunay5" }, "geometry": { "type": "LineString", "coordinates": [ [ 11.501312, 54.568081 ], [ 12.527161, 55.734843 ] ] } },
{ "type": "Feature", "properties": { "voltage_kv": 132.0, "from_node": 16, "to_node": 59, "length_km": 146.91955847905109, "delaunay_k": 5, "edge_set": "Delaunay5" }, "geometry": { "type": "LineString", "coordinates": [ [ 11.501312, 54.568081 ], [ 12.580719, 55.73407 ] ] } },
{ "type": "Feature", "properties": { "voltage_kv": 132.0, "from_node": 16, "to_node": 61, "length_km": 190.38367349262441, "delaunay_k": 5, "edge_set": "Delaunay5" }, "geometry": { "type": "LineString", "coordinates": [ [ 11.501312, 54.568081 ], [ 12.933655, 56.070502 ] ] } },
{ "type": "Feature", "properties": { "voltage_kv": 132.0, "from_node": 17, "to_node": 19, "length_km": 128.25441799902572, "delaunay_k": 5, "edge_set": "Delaunay5" }, "geometry": { "type": "LineString", "coordinates": [ [ 11.504059, 54.717482 ], [ 11.641388, 55.866835 ] ] } },
{ "type": "Feature", "properties": { "voltage_kv": 132.0, "from_node": 17, "to_node": 52, "length_km": 129.12972539895307, "delaunay_k": 5, "edge_set": "Delaunay5" }, "geometry": { "type": "LineString", "coordinates": [ [ 11.504059, 54.717482 ], [ 12.389832, 55.761123 ] ] } },
{ "type": "Feature", "properties": { "voltage_kv": 132.0, "from_node": 17, "to_node": 55, "length_km": 149.99410584150704, "delaunay_k": 5, "edge_set": "Delaunay5" }, "geometry": { "type": "LineString", "coordinates": [ [ 11.504059, 54.717482 ], [ 12.520294, 55.933818 ] ] } },
{ "type": "Feature", "properties": { "voltage_kv": 132.0, "from_node": 17, "to_node": 57, "length_km": 137.6881647687959, "delaunay_k": 5, "edge_set": "Delaunay5" }, "geometry": { "type": "LineString", "coordinates": [ [ 11.504059, 54.717482 ], [ 12.56424, 55.795877 ] ] } },
{ "type": "Feature", "properties": { "voltage_kv": 132.0, "from_node": 17, "to_node": 58, "length_km": 162.3233074071253, "delaunay_k": 5, "edge_set": "Delaunay5" }, "geometry": { "type": "LineString", "coordinates": [ [ 11.504059, 54.717482 ], [ 12.571106, 56.042897 ] ] } },
{ "type": "Feature", "properties": { "voltage_kv": 132.0, "from_node": 20, "to_node": 60, "length_km": 137.25125273485006, "delaunay_k": 5, "edge_set": "Delaunay5" }, "geometry": { "type": "LineString", "coordinates": [ [ 11.661987, 54.548173 ], [ 12.583466, 55.662095 ] ] } },
{ "type": "Feature", "properties": { "voltage_kv": 132.0, "from_node": 22, "to_node": 42, "length_km": 134.30563257451035, "delaunay_k": 5, "edge_set": "Delaunay5" }, "geometry": { "type": "LineString", "coordinates": [ [ 11.712799, 54.779306 ], [ 12.061615, 55.969187 ] ] } },
{ "type": "Feature", "properties": { "voltage_kv": 132.0, "from_node": 22, "to_node": 46, "length_km": 130.44250876135729, "delaunay_k": 5, "edge_set": "Delaunay5" }, "geometry": { "type": "LineString", "coordinates": [ [ 11.712799, 54.779306 ], [ 12.22641, 55.913812 ] ] } },
{ "type": "Feature", "properties": { "voltage_kv": 132.0, "from_node": 22, "to_node": 53, "length_km": 137.48507718424636, "delaunay_k": 5, "edge_set": "Delaunay5" }, "geometry": { "type": "LineString", "coordinates": [ [ 11.712799, 54.779306 ], [ 12.474976, 55.935356 ] ] } },
{ "type": "Feature", "properties": { "voltage_kv": 132.0, "from_node": 29, "to_node": 58, "length_km": 132.04478412751584, "delaunay_k": 5, "edge_set": "Delaunay5" }, "geometry": { "type": "LineString", "coordinates": [ [ 11.851501, 54.929509 ], [ 12.571106, 56.042897 ] ] } },
{ "type": "Feature", "properties": { "voltage_kv": 132.0, "from_node": 62, "to_node": 74, "length_km": 407.0201324377266, "delaunay_k": 5, "edge_set": "Delaunay5" }, "geometry": { "type": "LineString", "coordinates": [ [ 19.158783, 69.620772 ], [ 29.549103, 69.440681 ] ] } },
{ "type": "Feature", "properties": { "voltage_kv": 132.0, "from_node": 62, "to_node": 75, "length_km": 426.49007042671059, "delaunay_k": 5, "edge_set": "Delaunay5" }, "geometry": { "type": "LineString", "coordinates": [ [ 19.158783, 69.620772 ], [ 30.120392, 69.682374 ] ] } },
{ "type": "Feature", "properties": { "voltage_kv": 132.0, "from_node": 63, "to_node": 73, "length_km": 378.44184534772558, "delaunay_k": 5, "edge_set": "Delaunay5" }, "geometry": { "type": "LineString", "coordinates": [ [ 19.24942, 69.183065 ], [ 28.572693, 70.163212 ] ] } },
{ "type": "Feature", "properties": { "voltage_kv": 132.0, "from_node": 64, "to_node": 74, "length_km": 381.51849823646558, "delaunay_k": 5, "edge_set": "Delaunay5" }, "geometry": { "type": "LineString", "coordinates": [ [ 19.820709, 69.558512 ], [ 29.549103, 69.440681 ] ] } },
{ "type": "Feature", "properties": { "voltage_kv": 132.0, "from_node": 64, "to_node": 75, "length_km": 401.630261078481, "delaunay_k": 5, "edge_set": "Delaunay5" }, "geometry": { "type": "LineString", "coordinates": [ [ 19.820709, 69.558512 ], [ 30.120392, 69.682374 ] ] } },
{ "type": "Feature", "properties": { "voltage_kv": 132.0, "from_node": 65, "to_node": 73, "length_km": 334.32125760958672, "delaunay_k": 5, "edge_set": "Delaunay5" }, "geometry": { "type": "LineString", "coordinates": [ [ 20.376892, 69.243986 ], [ 28.572693, 70.163212 ] ] } },
{ "type": "Feature", "properties": { "voltage_kv": 132.0, "from_node": 66, "to_node": 74, "length_km": 334.60954115011629, "delaunay_k": 5, "edge_set": "Delaunay5" }, "geometry": { "type": "LineString", "coordinates": [ [ 21.041565, 69.431516 ], [ 29.549103, 69.440681 ] ] } },
{ "type": "Feature", "properties": { "voltage_kv": 132.0, "from_node": 66, "to_node": 75, "length_km": 356.16792908682135, "delaunay_k": 5, "edge_set": "Delaunay5" }, "geometry": { "type": "LineString", "coordinates": [ [ 21.041565, 69.431516 ], [ 30.120392, 69.682374 ] ] } }
]
}
