{
"type": "FeatureCollection",
"name": "n490_300kv_delaunay5",
"crs": { "type": "name", "properties": { "name": "urn:ogc:def:crs:OGC:1.3:CRS84" } },
"features": [
{ "type": "Feature", "properties": { "voltage_kv": 300.0, "from_node": 1, "to_node": 49, "length_km": 141.58568916071042, "delaunay_k": 5, "edge_set": "Delaunay5" }, "geometry": { "type": "LineString", "coordinates": [ [ 5.259705, 60.456541 ], [ 7.36908, 59.747402 ] ] } },
{ "type": "Feature", "properties": { "voltage_kv": 300.0, "from_node": 2, "to_node": 32, "length_km": 135.15077780237584, "delaunay_k": 5, "edge_set": "Delaunay5" }, "geometry": { "type": "LineString", "coordinates": [ [ 5.262451, 59.225853 ], [ 6.797791, 60.156543 ] ] } },
{ "type": "Feature", "properties": { "voltage_kv": 300.0, "from_node": 2, "to_node": 39, "length_km": 145.80385117642226, "delaunay_k": 5, "edge_set": "Delaunay5" }, "geometry": { "type": "LineString", "coordinates": [ [ 5.262451, 59.225853 ], [ 7.001038, 58.28062 ] ] } },
{ "type": "Feature", "properties": { "voltage_kv": 300.0, "from_node": 2, "to_node": 48, "length_km": 134.31521178738714, "delaunay_k": 5, "edge_set": "Delaunay5" }, "geometry": { "type": "LineString", "coordinates": [ [ 5.262451, 59.225853 ], [ 7.34024, 59.805469 ] ] } },
{ "type": "Feature", "properties": { "voltage_kv": 300.0, "from_node": 2, "to_node": 49, "length_km": 132.88127993960529, "delaunay_k": 5, "edge_set": "Delaunay5" }, "geometry": { "type": "LineString", "coordinates": [ [ 5.262451, 59.225853 ], [ 7.36908, 59.747402 ] ] } },
{ "type": "Feature", "properties": { "voltage_kv": 300.0, "from_node": 2, "to_node": 55, "length_km": 152.16586052971613, "delaunay_k": 5, "edge_set": "Delaunay5" }, "geometry": { "type": "LineString", "coordinates": [ [ 5.262451, 59.225853 ], [ 7.819519, 59.632352 ] ] } },
{ "type": "Feature", "properties": { "voltage_kv": 300.0, "from_node": 3, "to_node": 23, "length_km": 141.70313603022041, "delaunay_k": 5, "edge_set": "Delaunay5" }, "geometry": { "type": "LineString", "coordinates": [ [ 5.39978, 59.495303 ], [ 6.554718, 58.373638 ] ] } },
{ "type": "Feature", "properties": { "voltage_kv": 300.0, "from_node": 3, "to_node": 33, "length_km": 123.89993078759561, "delaunay_k": 5, "edge_set": "Delaunay5" }, "geometry": { "type": "LineString", "coordinates": [ [ 5.39978, 59.495303 ], [ 6.82251, 58.659799 ] ] } },
{ "type": "Feature", "properties": { "voltage_kv": 300.0, "from_node": 3, "to_node": 42, "length_km": 122.30491421539998, "delaunay_k": 5, "edge_set": "Delaunay5" }, "geometry": { "type": "LineString", "coordinates": [ [ 5.39978, 59.495303 ], [ 7.115021, 58.841464 ] ] } },
{ "type": "Feature", "properties": { "voltage_kv": 300.0, "from_node": 3, "to_node": 54, "length_km": 137.69646319429739, "delaunay_k": 5, "edge_set": "Delaunay5" }, "geometry": { "type": "LineString", "coordinates": [ [ 5.39978, 59.495303 ], [ 7.772827, 59.780596 ] ] } },
{ "type": "Feature", "properties": { "voltage_kv": 300.0, "from_node": 3, "to_node": 55, "length_km": 137.75870032280034, "delaunay_k": 5, "edge_set": "Delaunay5" }, "geometry": { "type": "LineString", "coordinates": [ [ 5.39978, 59.495303 ], [ 7.819519, 59.632352 ] ] } },
{ "type": "Feature", "properties": { "voltage_kv": 300.0, "from_node": 5, "to_node": 14, "length_km": 143.44874828990058, "delaunay_k": 5, "edge_set": "Delaunay5" }, "geometry": { "type": "LineString", "coordinates": [ [ 5.461578, 59.768152 ], [ 6.008148, 58.513066 ] ] } },
{ "type": "Feature", "properties": { "voltage_kv": 300.0, "from_node": 5, "to_node": 30, "length_km": 123.66453583227332, "delaunay_k": 5, "edge_set": "Delaunay5" }, "geometry": { "type": "LineString", "coordinates": [ [ 5.461578, 59.768152 ], [ 6.756592, 58.878393 ] ] } },
{ "type": "Feature", "properties": { "voltage_kv": 300.0, "from_node": 5, "to_node": 36, "length_km": 126.77776481843776, "delaunay_k": 5, "edge_set": "Delaunay5" }, "geometry": { "type": "LineString", "coordinates": [ [ 5.461578, 59.768152 ], [ 6.892548, 58.897552 ] ] } },
{ "type": "Feature", "properties": { "voltage_kv": 300.0, "from_node": 5, "to_node": 44, "length_km": 127.8590918373777, "delaunay_k": 5, "edge_set": "Delaunay5" }, "geometry": { "type": "LineString", "coordinates": [ [ 5.461578, 59.768152 ], [ 7.120514, 58.994604 ] ] } },
{ "type": "Feature", "properties": { "voltage_kv": 300.0, "from_node": 5, "to_node": 54, "length_km": 129.95894196048238, "delaunay_k": 5, "edge_set": "Delaunay5" }, "geometry": { "type": "LineString", "coordinates": [ [ 5.461578, 59.768152 ], [ 7.772827, 59.780596 ] ] } },
{ "type": "Feature", "properties": { "voltage_kv": 300.0, "from_node": 5, "to_node": 55, "length_km": 133.72938372963446, "delaunay_k": 5, "edge_set": "Delaunay5" }, "geometry": { "type": "LineString", "coordinates": [ [ 5.461578, 59.768152 ], [ 7.819519, 59.632352 ] ] } },
{ "type": "Feature", "properties": { "voltage_kv": 300.0, "from_node": 6, "to_node": 22, "length_km": 120.81893818925461, "delaunay_k": 5, "edge_set": "Delaunay5" }, "geometry": { "type": "LineString", "coordinates": [ [ 5.494537, 60.42131 ], [ 6.491547, 59.460431 ] ] } },
{ "type": "Feature", "properties": { "voltage_kv": 300.0, "from_node": 6, "to_node": 25, "length_km": 125.04653440777976, "delaunay_k": 5, "edge_set": "Delaunay5" }, "geometry": { "type": "LineString", "coordinates": [ [ 5.494537, 60.42131 ], [ 6.650848, 59.461826 ] ] } },
{ "type": "Feature", "properties": { "voltage_kv": 300.0, "from_node": 6, "to_node": 26, "length_km": 139.77775617838748, "delaunay_k": 5, "edge_set": "Delaunay5" }, "geometry": { "type": "LineString", "coordinates": [ [ 5.494537, 60.42131 ], [ 6.663208, 59.314272 ] ] } },
{ "type": "Feature", "properties": { "voltage_kv": 300.0, "from_node": 6, "to_node": 41, "length_km": 117.81456788351568, "delaunay_k": 5, "edge_set": "Delaunay5" }, "geometry": { "type": "LineString", "coordinates": [ [ 5.494537, 60.42131 ], [ 7.086182, 59.725947 ] ] } },
{ "type": "Feature", "properties": { "voltage_kv": 300.0, "from_node": 7, "to_node": 39, "length_km": 142.21715708903002, "delaunay_k": 5, "edge_set": "Delaunay5" }, "geometry": { "type": "LineString", "coordinates": [ [ 5.568695, 59.317075 ], [ 7.001038, 58.28062 ] ] } },
{ "type": "Feature", "properties": { "voltage_kv": 300.0, "from_node": 7, "to_node": 54, "length_km": 135.04176852990551, "delaunay_k": 5, "edge_set": "Delaunay5" }, "geometry": { "type": "LineString", "coordinates": [ [ 5.568695, 59.317075 ], [ 7.772827, 59.780596 ] ] } },
{ "type": "Feature", "properties": { "voltage_kv": 300.0, "from_node": 8, "to_node": 19, "length_km": 129.72171070435394, "delaunay_k": 5, "edge_set": "Delaunay5" }, "geometry": { "type": "LineString", "coordinates": [ [ 5.623627, 59.00592 ], [ 6.297913, 60.117566 ] ] } },
{ "type": "Feature", "properties": { "voltage_kv": 300.0, "from_node": 8, "to_node": 28, "length_km": 133.07497115787305, "delaunay_k": 5, "edge_set": "Delaunay5" }, "geometry": { "type": "LineString", "coordinates": [ [ 5.623627, 59.00592 ], [ 6.70166, 60.066211 ] ] } },
{ "type": "Feature", "properties": { "voltage_kv": 300.0, "from_node": 8, "to_node": 32, "length_km": 144.47998652307896, "delaunay_k": 5, "edge_set": "Delaunay5" }, "geometry": { "type": "LineString", "coordinates": [ [ 5.623627, 59.00592 ], [ 6.797791, 60.156543 ] ] } },
{ "type": "Feature", "properties": { "voltage_kv": 300.0, "from_node": 8, "to_node": 48, "length_km": 132.1767947955442, "delaunay_k": 5, "edge_set": "Delaunay5" }, "geometry": { "type": "LineString", "coordinates": [ [ 5.623627, 59.00592 ], [ 7.34024, 59.805469 ] ] } },
{ "type": "Feature", "properties": { "voltage_kv": 300.0, "from_node": 8, "to_node": 54, "length_km": 149.64946781992006, "delaunay_k": 5, "edge_set": "Delaunay5" }, "geometry": { "type": "LineString", "coordinates": [ [ 5.623627, 59.00592 ], [ 7.772827, 59.780596 ] ] } },
{ "type": "Feature", "properties": { "voltage_kv": 300.0, "from_node": 9, "to_node": 12, "length_km": 111.5102317540637, "delaunay_k": 5, "edge_set": "Delaunay5" }, "geometry": { "type": "LineString", "coordinates": [ [ 5.715637, 58.926626 ], [ 5.868073, 59.923367 ] ] } },
{ "type": "Feature", "properties": { "voltage_kv": 300.0, "from_node": 9, "to_node": 17, "length_km": 107.58616940903062, "delaunay_k": 5, "edge_set": "Delaunay5" }, "geometry": { "type": "LineString", "coordinates": [ [ 5.715637, 58.926626 ], [ 6.113892, 59.869641 ] ] } },
{ "type": "Feature", "properties": { "voltage_kv": 300.0, "from_node": 9, "to_node": 29, "length_km": 120.50422053447544, "delaunay_k": 5, "edge_set": "Delaunay5" }, "geometry": { "type": "LineString", "coordinates": [ [ 5.715637, 58.926626 ], [ 6.745605, 59.871019 ] ] } },
{ "type": "Feature", "properties": { "voltage_kv": 300.0, "from_node": 9, "to_node": 38, "length_km": 124.10777060894252, "delaunay_k": 5, "edge_set": "Delaunay5" }, "geometry": { "type": "LineString", "coordinates": [ [ 5.715637, 58.926626 ], [ 6.968079, 59.837916 ] ] } },
{ "type": "Feature", "properties": { "voltage_kv": 300.0, "from_node": 9, "to_node": 40, "length_km": 122.67789237905141, "delaunay_k": 5, "edge_set": "Delaunay5" }, "geometry": { "type": "LineString", "coordinates": [ [ 5.715637, 58.926626 ], [ 7.080688, 59.777831 ] ] } },
{ "type": "Feature", "properties": { "voltage_kv": 300.0, "from_node": 9, "to_node": 49, "length_km": 131.32147378339641, "delaunay_k": 5, "edge_set": "Delaunay5" }, "geometry": { "type": "LineString", "coordinates": [ [ 5.715637, 58.926626 ], [ 7.36908, 59.747402 ] ] } },
{ "type": "Feature", "properties": { "voltage_kv": 300.0, "from_node": 9, "to_node": 55, "length_km": 143.52069178952078, "delaunay_k": 5, "edge_set": "Delaunay5" }, "geometry": { "type": "LineString", "coordinates": [ [ 5.715637, 58.926626 ], [ 7.819519, 59.632352 ] ] } },
{ "type": "Feature", "properties": { "voltage_kv": 300.0, "from_node": 10, "to_node": 12, "length_km": 122.49857708637022, "delaunay_k": 5, "edge_set": "Delaunay5" }, "geometry": { "type": "LineString", "coordinates": [ [ 5.756836, 58.82654 ], [ 5.868073, 59.923367 ] ] } },
{ "type": "Feature", "properties": { "voltage_kv": 300.0, "from_node": 10, "to_node": 17, "length_km": 118.10018472356049, "delaunay_k": 5, "edge_set": "Delaunay5" }, "geometry": { "type": "LineString", "coordinates": [ [ 5.756836, 58.82654 ], [ 6.113892, 59.869641 ] ] } },
{ "type": "Feature", "properties": { "voltage_kv": 300.0, "from_node": 10, "to_node": 29, "length_km": 129.37018433683033, "delaunay_k": 5, "edge_set": "Delaunay5" }, "geometry": { "type": "LineString", "coordinates": [ [ 5.756836, 58.82654 ], [ 6.745605, 59.871019 ] ] } },
{ "type": "Feature", "properties": { "voltage_kv": 300.0, "from_node": 10, "to_node": 38, "length_km": 132.21405109838096, "delaunay_k": 5, "edge_set": "Delaunay5" }, "geometry": { "type": "LineString", "coordinates": [ [ 5.756836, 58.82654 ], [ 6.968079, 59.837916 ] ] } },
{ "type": "Feature", "properties": { "voltage_kv": 300.0, "from_node": 10, "to_node": 40, "length_km": 130.19254709888966, "delaunay_k": 5, "edge_set": "Delaunay5" }, "geometry": { "type": "LineString", "coordinates": [ [ 5.756836, 58.82654 ], [ 7.080688, 59.777831 ] ] } },
{ "type": "Feature", "properties": { "voltage_kv": 300.0, "from_node": 10, "to_node": 49, "length_km": 137.84121488548342, "delaunay_k": 5, "edge_set": "Delaunay5" }, "geometry": { "type": "LineString", "coordinates": [ [ 5.756836, 58.82654 ], [ 7.36908, 59.747402 ] ] } },
{ "type": "Feature", "properties": { "voltage_kv": 300.0, "from_node": 10, "to_node": 55, "length_km": 148.18882603253056, "delaunay_k": 5, "edge_set": "Delaunay5" }, "geometry": { "type": "LineString", "coordinates": [ [ 5.756836, 58.82654 ], [ 7.819519, 59.632352 ] ] } },
{ "type": "Feature", "properties": { "voltage_kv": 300.0, "from_node": 11, "to_node": 41, "length_km": 124.91324587596736, "delaunay_k": 5, "edge_set": "Delaunay5" }, "geometry": { "type": "LineString", "coordinates": [ [ 5.847473, 60.661069 ], [ 7.086182, 59.725947 ] ] } },
{ "type": "Feature", "properties": { "voltage_kv": 300.0, "from_node": 12, "to_node": 27, "length_km": 106.30553816497248, "delaunay_k": 5, "edge_set": "Delaunay5" }, "geometry": { "type": "LineString", "coordinates": [ [ 5.868073, 59.923367 ], [ 6.696167, 59.068096 ] ] } },
{ "type": "Feature", "properties": { "voltage_kv": 300.0, "from_node": 12, "to_node": 35, "length_km": 107.56043467789054, "delaunay_k": 5, "edge_set": "Delaunay5" }, "geometry": { "type": "LineString", "coordinates": [ [ 5.868073, 59.923367 ], [ 6.889801, 59.110423 ] ] } },
{ "type": "Feature", "properties": { "voltage_kv": 300.0, "from_node": 12, "to_node": 43, "length_km": 115.0716327093869, "delaunay_k": 5, "edge_set": "Delaunay5" }, "geometry": { "type": "LineString", "coordinates": [ [ 5.868073, 59.923367 ], [ 7.119141, 59.110423 ] ] } },
{ "type": "Feature", "properties": { "voltage_kv": 300.0, "from_node": 12, "to_node": 55, "length_km": 114.39876563439961, "delaunay_k": 5, "edge_set": "Delaunay5" }, "geometry": { "type": "LineString", "coordinates": [ [ 5.868073, 59.923367 ], [ 7.819519, 59.632352 ] ] } },
{ "type": "Feature", "properties": { "voltage_kv": 300.0, "from_node": 12, "to_node": 57, "length_km": 125.84056944703815, "delaunay_k": 5, "edge_set": "Delaunay5" }, "geometry": { "type": "LineString", "coordinates": [ [ 5.868073, 59.923367 ], [ 7.901917, 59.457639 ] ] } },
{ "type": "Feature", "properties": { "voltage_kv": 300.0, "from_node": 13, "to_node": 40, "length_km": 133.16882365073303, "delaunay_k": 5, "edge_set": "Delaunay5" }, "geometry": { "type": "LineString", "coordinates": [ [ 5.968323, 60.836881 ], [ 7.080688, 59.777831 ] ] } },
{ "type": "Feature", "properties": { "voltage_kv": 300.0, "from_node": 13, "to_node": 41, "length_km": 138.48221791165801, "delaunay_k": 5, "edge_set": "Delaunay5" }, "geometry": { "type": "LineString", "coordinates": [ [ 5.968323, 60.836881 ], [ 7.086182, 59.725947 ] ] } },
{ "type": "Feature", "properties": { "voltage_kv": 300.0, "from_node": 13, "to_node": 49, "length_km": 144.1119701815461, "delaunay_k": 5, "edge_set": "Delaunay5" }, "geometry": { "type": "LineString", "coordinates": [ [ 5.968323, 60.836881 ], [ 7.36908, 59.747402 ] ] } },
{ "type": "Feature", "properties": { "voltage_kv": 300.0, "from_node": 14, "to_node": 20, "length_km": 131.04350671227184, "delaunay_k": 5, "edge_set": "Delaunay5" }, "geometry": { "type": "LineString", "coordinates": [ [ 6.008148, 58.513066 ], [ 6.432495, 59.667741 ] ] } },
{ "type": "Feature", "properties": { "voltage_kv": 300.0, "from_node": 14, "to_node": 37, "length_km": 143.09744515983036, "delaunay_k": 5, "edge_set": "Delaunay5" }, "geometry": { "type": "LineString", "coordinates": [ [ 6.008148, 58.513066 ], [ 6.904907, 59.710712 ] ] } },
{ "type": "Feature", "properties": { "voltage_kv": 300.0, "from_node": 14, "to_node": 41, "length_km": 148.68426907791493, "delaunay_k": 5, "edge_set": "Delaunay5" }, "geometry": { "type": "LineString", "coordinates": [ [ 6.008148, 58.513066 ], [ 7.086182, 59.725947 ] ] } },
{ "type": "Feature", "properties": { "voltage_kv": 300.0, "from_node": 16, "to_node": 22, "length_km": 136.03093187514602, "delaunay_k": 5, "edge_set": "Delaunay5" }, "geometry": { "type": "LineString", "coordinates": [ [ 6.100159, 60.664433 ], [ 6.491547, 59.460431 ] ] } },
{ "type": "Feature", "properties": { "voltage_kv": 300.0, "from_node": 16, "to_node": 25, "length_km": 137.57802279562262, "delaunay_k": 5, "edge_set": "Delaunay5" }, "geometry": { "type": "LineString", "coordinates": [ [ 6.100159, 60.664433 ], [ 6.650848, 59.461826 ] ] } },
{ "type": "Feature", "properties": { "voltage_kv": 300.0, "from_node": 16, "to_node": 41, "length_km": 118.09972622357755, "delaunay_k": 5, "edge_set": "Delaunay5" }, "geometry": { "type": "LineString", "coordinates": [ [ 6.100159, 60.664433 ], [ 7.086182, 59.725947 ] ] } },
{ "type": "Feature", "properties": { "voltage_kv": 300.0, "from_node": 17, "to_node": 27, "length_km": 95.290478162862598, "delaunay_k": 5, "edge_set": "Delaunay5" }, "geometry": { "type": "LineString", "coordinates": [ [ 6.113892, 59.869641 ], [ 6.696167, 59.068096 ] ] } },
{ "type": "Feature", "properties": { "voltage_kv": 300.0, "from_node": 17, "to_node": 35, "length_km": 95.407090718106005, "delaunay_k": 5, "edge_set": "Delaunay5" }, "geometry": { "type": "LineString", "coordinates": [ [ 6.113892, 59.869641 ], [ 6.889801, 59.110423 ] ] } },
{ "type": "Feature", "properties": { "voltage_kv": 300.0, "from_node": 17, "to_node": 44, "length_km": 113.08405096127007, "delaunay_k": 5, "edge_set": "Delaunay5" }, "geometry": { "type": "LineString", "coordinates": [ [ 6.113892, 59.869641 ], [ 7.120514, 58.994604 ] ] } },
{ "type": "Feature", "properties": { "voltage_kv": 300.0, "from_node": 17, "to_node": 55, "length_km": 99.536316148292883, "delaunay_k": 5, "edge_set": "Delaunay5" }, "geometry": { "type": "LineString", "coordinates": [ [ 6.113892, 59.869641 ], [ 7.819519, 59.632352 ] ] } },
{ "type": "Feature", "properties": { "voltage_kv": 300.0, "from_node": 17, "to_node": 65, "length_km": 148.31412045950137, "delaunay_k": 5, "edge_set": "Delaunay5" }, "geometry": { "type": "LineString", "coordinates": [ [ 6.113892, 59.869641 ], [ 8.760223, 59.917172 ] ] } },
{ "type": "Feature", "properties": { "voltage_kv": 300.0, "from_node": 18, "to_node": 22, "length_km": 117.93736341159399, "delaunay_k": 5, "edge_set": "Delaunay5" }, "geometry": { "type": "LineString", "coordinates": [ [ 6.156464, 60.504583 ], [ 6.491547, 59.460431 ] ] } },
{ "type": "Feature", "properties": { "voltage_kv": 300.0, "from_node": 18, "to_node": 26, "length_km": 135.73472575286235, "delaunay_k": 5, "edge_set": "Delaunay5" }, "geometry": { "type": "LineString", "coordinates": [ [ 6.156464, 60.504583 ], [ 6.663208, 59.314272 ] ] } },
{ "type": "Feature", "properties": { "voltage_kv": 300.0, "from_node": 19, "to_node": 26, "length_km": 91.906813353034934, "delaunay_k": 5, "edge_set": "Delaunay5" }, "geometry": { "type": "LineString", "coordinates": [ [ 6.297913, 60.117566 ], [ 6.663208, 59.314272 ] ] } },
{ "type": "Feature", "properties": { "voltage_kv": 300.0, "from_node": 19, "to_node": 43, "length_km": 121.49923595406518, "delaunay_k": 5, "edge_set": "Delaunay5" }, "geometry": { "type": "LineString", "coordinates": [ [ 6.297913, 60.117566 ], [ 7.119141, 59.110423 ] ] } },
{ "type": "Feature", "properties": { "voltage_kv": 300.0, "from_node": 19, "to_node": 44, "length_km": 133.57914358354992, "delaunay_k": 5, "edge_set": "Delaunay5" }, "geometry": { "type": "LineString", "coordinates": [ [ 6.297913, 60.117566 ], [ 7.120514, 58.994604 ] ] } },
{ "type": "Feature", "properties": { "voltage_kv": 300.0, "from_node": 20, "to_node": 30, "length_km": 89.933683709555027, "delaunay_k": 5, "edge_set": "Delaunay5" }, "geometry": { "type": "LineString", "coordinates": [ [ 6.432495, 59.667741 ], [ 6.756592, 58.878393 ] ] } },
{ "type": "Feature", "properties": { "voltage_kv": 300.0, "from_node": 20, "to_node": 36, "length_km": 89.794265275223566, "delaunay_k": 5, "edge_set": "Delaunay5" }, "geometry": { "type": "LineString", "coordinates": [ [ 6.432495, 59.667741 ], [ 6.892548, 58.897552 ] ] } },
{ "type": "Feature", "properties": { "voltage_kv": 300.0, "from_node": 20, "to_node": 42, "length_km": 100.02514190802842, "delaunay_k": 5, "edge_set": "Delaunay5" }, "geometry": { "type": "LineString", "coordinates": [ [ 6.432495, 59.667741 ], [ 7.115021, 58.841464 ] ] } },
{ "type": "Feature", "properties": { "voltage_kv": 300.0, "from_node": 20, "to_node": 62, "length_km": 120.63109079744659, "delaunay_k": 5, "edge_set": "Delaunay5" }, "geometry": { "type": "LineString", "coordinates": [ [ 6.432495, 59.667741 ], [ 8.524017, 59.912353 ] ] } },
{ "type": "Feature", "properties": { "voltage_kv": 300.0, "from_node": 20, "to_node": 65, "length_km": 133.68816611425382, "delaunay_k": 5, "edge_set": "Delaunay5" }, "geometry": { "type": "LineString", "coordinates": [ [ 6.432495, 59.667741 ], [ 8.760223, 59.917172 ] ] } },
{ "type": "Feature", "properties": { "voltage_kv": 300.0, "from_node": 21, "to_node": 23, "length_km": 133.35983220936026, "delaunay_k": 5, "edge_set": "Delaunay5" }, "geometry": { "type": "LineString", "coordinates": [ [ 6.481934, 59.569114 ], [ 6.554718, 58.373638 ] ] } },
{ "type": "Feature", "properties": { "voltage_kv": 300.0, "from_node": 21, "to_node": 33, "length_km": 103.24668078422968, "delaunay_k": 5, "edge_set": "Delaunay5" }, "geometry": { "type": "LineString", "coordinates": [ [ 6.481934, 59.569114 ], [ 6.82251, 58.659799 ] ] } },
{ "type": "Feature", "properties": { "voltage_kv": 300.0, "from_node": 21, "to_node": 39, "length_km": 146.73519906460982, "delaunay_k": 5, "edge_set": "Delaunay5" }, "geometry": { "type": "LineString", "coordinates": [ [ 6.481934, 59.569114 ], [ 7.001038, 58.28062 ] ] } },
{ "type": "Feature", "properties": { "voltage_kv": 300.0, "from_node": 21, "to_node": 62, "length_km": 121.10236342106325, "delaunay_k": 5, "edge_set": "Delaunay5" }, "geometry": { "type": "LineString", "coordinates": [ [ 6.481934, 59.569114 ], [ 8.524017, 59.912353 ] ] } },
{ "type": "Feature", "properties": { "voltage_kv": 300.0, "from_node": 21, "to_node": 65, "length_km": 133.9182448951243, "delaunay_k": 5, "edge_set": "Delaunay5" }, "geometry": { "type": "LineString", "coordinates": [ [ 6.481934, 59.569114 ], [ 8.760223, 59.917172 ] ] } },
{ "type": "Feature", "properties": { "voltage_kv": 300.0, "from_node": 22, "to_node": 23, "length_km": 121.22983060769373, "delaunay_k": 5, "edge_set": "Delaunay5" }, "geometry": { "type": "LineString", "coordinates": [ [ 6.491547, 59.460431 ], [ 6.554718, 58.373638 ] ] } },
{ "type": "Feature", "properties": { "voltage_kv": 300.0, "from_node": 22, "to_node": 31, "length_km": 151.00881314529724, "delaunay_k": 5, "edge_set": "Delaunay5" }, "geometry": { "type": "LineString", "coordinates": [ [ 6.491547, 59.460431 ], [ 6.764832, 58.11344 ] ] } },
{ "type": "Feature", "properties": { "voltage_kv": 300.0, "from_node": 22, "to_node": 39, "length_km": 134.78300032663392, "delaunay_k": 5, "edge_set": "Delaunay5" }, "geometry": { "type": "LineString", "coordinates": [ [ 6.491547, 59.460431 ], [ 7.001038, 58.28062 ] ] } },
{ "type": "Feature", "properties": { "voltage_kv": 300.0, "from_node": 22, "to_node": 58, "length_km": 147.25073398651944, "delaunay_k": 5, "edge_set": "Delaunay5" }, "geometry": { "type": "LineString", "coordinates": [ [ 6.491547, 59.460431 ], [ 8.088684, 60.511343 ] ] } },
{ "type": "Feature", "properties": { "voltage_kv": 300.0, "from_node": 22, "to_node": 62, "length_km": 125.13131077586283, "delaunay_k": 5, "edge_set": "Delaunay5" }, "geometry": { "type": "LineString", "coordinates": [ [ 6.491547, 59.460431 ], [ 8.524017, 59.912353 ] ] } },
{ "type": "Feature", "properties": { "voltage_kv": 300.0, "from_node": 22, "to_node": 65, "length_km": 137.605006178341, "delaunay_k": 5, "edge_set": "Delaunay5" }, "geometry": { "type": "LineString", "coordinates": [ [ 6.491547, 59.460431 ], [ 8.760223, 59.917172 ] ] } },
{ "type": "Feature", "properties": { "voltage_kv": 300.0, "from_node": 23, "to_node": 25, "length_km": 121.45354160302992, "delaunay_k": 5, "edge_set": "Delaunay5" }, "geometry": { "type": "LineString", "coordinates": [ [ 6.554718, 58.373638 ], [ 6.650848, 59.461826 ] ] } },
{ "type": "Feature", "properties": { "voltage_kv": 300.0, "from_node": 24, "to_node": 41, "length_km": 149.26183361341216, "delaunay_k": 5, "edge_set": "Delaunay5" }, "geometry": { "type": "LineString", "coordinates": [ [ 6.60965, 61.043662 ], [ 7.086182, 59.725947 ] ] } },
{ "type": "Feature", "properties": { "voltage_kv": 300.0, "from_node": 25, "to_node": 31, "length_km": 150.47411469106774, "delaunay_k": 5, "edge_set": "Delaunay5" }, "geometry": { "type": "LineString", "coordinates": [ [ 6.650848, 59.461826 ], [ 6.764832, 58.11344 ] ] } },
{ "type": "Feature", "properties": { "voltage_kv": 300.0, "from_node": 27, "to_node": 28, "length_km": 111.28830689503719, "delaunay_k": 5, "edge_set": "Delaunay5" }, "geometry": { "type": "LineString", "coordinates": [ [ 6.696167, 59.068096 ], [ 6.70166, 60.066211 ] ] } },
{ "type": "Feature", "properties": { "voltage_kv": 300.0, "from_node": 27, "to_node": 32, "length_km": 121.49395283711479, "delaunay_k": 5, "edge_set": "Delaunay5" }, "geometry": { "type": "LineString", "coordinates": [ [ 6.696167, 59.068096 ], [ 6.797791, 60.156543 ] ] } },
{ "type": "Feature", "properties": { "voltage_kv": 300.0, "from_node": 27, "to_node": 48, "length_km": 89.973968208249062, "delaunay_k": 5, "edge_set": "Delaunay5" }, "geometry": { "type": "LineString", "coordinates": [ [ 6.696167, 59.068096 ], [ 7.34024, 59.805469 ] ] } },
{ "type": "Feature", "properties": { "voltage_kv": 300.0, "from_node": 27, "to_node": 54, "length_km": 100.24242313734605, "delaunay_k": 5, "edge_set": "Delaunay5" }, "geometry": { "type": "LineString", "coordinates": [ [ 6.696167, 59.068096 ], [ 7.772827, 59.780596 ] ] } },
{ "type": "Feature", "properties": { "voltage_kv": 300.0, "from_node": 27, "to_node": 62, "length_km": 139.96354884072798, "delaunay_k": 5, "edge_set": "Delaunay5" }, "geometry": { "type": "LineString", "coordinates": [ [ 6.696167, 59.068096 ], [ 8.524017, 59.912353 ] ] } },
{ "type": "Feature", "properties": { "voltage_kv": 300.0, "from_node": 27, "to_node": 65, "length_km": 150.46943149360814, "delaunay_k": 5, "edge_set": "Delaunay5" }, "geometry": { "type": "LineString", "coordinates": [ [ 6.696167, 59.068096 ], [ 8.760223, 59.917172 ] ] } },
{ "type": "Feature", "properties": { "voltage_kv": 300.0, "from_node": 28, "to_node": 35, "length_km": 107.09444100573691, "delaunay_k": 5, "edge_set": "Delaunay5" }, "geometry": { "type": "LineString", "coordinates": [ [ 6.70166, 60.066211 ], [ 6.889801, 59.110423 ] ] } },
{ "type": "Feature", "properties": { "voltage_kv": 300.0, "from_node": 28, "to_node": 44, "length_km": 121.80394487382696, "delaunay_k": 5, "edge_set": "Delaunay5" }, "geometry": { "type": "LineString", "coordinates": [ [ 6.70166, 60.066211 ], [ 7.120514, 58.994604 ] ] } },
{ "type": "Feature", "properties": { "voltage_kv": 300.0, "from_node": 28, "to_node": 67, "length_km": 141.57029270517731, "delaunay_k": 5, "edge_set": "Delaunay5" }, "geometry": { "type": "LineString", "coordinates": [ [ 6.70166, 60.066211 ], [ 8.87146, 59.422728 ] ] } },
{ "type": "Feature", "properties": { "voltage_kv": 300.0, "from_node": 29, "to_node": 30, "length_km": 110.67330135000543, "delaunay_k": 5, "edge_set": "Delaunay5" }, "geometry": { "type": "LineString", "coordinates": [ [ 6.745605, 59.871019 ], [ 6.756592, 58.878393 ] ] } },
{ "type": "Feature", "properties": { "voltage_kv": 300.0, "from_node": 29, "to_node": 36, "length_km": 108.85413339952036, "delaunay_k": 5, "edge_set": "Delaunay5" }, "geometry": { "type": "LineString", "coordinates": [ [ 6.745605, 59.871019 ], [ 6.892548, 58.897552 ] ] } },
{ "type": "Feature", "properties": { "voltage_kv": 300.0, "from_node": 29, "to_node": 42, "length_km": 116.69119616579285, "delaunay_k": 5, "edge_set": "Delaunay5" }, "geometry": { "type": "LineString", "coordinates": [ [ 6.745605, 59.871019 ], [ 7.115021, 58.841464 ] ] } },
{ "type": "Feature", "properties": { "voltage_kv": 300.0, "from_node": 29, "to_node": 65, "length_km": 112.94441400291527, "delaunay_k": 5, "edge_set": "Delaunay5" }, "geometry": { "type": "LineString", "coordinates": [ [ 6.745605, 59.871019 ], [ 8.760223, 59.917172 ] ] } },
{ "type": "Feature", "properties": { "voltage_kv": 300.0, "from_node": 30, "to_node": 38, "length_km": 107.65150133501325, "delaunay_k": 5, "edge_set": "Delaunay5" }, "geometry": { "type": "LineString", "coordinates": [ [ 6.756592, 58.878393 ], [ 6.968079, 59.837916 ] ] } },
{ "type": "Feature", "properties": { "voltage_kv": 300.0, "from_node": 30, "to_node": 40, "length_km": 101.96081064122983, "delaunay_k": 5, "edge_set": "Delaunay5" }, "geometry": { "type": "LineString", "coordinates": [ [ 6.756592, 58.878393 ], [ 7.080688, 59.777831 ] ] } },
{ "type": "Feature", "properties": { "voltage_kv": 300.0, "from_node": 30, "to_node": 48, "length_km": 108.56392059775936, "delaunay_k": 5, "edge_set": "Delaunay5" }, "geometry": { "type": "LineString", "coordinates": [ [ 6.756592, 58.878393 ], [ 7.34024, 59.805469 ] ] } },
{ "type": "Feature", "properties": { "voltage_kv": 300.0, "from_node": 30, "to_node": 54, "length_km": 116.03912549894399, "delaunay_k": 5, "edge_set": "Delaunay5" }, "geometry": { "type": "LineString", "coordinates": [ [ 6.756592, 58.878393 ], [ 7.772827, 59.780596 ] ] } },
{ "type": "Feature", "properties": { "voltage_kv": 300.0, "from_node": 30, "to_node": 62, "length_km": 152.88441589782198, "delaunay_k": 5, "edge_set": "Delaunay5" }, "geometry": { "type": "LineString", "coordinates": [ [ 6.756592, 58.878393 ], [ 8.524017, 59.912353 ] ] } },
{ "type": "Feature", "properties": { "voltage_kv": 300.0, "from_node": 32, "to_node": 35, "length_km": 116.75074539545889, "delaunay_k": 5, "edge_set": "Delaunay5" }, "geometry": { "type": "LineString", "coordinates": [ [ 6.797791, 60.156543 ], [ 6.889801, 59.110423 ] ] } },
{ "type": "Feature", "properties": { "voltage_kv": 300.0, "from_node": 32, "to_node": 36, "length_km": 140.4696229139123, "delaunay_k": 5, "edge_set": "Delaunay5" }, "geometry": { "type": "LineString", "coordinates": [ [ 6.797791, 60.156543 ], [ 6.892548, 58.897552 ] ] } },
{ "type": "Feature", "properties": { "voltage_kv": 300.0, "from_node": 32, "to_node": 42, "length_km": 147.71239287861241, "delaunay_k": 5, "edge_set": "Delaunay5" }, "geometry": { "type": "LineString", "coordinates": [ [ 6.797791, 60.156543 ], [ 7.115021, 58.841464 ] ] } },
{ "type": "Feature", "properties": { "voltage_kv": 300.0, "from_node": 33, "to_node": 37, "length_km": 117.25788576767101, "delaunay_k": 5, "edge_set": "Delaunay5" }, "geometry": { "type": "LineString", "coordinates": [ [ 6.82251, 58.659799 ], [ 6.904907, 59.710712 ] ] } },
{ "type": "Feature", "properties": { "voltage_kv": 300.0, "from_node": 33, "to_node": 40, "length_km": 125.51286642329397, "delaunay_k": 5, "edge_set": "Delaunay5" }, "geometry": { "type": "LineString", "coordinates": [ [ 6.82251, 58.659799 ], [ 7.080688, 59.777831 ] ] } },
{ "type": "Feature", "properties": { "voltage_kv": 300.0, "from_node": 33, "to_node": 48, "length_km": 131.09758432017409, "delaunay_k": 5, "edge_set": "Delaunay5" }, "geometry": { "type": "LineString", "coordinates": [ [ 6.82251, 58.659799 ], [ 7.34024, 59.805469 ] ] } },
{ "type": "Feature", "properties": { "voltage_kv": 300.0, "from_node": 33, "to_node": 54, "length_km": 136.22599464989196, "delaunay_k": 5, "edge_set": "Delaunay5" }, "geometry": { "type": "LineString", "coordinates": [ [ 6.82251, 58.659799 ], [ 7.772827, 59.780596 ] ] } },
{ "type": "Feature", "properties": { "voltage_kv": 300.0, "from_node": 36, "to_node": 38, "length_km": 104.92602614306753, "delaunay_k": 5, "edge_set": "Delaunay5" }, "geometry": { "type": "LineString", "coordinates": [ [ 6.892548, 58.897552 ], [ 6.968079, 59.837916 ] ] } },
{ "type": "Feature", "properties": { "voltage_kv": 300.0, "from_node": 38, "to_node": 42, "length_km": 111.40106760598637, "delaunay_k": 5, "edge_set": "Delaunay5" }, "geometry": { "type": "LineString", "coordinates": [ [ 6.968079, 59.837916 ], [ 7.115021, 58.841464 ] ] } }
]
}
