{
"type": "FeatureCollection",
"name": "n490_220kv_delaunay5_removed_land",
"crs": { "type": "name", "properties": { "name": "urn:ogc:def:crs:OGC:1.3:CRS84" } },
"features": [
{ "type": "Feature", "properties": { "voltage_kv": 220.0, "from_node": 43, "to_node": 107, "length_km": 273.75290916275151, "delaunay_k": 5, "edge_set": "Delaunay5" }, "geometry": { "type": "LineString", "coordinates": [ [ 15.843658, 61.88399 ], [ 18.621826, 59.837916 ] ] } },
{ "type": "Feature", "properties": { "voltage_kv": 220.0, "from_node": 56, "to_node": 105, "length_km": 290.47528593539408, "delaunay_k": 5, "edge_set": "Delaunay5" }, "geometry": { "type": "LineString", "coordinates": [ [ 16.333923, 62.398006 ], [ 18.233185, 59.961198 ] ] } },
{ "type": "Feature", "properties": { "voltage_kv": 220.0, "from_node": 80, "to_node": 98, "length_km": 282.75653706397708, "delaunay_k": 5, "edge_set": "Delaunay5" }, "geometry": { "type": "LineString", "coordinates": [ [ 16.993103, 62.438065 ], [ 17.748413, 59.930248 ] ] } },
{ "type": "Feature", "properties": { "voltage_kv": 220.0, "from_node": 80, "to_node": 105, "length_km": 284.33527780016391, "delaunay_k": 5, "edge_set": "Delaunay5" }, "geometry": { "type": "LineString", "coordinates": [ [ 16.993103, 62.438065 ], [ 18.233185, 59.961198 ] ] } },
{ "type": "Feature", "properties": { "voltage_kv": 220.0, "from_node": 87, "to_node": 99, "length_km": 220.19216859552591, "delaunay_k": 5, "edge_set": "Delaunay5" }, "geometry": { "type": "LineString", "coordinates": [ [ 17.166138, 61.172384 ], [ 17.766266, 59.221637 ] ] } },
{ "type": "Feature", "properties": { "voltage_kv": 220.0, "from_node": 93, "to_node": 112, "length_km": 289.28712024375665, "delaunay_k": 5, "edge_set": "Delaunay5" }, "geometry": { "type": "LineString", "coordinates": [ [ 17.310333, 64.26428 ], [ 23.1427, 63.842485 ] ] } },
{ "type": "Feature", "properties": { "voltage_kv": 220.0, "from_node": 95, "to_node": 98, "length_km": 271.05274226158326, "delaunay_k": 5, "edge_set": "Delaunay5" }, "geometry": { "type": "LineString", "coordinates": [ [ 17.362518, 62.352158 ], [ 17.748413, 59.930248 ] ] } },
{ "type": "Feature", "properties": { "voltage_kv": 220.0, "from_node": 95, "to_node": 105, "length_km": 270.92352043301116, "delaunay_k": 5, "edge_set": "Delaunay5" }, "geometry": { "type": "LineString", "coordinates": [ [ 17.362518, 62.352158 ], [ 18.233185, 59.961198 ] ] } },
{ "type": "Feature", "properties": { "voltage_kv": 220.0, "from_node": 95, "to_node": 107, "length_km": 288.7340312526, "delaunay_k": 5, "edge_set": "Delaunay5" }, "geometry": { "type": "LineString", "coordinates": [ [ 17.362518, 62.352158 ], [ 18.621826, 59.837916 ] ] } },
{ "type": "Feature", "properties": { "voltage_kv": 220.0, "from_node": 96, "to_node": 112, "length_km": 281.64012617966262, "delaunay_k": 5, "edge_set": "Delaunay5" }, "geometry": { "type": "LineString", "coordinates": [ [ 17.449036, 64.183063 ], [ 23.1427, 63.842485 ] ] } }
]
}
