{
"type": "FeatureCollection",
"name": "n490_220kv_delaunay3_removed_length",
"crs": { "type": "name", "properties": { "name": "urn:ogc:def:crs:OGC:1.3:CRS84" } },
"features": [
{ "type": "Feature", "properties": { "voltage_kv": 220.0, "from_node": 0, "to_node": 30, "length_km": 458.39554276910633, "delaunay_k": 3, "edge_set": "Delaunay3" }, "geometry": { "type": "LineString", "coordinates": [ [ 11.961365, 55.445374 ], [ 15.184479, 59.173817 ] ] } },
{ "type": "Feature", "properties": { "voltage_kv": 220.0, "from_node": 0, "to_node": 32, "length_km": 488.88015024237995, "delaunay_k": 3, "edge_set": "Delaunay3" }, "geometry": { "type": "LineString", "coordinates": [ [ 11.961365, 55.445374 ], [ 15.231171, 59.466013 ] ] } },
{ "type": "Feature", "properties": { "voltage_kv": 220.0, "from_node": 0, "to_node": 106, "length_km": 549.98024917325688, "delaunay_k": 3, "edge_set": "Delaunay3" }, "geometry": { "type": "LineString", "coordinates": [ [ 11.961365, 55.445374 ], [ 18.124695, 59.084327 ] ] } },
{ "type": "Feature", "properties": { "voltage_kv": 220.0, "from_node": 1, "to_node": 47, "length_km": 479.0695608324346, "delaunay_k": 3, "edge_set": "Delaunay3" }, "geometry": { "type": "LineString", "coordinates": [ [ 12.311554, 55.670615 ], [ 15.971375, 59.496697 ] ] } },
{ "type": "Feature", "properties": { "voltage_kv": 220.0, "from_node": 1, "to_node": 52, "length_km": 573.79515423216344, "delaunay_k": 3, "edge_set": "Delaunay3" }, "geometry": { "type": "LineString", "coordinates": [ [ 12.311554, 55.670615 ], [ 16.177368, 60.396897 ] ] } },
{ "type": "Feature", "properties": { "voltage_kv": 220.0, "from_node": 1, "to_node": 62, "length_km": 492.36625416416166, "delaunay_k": 3, "edge_set": "Delaunay3" }, "geometry": { "type": "LineString", "coordinates": [ [ 12.311554, 55.670615 ], [ 16.417694, 59.502273 ] ] } },
{ "type": "Feature", "properties": { "voltage_kv": 220.0, "from_node": 1, "to_node": 101, "length_km": 513.49101294809293, "delaunay_k": 3, "edge_set": "Delaunay3" }, "geometry": { "type": "LineString", "coordinates": [ [ 12.311554, 55.670615 ], [ 17.766266, 59.221637 ] ] } },
{ "type": "Feature", "properties": { "voltage_kv": 220.0, "from_node": 1, "to_node": 105, "length_km": 522.65409817397972, "delaunay_k": 3, "edge_set": "Delaunay3" }, "geometry": { "type": "LineString", "coordinates": [ [ 12.311554, 55.670615 ], [ 18.110962, 59.168187 ] ] } },
{ "type": "Feature", "properties": { "voltage_kv": 220.0, "from_node": 1, "to_node": 108, "length_km": 559.41788975904456, "delaunay_k": 3, "edge_set": "Delaunay3" }, "geometry": { "type": "LineString", "coordinates": [ [ 12.311554, 55.670615 ], [ 18.404846, 59.480661 ] ] } },
{ "type": "Feature", "properties": { "voltage_kv": 220.0, "from_node": 2, "to_node": 24, "length_km": 356.43863568153677, "delaunay_k": 3, "edge_set": "Delaunay3" }, "geometry": { "type": "LineString", "coordinates": [ [ 12.590332, 62.571841 ], [ 14.765625, 65.62429 ] ] } },
{ "type": "Feature", "properties": { "voltage_kv": 220.0, "from_node": 2, "to_node": 28, "length_km": 369.68479107920649, "delaunay_k": 3, "edge_set": "Delaunay3" }, "geometry": { "type": "LineString", "coordinates": [ [ 12.590332, 62.571841 ], [ 14.965643971847902, 65.721629736713297 ] ] } },
{ "type": "Feature", "properties": { "voltage_kv": 220.0, "from_node": 2, "to_node": 52, "length_km": 308.6859901291478, "delaunay_k": 3, "edge_set": "Delaunay3" }, "geometry": { "type": "LineString", "coordinates": [ [ 12.590332, 62.571841 ], [ 16.177368, 60.396897 ] ] } },
{ "type": "Feature", "properties": { "voltage_kv": 220.0, "from_node": 6, "to_node": 9, "length_km": 324.62925469753964, "delaunay_k": 3, "edge_set": "Delaunay3" }, "geometry": { "type": "LineString", "coordinates": [ [ 13.587341, 63.23239 ], [ 13.763123, 66.142743 ] ] } },
{ "type": "Feature", "properties": { "voltage_kv": 220.0, "from_node": 7, "to_node": 9, "length_km": 315.69435903810626, "delaunay_k": 3, "edge_set": "Delaunay3" }, "geometry": { "type": "LineString", "coordinates": [ [ 13.639526, 63.312066 ], [ 13.763123, 66.142743 ] ] } },
{ "type": "Feature", "properties": { "voltage_kv": 220.0, "from_node": 9, "to_node": 13, "length_km": 379.94386290995919, "delaunay_k": 3, "edge_set": "Delaunay3" }, "geometry": { "type": "LineString", "coordinates": [ [ 13.763123, 66.142743 ], [ 13.903198, 62.735859 ] ] } },
{ "type": "Feature", "properties": { "voltage_kv": 220.0, "from_node": 9, "to_node": 14, "length_km": 446.2307386347307, "delaunay_k": 3, "edge_set": "Delaunay3" }, "geometry": { "type": "LineString", "coordinates": [ [ 13.763123, 66.142743 ], [ 13.973236, 62.141768 ] ] } },
{ "type": "Feature", "properties": { "voltage_kv": 220.0, "from_node": 9, "to_node": 25, "length_km": 315.41194607939258, "delaunay_k": 3, "edge_set": "Delaunay3" }, "geometry": { "type": "LineString", "coordinates": [ [ 13.763123, 66.142743 ], [ 14.788971, 63.348433 ] ] } },
{ "type": "Feature", "properties": { "voltage_kv": 220.0, "from_node": 14, "to_node": 32, "length_km": 306.02335443955366, "delaunay_k": 3, "edge_set": "Delaunay3" }, "geometry": { "type": "LineString", "coordinates": [ [ 13.973236, 62.141768 ], [ 15.231171, 59.466013 ] ] } },
{ "type": "Feature", "properties": { "voltage_kv": 220.0, "from_node": 14, "to_node": 47, "length_km": 314.27175073938713, "delaunay_k": 3, "edge_set": "Delaunay3" }, "geometry": { "type": "LineString", "coordinates": [ [ 13.973236, 62.141768 ], [ 15.971375, 59.496697 ] ] } },
{ "type": "Feature", "properties": { "voltage_kv": 220.0, "from_node": 16, "to_node": 18, "length_km": 387.1309948049693, "delaunay_k": 3, "edge_set": "Delaunay3" }, "geometry": { "type": "LineString", "coordinates": [ [ 14.111938, 58.598318 ], [ 14.16687, 62.071739 ] ] } },
{ "type": "Feature", "properties": { "voltage_kv": 220.0, "from_node": 16, "to_node": 63, "length_km": 339.25309087964791, "delaunay_k": 3, "edge_set": "Delaunay3" }, "geometry": { "type": "LineString", "coordinates": [ [ 14.111938, 58.598318 ], [ 16.44928, 61.407894 ] ] } },
{ "type": "Feature", "properties": { "voltage_kv": 220.0, "from_node": 16, "to_node": 66, "length_km": 295.41850548229206, "delaunay_k": 3, "edge_set": "Delaunay3" }, "geometry": { "type": "LineString", "coordinates": [ [ 14.111938, 58.598318 ], [ 16.637421, 60.922424 ] ] } },
{ "type": "Feature", "properties": { "voltage_kv": 220.0, "from_node": 16, "to_node": 109, "length_km": 292.47647312797602, "delaunay_k": 3, "edge_set": "Delaunay3" }, "geometry": { "type": "LineString", "coordinates": [ [ 14.111938, 58.598318 ], [ 18.621826, 59.837916 ] ] } },
{ "type": "Feature", "properties": { "voltage_kv": 220.0, "from_node": 16, "to_node": 111, "length_km": 314.28220915150405, "delaunay_k": 3, "edge_set": "Delaunay3" }, "geometry": { "type": "LineString", "coordinates": [ [ 14.111938, 58.598318 ], [ 18.8237, 60.06484 ] ] } },
{ "type": "Feature", "properties": { "voltage_kv": 220.0, "from_node": 17, "to_node": 113, "length_km": 436.55691001393018, "delaunay_k": 3, "edge_set": "Delaunay3" }, "geometry": { "type": "LineString", "coordinates": [ [ 14.146271, 64.71612 ], [ 23.100128, 65.837089 ] ] } },
{ "type": "Feature", "properties": { "voltage_kv": 220.0, "from_node": 18, "to_node": 30, "length_km": 327.79656844687685, "delaunay_k": 3, "edge_set": "Delaunay3" }, "geometry": { "type": "LineString", "coordinates": [ [ 14.16687, 62.071739 ], [ 15.184479, 59.173817 ] ] } },
{ "type": "Feature", "properties": { "voltage_kv": 220.0, "from_node": 18, "to_node": 59, "length_km": 304.64205977040444, "delaunay_k": 3, "edge_set": "Delaunay3" }, "geometry": { "type": "LineString", "coordinates": [ [ 14.16687, 62.071739 ], [ 16.368256, 59.559375 ] ] } },
{ "type": "Feature", "properties": { "voltage_kv": 220.0, "from_node": 18, "to_node": 62, "length_km": 311.59620785878195, "delaunay_k": 3, "edge_set": "Delaunay3" }, "geometry": { "type": "LineString", "coordinates": [ [ 14.16687, 62.071739 ], [ 16.417694, 59.502273 ] ] } },
{ "type": "Feature", "properties": { "voltage_kv": 220.0, "from_node": 22, "to_node": 32, "length_km": 342.22397152901124, "delaunay_k": 3, "edge_set": "Delaunay3" }, "geometry": { "type": "LineString", "coordinates": [ [ 14.515686, 62.516121 ], [ 15.231171, 59.466013 ] ] } },
{ "type": "Feature", "properties": { "voltage_kv": 220.0, "from_node": 22, "to_node": 47, "length_km": 345.72224990761566, "delaunay_k": 3, "edge_set": "Delaunay3" }, "geometry": { "type": "LineString", "coordinates": [ [ 14.515686, 62.516121 ], [ 15.971375, 59.496697 ] ] } },
{ "type": "Feature", "properties": { "voltage_kv": 220.0, "from_node": 23, "to_node": 52, "length_km": 327.64334440799047, "delaunay_k": 3, "edge_set": "Delaunay3" }, "geometry": { "type": "LineString", "coordinates": [ [ 14.736786, 63.255266 ], [ 16.177368, 60.396897 ] ] } },
{ "type": "Feature", "properties": { "voltage_kv": 220.0, "from_node": 24, "to_node": 113, "length_km": 383.48902032182679, "delaunay_k": 3, "edge_set": "Delaunay3" }, "geometry": { "type": "LineString", "coordinates": [ [ 14.765625, 65.62429 ], [ 23.100128, 65.837089 ] ] } },
{ "type": "Feature", "properties": { "voltage_kv": 220.0, "from_node": 28, "to_node": 113, "length_km": 373.11240068970977, "delaunay_k": 3, "edge_set": "Delaunay3" }, "geometry": { "type": "LineString", "coordinates": [ [ 14.965643971847902, 65.721629736713297 ], [ 23.100128, 65.837089 ] ] } },
{ "type": "Feature", "properties": { "voltage_kv": 220.0, "from_node": 29, "to_node": 32, "length_km": 328.80803292131208, "delaunay_k": 3, "edge_set": "Delaunay3" }, "geometry": { "type": "LineString", "coordinates": [ [ 15.005951, 62.413273 ], [ 15.231171, 59.466013 ] ] } },
{ "type": "Feature", "properties": { "voltage_kv": 220.0, "from_node": 29, "to_node": 47, "length_km": 329.37498100092307, "delaunay_k": 3, "edge_set": "Delaunay3" }, "geometry": { "type": "LineString", "coordinates": [ [ 15.005951, 62.413273 ], [ 15.971375, 59.496697 ] ] } },
{ "type": "Feature", "properties": { "voltage_kv": 220.0, "from_node": 33, "to_node": 113, "length_km": 386.3109427453162, "delaunay_k": 3, "edge_set": "Delaunay3" }, "geometry": { "type": "LineString", "coordinates": [ [ 15.450897, 64.54962 ], [ 23.100128, 65.837089 ] ] } },
{ "type": "Feature", "properties": { "voltage_kv": 220.0, "from_node": 34, "to_node": 52, "length_km": 307.78776963808065, "delaunay_k": 3, "edge_set": "Delaunay3" }, "geometry": { "type": "LineString", "coordinates": [ [ 15.490723, 63.137606 ], [ 16.177368, 60.396897 ] ] } },
{ "type": "Feature", "properties": { "voltage_kv": 220.0, "from_node": 38, "to_node": 113, "length_km": 379.85151336786549, "delaunay_k": 3, "edge_set": "Delaunay3" }, "geometry": { "type": "LineString", "coordinates": [ [ 15.622559, 64.529548 ], [ 23.100128, 65.837089 ] ] } },
{ "type": "Feature", "properties": { "voltage_kv": 220.0, "from_node": 39, "to_node": 113, "length_km": 403.14913927100736, "delaunay_k": 3, "edge_set": "Delaunay3" }, "geometry": { "type": "LineString", "coordinates": [ [ 15.674744, 64.064393 ], [ 23.100128, 65.837089 ] ] } },
{ "type": "Feature", "properties": { "voltage_kv": 220.0, "from_node": 41, "to_node": 113, "length_km": 365.82664104908525, "delaunay_k": 3, "edge_set": "Delaunay3" }, "geometry": { "type": "LineString", "coordinates": [ [ 15.761261, 64.700279 ], [ 23.100128, 65.837089 ] ] } },
{ "type": "Feature", "properties": { "voltage_kv": 220.0, "from_node": 42, "to_node": 116, "length_km": 437.81163094724155, "delaunay_k": 3, "edge_set": "Delaunay3" }, "geometry": { "type": "LineString", "coordinates": [ [ 15.783234, 64.967159 ], [ 24.892273, 65.995123 ] ] } },
{ "type": "Feature", "properties": { "voltage_kv": 220.0, "from_node": 42, "to_node": 117, "length_km": 449.03229873807464, "delaunay_k": 3, "edge_set": "Delaunay3" }, "geometry": { "type": "LineString", "coordinates": [ [ 15.783234, 64.967159 ], [ 25.069427, 66.140521 ] ] } },
{ "type": "Feature", "properties": { "voltage_kv": 220.0, "from_node": 42, "to_node": 118, "length_km": 505.06509373402093, "delaunay_k": 3, "edge_set": "Delaunay3" }, "geometry": { "type": "LineString", "coordinates": [ [ 15.783234, 64.967159 ], [ 25.085907, 67.498059 ] ] } },
{ "type": "Feature", "properties": { "voltage_kv": 220.0, "from_node": 44, "to_node": 113, "length_km": 337.99375286109603, "delaunay_k": 3, "edge_set": "Delaunay3" }, "geometry": { "type": "LineString", "coordinates": [ [ 15.812073, 65.485626 ], [ 23.100128, 65.837089 ] ] } },
{ "type": "Feature", "properties": { "voltage_kv": 220.0, "from_node": 46, "to_node": 116, "length_km": 441.97138754478505, "delaunay_k": 3, "edge_set": "Delaunay3" }, "geometry": { "type": "LineString", "coordinates": [ [ 15.923309, 64.710254 ], [ 24.892273, 65.995123 ] ] } },
{ "type": "Feature", "properties": { "voltage_kv": 220.0, "from_node": 46, "to_node": 117, "length_km": 454.09971521050625, "delaunay_k": 3, "edge_set": "Delaunay3" }, "geometry": { "type": "LineString", "coordinates": [ [ 15.923309, 64.710254 ], [ 25.069427, 66.140521 ] ] } },
{ "type": "Feature", "properties": { "voltage_kv": 220.0, "from_node": 46, "to_node": 118, "length_km": 518.25096702784128, "delaunay_k": 3, "edge_set": "Delaunay3" }, "geometry": { "type": "LineString", "coordinates": [ [ 15.923309, 64.710254 ], [ 25.085907, 67.498059 ] ] } },
{ "type": "Feature", "properties": { "voltage_kv": 220.0, "from_node": 60, "to_node": 116, "length_km": 399.08629287971559, "delaunay_k": 3, "edge_set": "Delaunay3" }, "geometry": { "type": "LineString", "coordinates": [ [ 16.387482, 65.321005 ], [ 24.892273, 65.995123 ] ] } },
{ "type": "Feature", "properties": { "voltage_kv": 220.0, "from_node": 60, "to_node": 117, "length_km": 409.31215936511836, "delaunay_k": 3, "edge_set": "Delaunay3" }, "geometry": { "type": "LineString", "coordinates": [ [ 16.387482, 65.321005 ], [ 25.069427, 66.140521 ] ] } },
{ "type": "Feature", "properties": { "voltage_kv": 220.0, "from_node": 60, "to_node": 118, "length_km": 458.61110027054639, "delaunay_k": 3, "edge_set": "Delaunay3" }, "geometry": { "type": "LineString", "coordinates": [ [ 16.387482, 65.321005 ], [ 25.085907, 67.498059 ] ] } },
{ "type": "Feature", "properties": { "voltage_kv": 220.0, "from_node": 64, "to_node": 116, "length_km": 392.70071964519434, "delaunay_k": 3, "edge_set": "Delaunay3" }, "geometry": { "type": "LineString", "coordinates": [ [ 16.489105, 65.386291 ], [ 24.892273, 65.995123 ] ] } },
{ "type": "Feature", "properties": { "voltage_kv": 220.0, "from_node": 64, "to_node": 117, "length_km": 402.70934562460627, "delaunay_k": 3, "edge_set": "Delaunay3" }, "geometry": { "type": "LineString", "coordinates": [ [ 16.489105, 65.386291 ], [ 25.069427, 66.140521 ] ] } },
{ "type": "Feature", "properties": { "voltage_kv": 220.0, "from_node": 64, "to_node": 118, "length_km": 450.51271519278907, "delaunay_k": 3, "edge_set": "Delaunay3" }, "geometry": { "type": "LineString", "coordinates": [ [ 16.489105, 65.386291 ], [ 25.085907, 67.498059 ] ] } },
{ "type": "Feature", "properties": { "voltage_kv": 220.0, "from_node": 80, "to_node": 113, "length_km": 356.28319065620599, "delaunay_k": 3, "edge_set": "Delaunay3" }, "geometry": { "type": "LineString", "coordinates": [ [ 16.962891, 63.994031 ], [ 23.100128, 65.837089 ] ] } },
{ "type": "Feature", "properties": { "voltage_kv": 220.0, "from_node": 88, "to_node": 113, "length_km": 359.4925856720543, "delaunay_k": 3, "edge_set": "Delaunay3" }, "geometry": { "type": "LineString", "coordinates": [ [ 17.156525, 63.845512 ], [ 23.100128, 65.837089 ] ] } },
{ "type": "Feature", "properties": { "voltage_kv": 220.0, "from_node": 90, "to_node": 113, "length_km": 353.47246842874648, "delaunay_k": 3, "edge_set": "Delaunay3" }, "geometry": { "type": "LineString", "coordinates": [ [ 17.168884, 63.922284 ], [ 23.100128, 65.837089 ] ] } },
{ "type": "Feature", "properties": { "voltage_kv": 220.0, "from_node": 92, "to_node": 113, "length_km": 395.98726473612635, "delaunay_k": 3, "edge_set": "Delaunay3" }, "geometry": { "type": "LineString", "coordinates": [ [ 17.230682, 63.342889 ], [ 23.100128, 65.837089 ] ] } },
{ "type": "Feature", "properties": { "voltage_kv": 220.0, "from_node": 93, "to_node": 113, "length_km": 333.41434839903371, "delaunay_k": 3, "edge_set": "Delaunay3" }, "geometry": { "type": "LineString", "coordinates": [ [ 17.271881, 64.154341 ], [ 23.100128, 65.837089 ] ] } },
{ "type": "Feature", "properties": { "voltage_kv": 220.0, "from_node": 95, "to_node": 116, "length_km": 405.58430742770867, "delaunay_k": 3, "edge_set": "Delaunay3" }, "geometry": { "type": "LineString", "coordinates": [ [ 17.310333, 64.26428 ], [ 24.892273, 65.995123 ] ] } },
{ "type": "Feature", "properties": { "voltage_kv": 220.0, "from_node": 95, "to_node": 117, "length_km": 419.89002532000694, "delaunay_k": 3, "edge_set": "Delaunay3" }, "geometry": { "type": "LineString", "coordinates": [ [ 17.310333, 64.26428 ], [ 25.069427, 66.140521 ] ] } },
{ "type": "Feature", "properties": { "voltage_kv": 220.0, "from_node": 95, "to_node": 118, "length_km": 506.33763517081167, "delaunay_k": 3, "edge_set": "Delaunay3" }, "geometry": { "type": "LineString", "coordinates": [ [ 17.310333, 64.26428 ], [ 25.085907, 67.498059 ] ] } },
{ "type": "Feature", "properties": { "voltage_kv": 220.0, "from_node": 97, "to_node": 99, "length_km": 295.26831580568796, "delaunay_k": 3, "edge_set": "Delaunay3" }, "geometry": { "type": "LineString", "coordinates": [ [ 17.362518, 62.352158 ], [ 17.541046, 64.996778 ] ] } },
{ "type": "Feature", "properties": { "voltage_kv": 220.0, "from_node": 98, "to_node": 116, "length_km": 404.80408527143481, "delaunay_k": 3, "edge_set": "Delaunay3" }, "geometry": { "type": "LineString", "coordinates": [ [ 17.449036, 64.183063 ], [ 24.892273, 65.995123 ] ] } },
{ "type": "Feature", "properties": { "voltage_kv": 220.0, "from_node": 98, "to_node": 117, "length_km": 419.4109392813379, "delaunay_k": 3, "edge_set": "Delaunay3" }, "geometry": { "type": "LineString", "coordinates": [ [ 17.449036, 64.183063 ], [ 25.069427, 66.140521 ] ] } },
{ "type": "Feature", "properties": { "voltage_kv": 220.0, "from_node": 98, "to_node": 118, "length_km": 508.88115527085267, "delaunay_k": 3, "edge_set": "Delaunay3" }, "geometry": { "type": "LineString", "coordinates": [ [ 17.449036, 64.183063 ], [ 25.085907, 67.498059 ] ] } },
{ "type": "Feature", "properties": { "voltage_kv": 220.0, "from_node": 99, "to_node": 122, "length_km": 390.7281451890712, "delaunay_k": 3, "edge_set": "Delaunay3" }, "geometry": { "type": "LineString", "coordinates": [ [ 17.541046, 64.996778 ], [ 25.415497, 66.285642 ] ] } },
{ "type": "Feature", "properties": { "voltage_kv": 220.0, "from_node": 99, "to_node": 123, "length_km": 408.15983270545991, "delaunay_k": 3, "edge_set": "Delaunay3" }, "geometry": { "type": "LineString", "coordinates": [ [ 17.541046, 64.996778 ], [ 25.717621, 66.413451 ] ] } },
{ "type": "Feature", "properties": { "voltage_kv": 220.0, "from_node": 99, "to_node": 124, "length_km": 403.12266727638013, "delaunay_k": 3, "edge_set": "Delaunay3" }, "geometry": { "type": "LineString", "coordinates": [ [ 17.541046, 64.996778 ], [ 26.05957, 64.965416 ] ] } },
{ "type": "Feature", "properties": { "voltage_kv": 220.0, "from_node": 99, "to_node": 125, "length_km": 481.74816040659874, "delaunay_k": 3, "edge_set": "Delaunay3" }, "geometry": { "type": "LineString", "coordinates": [ [ 17.541046, 64.996778 ], [ 26.098022, 67.596139 ] ] } },
{ "type": "Feature", "properties": { "voltage_kv": 220.0, "from_node": 99, "to_node": 132, "length_km": 462.10882787248471, "delaunay_k": 3, "edge_set": "Delaunay3" }, "geometry": { "type": "LineString", "coordinates": [ [ 17.541046, 64.996778 ], [ 27.030487, 66.33089 ] ] } },
{ "type": "Feature", "properties": { "voltage_kv": 220.0, "from_node": 99, "to_node": 133, "length_km": 679.30916551206087, "delaunay_k": 3, "edge_set": "Delaunay3" }, "geometry": { "type": "LineString", "coordinates": [ [ 17.541046, 64.996778 ], [ 27.071686, 69.862801 ] ] } },
{ "type": "Feature", "properties": { "voltage_kv": 220.0, "from_node": 99, "to_node": 137, "length_km": 603.61816410256006, "delaunay_k": 3, "edge_set": "Delaunay3" }, "geometry": { "type": "LineString", "coordinates": [ [ 17.541046, 64.996778 ], [ 27.674561, 68.645556 ] ] } },
{ "type": "Feature", "properties": { "voltage_kv": 220.0, "from_node": 112, "to_node": 116, "length_km": 375.13828236070867, "delaunay_k": 3, "edge_set": "Delaunay3" }, "geometry": { "type": "LineString", "coordinates": [ [ 22.633209, 62.789912 ], [ 24.892273, 65.995123 ] ] } },
{ "type": "Feature", "properties": { "voltage_kv": 220.0, "from_node": 112, "to_node": 128, "length_km": 292.82346467682123, "delaunay_k": 3, "edge_set": "Delaunay3" }, "geometry": { "type": "LineString", "coordinates": [ [ 22.633209, 62.789912 ], [ 26.51825, 64.759489 ] ] } },
{ "type": "Feature", "properties": { "voltage_kv": 220.0, "from_node": 112, "to_node": 132, "length_km": 449.5367858514814, "delaunay_k": 3, "edge_set": "Delaunay3" }, "geometry": { "type": "LineString", "coordinates": [ [ 22.633209, 62.789912 ], [ 27.030487, 66.33089 ] ] } },
{ "type": "Feature", "properties": { "voltage_kv": 220.0, "from_node": 112, "to_node": 138, "length_km": 352.2209178797479, "delaunay_k": 3, "edge_set": "Delaunay3" }, "geometry": { "type": "LineString", "coordinates": [ [ 22.633209, 62.789912 ], [ 28.45047, 64.58147 ] ] } },
{ "type": "Feature", "properties": { "voltage_kv": 220.0, "from_node": 113, "to_node": 134, "length_km": 478.66529074697337, "delaunay_k": 3, "edge_set": "Delaunay3" }, "geometry": { "type": "LineString", "coordinates": [ [ 23.100128, 65.837089 ], [ 27.239227, 69.817839 ] ] } },
{ "type": "Feature", "properties": { "voltage_kv": 220.0, "from_node": 113, "to_node": 139, "length_km": 535.85480778094097, "delaunay_k": 3, "edge_set": "Delaunay3" }, "geometry": { "type": "LineString", "coordinates": [ [ 23.100128, 65.837089 ], [ 28.572693, 70.163212 ] ] } },
{ "type": "Feature", "properties": { "voltage_kv": 220.0, "from_node": 114, "to_node": 122, "length_km": 293.91025965784166, "delaunay_k": 3, "edge_set": "Delaunay3" }, "geometry": { "type": "LineString", "coordinates": [ [ 23.1427, 63.842485 ], [ 25.415497, 66.285642 ] ] } },
{ "type": "Feature", "properties": { "voltage_kv": 220.0, "from_node": 114, "to_node": 129, "length_km": 331.65804219168609, "delaunay_k": 3, "edge_set": "Delaunay3" }, "geometry": { "type": "LineString", "coordinates": [ [ 23.1427, 63.842485 ], [ 26.769562, 66.378809 ] ] } },
{ "type": "Feature", "properties": { "voltage_kv": 220.0, "from_node": 114, "to_node": 136, "length_km": 354.35113335848348, "delaunay_k": 3, "edge_set": "Delaunay3" }, "geometry": { "type": "LineString", "coordinates": [ [ 23.1427, 63.842485 ], [ 27.398529, 66.450241 ] ] } },
{ "type": "Feature", "properties": { "voltage_kv": 220.0, "from_node": 115, "to_node": 116, "length_km": 339.46104833065539, "delaunay_k": 3, "edge_set": "Delaunay3" }, "geometry": { "type": "LineString", "coordinates": [ [ 24.285278, 62.976446 ], [ 24.892273, 65.995123 ] ] } },
{ "type": "Feature", "properties": { "voltage_kv": 220.0, "from_node": 115, "to_node": 132, "length_km": 398.45161454386556, "delaunay_k": 3, "edge_set": "Delaunay3" }, "geometry": { "type": "LineString", "coordinates": [ [ 24.285278, 62.976446 ], [ 27.030487, 66.33089 ] ] } },
{ "type": "Feature", "properties": { "voltage_kv": 220.0, "from_node": 115, "to_node": 136, "length_km": 417.01127716372719, "delaunay_k": 3, "edge_set": "Delaunay3" }, "geometry": { "type": "LineString", "coordinates": [ [ 24.285278, 62.976446 ], [ 27.398529, 66.450241 ] ] } },
{ "type": "Feature", "properties": { "voltage_kv": 220.0, "from_node": 116, "to_node": 119, "length_km": 418.71622778825554, "delaunay_k": 3, "edge_set": "Delaunay3" }, "geometry": { "type": "LineString", "coordinates": [ [ 24.892273, 65.995123 ], [ 25.180664, 62.261532 ] ] } },
{ "type": "Feature", "properties": { "voltage_kv": 220.0, "from_node": 116, "to_node": 133, "length_km": 442.88009958898078, "delaunay_k": 3, "edge_set": "Delaunay3" }, "geometry": { "type": "LineString", "coordinates": [ [ 24.892273, 65.995123 ], [ 27.071686, 69.862801 ] ] } },
{ "type": "Feature", "properties": { "voltage_kv": 220.0, "from_node": 116, "to_node": 137, "length_km": 320.43803234699698, "delaunay_k": 3, "edge_set": "Delaunay3" }, "geometry": { "type": "LineString", "coordinates": [ [ 24.892273, 65.995123 ], [ 27.674561, 68.645556 ] ] } },
{ "type": "Feature", "properties": { "voltage_kv": 220.0, "from_node": 117, "to_node": 134, "length_km": 421.95235225932663, "delaunay_k": 3, "edge_set": "Delaunay3" }, "geometry": { "type": "LineString", "coordinates": [ [ 25.069427, 66.140521 ], [ 27.239227, 69.817839 ] ] } },
{ "type": "Feature", "properties": { "voltage_kv": 220.0, "from_node": 117, "to_node": 139, "length_km": 473.82020563364193, "delaunay_k": 3, "edge_set": "Delaunay3" }, "geometry": { "type": "LineString", "coordinates": [ [ 25.069427, 66.140521 ], [ 28.572693, 70.163212 ] ] } },
{ "type": "Feature", "properties": { "voltage_kv": 220.0, "from_node": 118, "to_node": 128, "length_km": 313.76561541000495, "delaunay_k": 3, "edge_set": "Delaunay3" }, "geometry": { "type": "LineString", "coordinates": [ [ 25.085907, 67.498059 ], [ 26.51825, 64.759489 ] ] } },
{ "type": "Feature", "properties": { "voltage_kv": 220.0, "from_node": 118, "to_node": 138, "length_km": 361.26408812165914, "delaunay_k": 3, "edge_set": "Delaunay3" }, "geometry": { "type": "LineString", "coordinates": [ [ 25.085907, 67.498059 ], [ 28.45047, 64.58147 ] ] } },
{ "type": "Feature", "properties": { "voltage_kv": 220.0, "from_node": 119, "to_node": 132, "length_km": 465.20298379624069, "delaunay_k": 3, "edge_set": "Delaunay3" }, "geometry": { "type": "LineString", "coordinates": [ [ 25.180664, 62.261532 ], [ 27.030487, 66.33089 ] ] } },
{ "type": "Feature", "properties": { "voltage_kv": 220.0, "from_node": 119, "to_node": 136, "length_km": 482.02137309372858, "delaunay_k": 3, "edge_set": "Delaunay3" }, "geometry": { "type": "LineString", "coordinates": [ [ 25.180664, 62.261532 ], [ 27.398529, 66.450241 ] ] } },
{ "type": "Feature", "properties": { "voltage_kv": 220.0, "from_node": 120, "to_node": 124, "length_km": 348.40860232845949, "delaunay_k": 3, "edge_set": "Delaunay3" }, "geometry": { "type": "LineString", "coordinates": [ [ 25.252075, 61.880107 ], [ 26.05957, 64.965416 ] ] } },
{ "type": "Feature", "properties": { "voltage_kv": 220.0, "from_node": 120, "to_node": 126, "length_km": 327.96270356165269, "delaunay_k": 3, "edge_set": "Delaunay3" }, "geometry": { "type": "LineString", "coordinates": [ [ 25.252075, 61.880107 ], [ 26.115875, 64.778222 ] ] } },
{ "type": "Feature", "properties": { "voltage_kv": 220.0, "from_node": 120, "to_node": 127, "length_km": 323.16683470436504, "delaunay_k": 3, "edge_set": "Delaunay3" }, "geometry": { "type": "LineString", "coordinates": [ [ 25.252075, 61.880107 ], [ 26.455078, 64.709668 ] ] } },
{ "type": "Feature", "properties": { "voltage_kv": 220.0, "from_node": 120, "to_node": 131, "length_km": 310.85448074468803, "delaunay_k": 3, "edge_set": "Delaunay3" }, "geometry": { "type": "LineString", "coordinates": [ [ 25.252075, 61.880107 ], [ 26.843719, 64.556111 ] ] } },
{ "type": "Feature", "properties": { "voltage_kv": 220.0, "from_node": 120, "to_node": 138, "length_km": 343.746746896319, "delaunay_k": 3, "edge_set": "Delaunay3" }, "geometry": { "type": "LineString", "coordinates": [ [ 25.252075, 61.880107 ], [ 28.45047, 64.58147 ] ] } },
{ "type": "Feature", "properties": { "voltage_kv": 220.0, "from_node": 121, "to_node": 135, "length_km": 370.30915593220516, "delaunay_k": 3, "edge_set": "Delaunay3" }, "geometry": { "type": "LineString", "coordinates": [ [ 25.333099, 64.045767 ], [ 27.387543, 67.23753 ] ] } },
{ "type": "Feature", "properties": { "voltage_kv": 220.0, "from_node": 122, "to_node": 134, "length_km": 403.08639299372015, "delaunay_k": 3, "edge_set": "Delaunay3" }, "geometry": { "type": "LineString", "coordinates": [ [ 25.415497, 66.285642 ], [ 27.239227, 69.817839 ] ] } },
{ "type": "Feature", "properties": { "voltage_kv": 220.0, "from_node": 122, "to_node": 139, "length_km": 453.93799504724609, "delaunay_k": 3, "edge_set": "Delaunay3" }, "geometry": { "type": "LineString", "coordinates": [ [ 25.415497, 66.285642 ], [ 28.572693, 70.163212 ] ] } },
{ "type": "Feature", "properties": { "voltage_kv": 220.0, "from_node": 123, "to_node": 134, "length_km": 386.76224966305682, "delaunay_k": 3, "edge_set": "Delaunay3" }, "geometry": { "type": "LineString", "coordinates": [ [ 25.717621, 66.413451 ], [ 27.239227, 69.817839 ] ] } },
{ "type": "Feature", "properties": { "voltage_kv": 220.0, "from_node": 123, "to_node": 139, "length_km": 436.63405874321654, "delaunay_k": 3, "edge_set": "Delaunay3" }, "geometry": { "type": "LineString", "coordinates": [ [ 25.717621, 66.413451 ], [ 28.572693, 70.163212 ] ] } },
{ "type": "Feature", "properties": { "voltage_kv": 220.0, "from_node": 125, "to_node": 138, "length_km": 354.79534713469519, "delaunay_k": 3, "edge_set": "Delaunay3" }, "geometry": { "type": "LineString", "coordinates": [ [ 26.098022, 67.596139 ], [ 28.45047, 64.58147 ] ] } },
{ "type": "Feature", "properties": { "voltage_kv": 220.0, "from_node": 129, "to_node": 133, "length_km": 390.76999326092078, "delaunay_k": 3, "edge_set": "Delaunay3" }, "geometry": { "type": "LineString", "coordinates": [ [ 26.769562, 66.378809 ], [ 27.071686, 69.862801 ] ] } },
{ "type": "Feature", "properties": { "voltage_kv": 220.0, "from_node": 129, "to_node": 134, "length_km": 386.04590188471997, "delaunay_k": 3, "edge_set": "Delaunay3" }, "geometry": { "type": "LineString", "coordinates": [ [ 26.769562, 66.378809 ], [ 27.239227, 69.817839 ] ] } },
{ "type": "Feature", "properties": { "voltage_kv": 220.0, "from_node": 129, "to_node": 139, "length_km": 430.92295972736872, "delaunay_k": 3, "edge_set": "Delaunay3" }, "geometry": { "type": "LineString", "coordinates": [ [ 26.769562, 66.378809 ], [ 28.572693, 70.163212 ] ] } },
{ "type": "Feature", "properties": { "voltage_kv": 220.0, "from_node": 130, "to_node": 138, "length_km": 347.09546569120027, "delaunay_k": 3, "edge_set": "Delaunay3" }, "geometry": { "type": "LineString", "coordinates": [ [ 26.820374, 67.602419 ], [ 28.45047, 64.58147 ] ] } },
{ "type": "Feature", "properties": { "voltage_kv": 220.0, "from_node": 131, "to_node": 135, "length_km": 301.89158896507035, "delaunay_k": 3, "edge_set": "Delaunay3" }, "geometry": { "type": "LineString", "coordinates": [ [ 26.843719, 64.556111 ], [ 27.387543, 67.23753 ] ] } },
{ "type": "Feature", "properties": { "voltage_kv": 220.0, "from_node": 132, "to_node": 133, "length_km": 395.98200570137891, "delaunay_k": 3, "edge_set": "Delaunay3" }, "geometry": { "type": "LineString", "coordinates": [ [ 27.030487, 66.33089 ], [ 27.071686, 69.862801 ] ] } },
{ "type": "Feature", "properties": { "voltage_kv": 220.0, "from_node": 133, "to_node": 136, "length_km": 382.88145218283495, "delaunay_k": 3, "edge_set": "Delaunay3" }, "geometry": { "type": "LineString", "coordinates": [ [ 27.071686, 69.862801 ], [ 27.398529, 66.450241 ] ] } },
{ "type": "Feature", "properties": { "voltage_kv": 220.0, "from_node": 134, "to_node": 136, "length_km": 377.67770019004399, "delaunay_k": 3, "edge_set": "Delaunay3" }, "geometry": { "type": "LineString", "coordinates": [ [ 27.239227, 69.817839 ], [ 27.398529, 66.450241 ] ] } },
{ "type": "Feature", "properties": { "voltage_kv": 220.0, "from_node": 136, "to_node": 139, "length_km": 419.30598713833922, "delaunay_k": 3, "edge_set": "Delaunay3" }, "geometry": { "type": "LineString", "coordinates": [ [ 27.398529, 66.450241 ], [ 28.572693, 70.163212 ] ] } },
{ "type": "Feature", "properties": { "voltage_kv": 220.0, "from_node": 137, "to_node": 138, "length_km": 457.5347320532195, "delaunay_k": 3, "edge_set": "Delaunay3" }, "geometry": { "type": "LineString", "coordinates": [ [ 27.674561, 68.645556 ], [ 28.45047, 64.58147 ] ] } }
]
}
