{
"type": "FeatureCollection",
"name": "n490_delaunay_connectivity_repairs",
"crs": { "type": "name", "properties": { "name": "urn:ogc:def:crs:OGC:1.3:CRS84" } },
"features": [
{ "type": "Feature", "properties": { "from_node": 1, "to_node": 2, "length_km": 16.631939868225754, "repair_iteration": 1, "edge_source": "connectivity_repair" }, "geometry": { "type": "LineString", "coordinates": [ [ 11.501312, 54.568081 ], [ 11.504059, 54.717482 ] ] } },
{ "type": "Feature", "properties": { "from_node": 0, "to_node": 1, "length_km": 10.628642701527369, "repair_iteration": 2, "edge_source": "connectivity_repair" }, "geometry": { "type": "LineString", "coordinates": [ [ 11.661987, 54.548173 ], [ 11.501312, 54.568081 ] ] } }
]
}
