{
"type": "FeatureCollection",
"name": "n490_220kv_delaunay2_removed_length",
"crs": { "type": "name", "properties": { "name": "urn:ogc:def:crs:OGC:1.3:CRS84" } },
"features": [
{ "type": "Feature", "properties": { "voltage_kv": 220.0, "from_node": 0, "to_node": 7, "length_km": 402.12796361778436, "delaunay_k": 2, "edge_set": "Delaunay2" }, "geometry": { "type": "LineString", "coordinates": [ [ 12.590332, 62.571841 ], [ 13.763123, 66.142743 ] ] } },
{ "type": "Feature", "properties": { "voltage_kv": 220.0, "from_node": 2, "to_node": 7, "length_km": 309.65507054569076, "delaunay_k": 2, "edge_set": "Delaunay2" }, "geometry": { "type": "LineString", "coordinates": [ [ 13.458252, 63.368755 ], [ 13.763123, 66.142743 ] ] } },
{ "type": "Feature", "properties": { "voltage_kv": 220.0, "from_node": 16, "to_node": 30, "length_km": 296.19912070491426, "delaunay_k": 2, "edge_set": "Delaunay2" }, "geometry": { "type": "LineString", "coordinates": [ [ 14.16687, 62.071739 ], [ 15.231171, 59.466013 ] ] } },
{ "type": "Feature", "properties": { "voltage_kv": 220.0, "from_node": 16, "to_node": 45, "length_km": 303.43170560457054, "delaunay_k": 2, "edge_set": "Delaunay2" }, "geometry": { "type": "LineString", "coordinates": [ [ 14.16687, 62.071739 ], [ 15.971375, 59.496697 ] ] } },
{ "type": "Feature", "properties": { "voltage_kv": 220.0, "from_node": 40, "to_node": 111, "length_km": 353.95909815233466, "delaunay_k": 2, "edge_set": "Delaunay2" }, "geometry": { "type": "LineString", "coordinates": [ [ 15.783234, 64.967159 ], [ 23.100128, 65.837089 ] ] } },
{ "type": "Feature", "properties": { "voltage_kv": 220.0, "from_node": 44, "to_node": 111, "length_km": 358.29949493599588, "delaunay_k": 2, "edge_set": "Delaunay2" }, "geometry": { "type": "LineString", "coordinates": [ [ 15.923309, 64.710254 ], [ 23.100128, 65.837089 ] ] } },
{ "type": "Feature", "properties": { "voltage_kv": 220.0, "from_node": 58, "to_node": 111, "length_km": 315.54624596594073, "delaunay_k": 2, "edge_set": "Delaunay2" }, "geometry": { "type": "LineString", "coordinates": [ [ 16.387482, 65.321005 ], [ 23.100128, 65.837089 ] ] } },
{ "type": "Feature", "properties": { "voltage_kv": 220.0, "from_node": 62, "to_node": 111, "length_km": 309.29575678867286, "delaunay_k": 2, "edge_set": "Delaunay2" }, "geometry": { "type": "LineString", "coordinates": [ [ 16.489105, 65.386291 ], [ 23.100128, 65.837089 ] ] } },
{ "type": "Feature", "properties": { "voltage_kv": 220.0, "from_node": 93, "to_node": 111, "length_km": 324.65995106652514, "delaunay_k": 2, "edge_set": "Delaunay2" }, "geometry": { "type": "LineString", "coordinates": [ [ 17.310333, 64.26428 ], [ 23.100128, 65.837089 ] ] } },
{ "type": "Feature", "properties": { "voltage_kv": 220.0, "from_node": 96, "to_node": 111, "length_km": 324.60272799213203, "delaunay_k": 2, "edge_set": "Delaunay2" }, "geometry": { "type": "LineString", "coordinates": [ [ 17.449036, 64.183063 ], [ 23.100128, 65.837089 ] ] } },
{ "type": "Feature", "properties": { "voltage_kv": 220.0, "from_node": 97, "to_node": 114, "length_km": 358.7888206182115, "delaunay_k": 2, "edge_set": "Delaunay2" }, "geometry": { "type": "LineString", "coordinates": [ [ 17.541046, 64.996778 ], [ 24.892273, 65.995123 ] ] } },
{ "type": "Feature", "properties": { "voltage_kv": 220.0, "from_node": 97, "to_node": 115, "length_km": 370.94694218937394, "delaunay_k": 2, "edge_set": "Delaunay2" }, "geometry": { "type": "LineString", "coordinates": [ [ 17.541046, 64.996778 ], [ 25.069427, 66.140521 ] ] } },
{ "type": "Feature", "properties": { "voltage_kv": 220.0, "from_node": 97, "to_node": 116, "length_km": 439.76348571855186, "delaunay_k": 2, "edge_set": "Delaunay2" }, "geometry": { "type": "LineString", "coordinates": [ [ 17.541046, 64.996778 ], [ 25.085907, 67.498059 ] ] } },
{ "type": "Feature", "properties": { "voltage_kv": 220.0, "from_node": 110, "to_node": 122, "length_km": 296.61318667784184, "delaunay_k": 2, "edge_set": "Delaunay2" }, "geometry": { "type": "LineString", "coordinates": [ [ 22.633209, 62.789912 ], [ 26.05957, 64.965416 ] ] } },
{ "type": "Feature", "properties": { "voltage_kv": 220.0, "from_node": 111, "to_node": 131, "length_km": 480.77070809543176, "delaunay_k": 2, "edge_set": "Delaunay2" }, "geometry": { "type": "LineString", "coordinates": [ [ 23.100128, 65.837089 ], [ 27.071686, 69.862801 ] ] } },
{ "type": "Feature", "properties": { "voltage_kv": 220.0, "from_node": 111, "to_node": 135, "length_km": 371.72464043264449, "delaunay_k": 2, "edge_set": "Delaunay2" }, "geometry": { "type": "LineString", "coordinates": [ [ 23.100128, 65.837089 ], [ 27.674561, 68.645556 ] ] } },
{ "type": "Feature", "properties": { "voltage_kv": 220.0, "from_node": 112, "to_node": 130, "length_km": 333.79250217207135, "delaunay_k": 2, "edge_set": "Delaunay2" }, "geometry": { "type": "LineString", "coordinates": [ [ 23.1427, 63.842485 ], [ 27.030487, 66.33089 ] ] } },
{ "type": "Feature", "properties": { "voltage_kv": 220.0, "from_node": 115, "to_node": 131, "length_km": 425.39266772807179, "delaunay_k": 2, "edge_set": "Delaunay2" }, "geometry": { "type": "LineString", "coordinates": [ [ 25.069427, 66.140521 ], [ 27.071686, 69.862801 ] ] } },
{ "type": "Feature", "properties": { "voltage_kv": 220.0, "from_node": 115, "to_node": 135, "length_km": 302.35674466423677, "delaunay_k": 2, "edge_set": "Delaunay2" }, "geometry": { "type": "LineString", "coordinates": [ [ 25.069427, 66.140521 ], [ 27.674561, 68.645556 ] ] } },
{ "type": "Feature", "properties": { "voltage_kv": 220.0, "from_node": 116, "to_node": 137, "length_km": 330.25808631273213, "delaunay_k": 2, "edge_set": "Delaunay2" }, "geometry": { "type": "LineString", "coordinates": [ [ 25.085907, 67.498059 ], [ 28.572693, 70.163212 ] ] } },
{ "type": "Feature", "properties": { "voltage_kv": 220.0, "from_node": 117, "to_node": 122, "length_km": 306.38785114332484, "delaunay_k": 2, "edge_set": "Delaunay2" }, "geometry": { "type": "LineString", "coordinates": [ [ 25.180664, 62.261532 ], [ 26.05957, 64.965416 ] ] } },
{ "type": "Feature", "properties": { "voltage_kv": 220.0, "from_node": 117, "to_node": 136, "length_km": 307.95403807981916, "delaunay_k": 2, "edge_set": "Delaunay2" }, "geometry": { "type": "LineString", "coordinates": [ [ 25.180664, 62.261532 ], [ 28.45047, 64.58147 ] ] } },
{ "type": "Feature", "properties": { "voltage_kv": 220.0, "from_node": 120, "to_node": 131, "length_km": 406.75097740596414, "delaunay_k": 2, "edge_set": "Delaunay2" }, "geometry": { "type": "LineString", "coordinates": [ [ 25.415497, 66.285642 ], [ 27.071686, 69.862801 ] ] } },
{ "type": "Feature", "properties": { "voltage_kv": 220.0, "from_node": 121, "to_node": 131, "length_km": 390.63375506478565, "delaunay_k": 2, "edge_set": "Delaunay2" }, "geometry": { "type": "LineString", "coordinates": [ [ 25.717621, 66.413451 ], [ 27.071686, 69.862801 ] ] } },
{ "type": "Feature", "properties": { "voltage_kv": 220.0, "from_node": 123, "to_node": 137, "length_km": 304.60243405578746, "delaunay_k": 2, "edge_set": "Delaunay2" }, "geometry": { "type": "LineString", "coordinates": [ [ 26.098022, 67.596139 ], [ 28.572693, 70.163212 ] ] } },
{ "type": "Feature", "properties": { "voltage_kv": 220.0, "from_node": 128, "to_node": 137, "length_km": 295.71199114901412, "delaunay_k": 2, "edge_set": "Delaunay2" }, "geometry": { "type": "LineString", "coordinates": [ [ 26.820374, 67.602419 ], [ 28.572693, 70.163212 ] ] } },
{ "type": "Feature", "properties": { "voltage_kv": 220.0, "from_node": 131, "to_node": 133, "length_km": 294.60628920093205, "delaunay_k": 2, "edge_set": "Delaunay2" }, "geometry": { "type": "LineString", "coordinates": [ [ 27.071686, 69.862801 ], [ 27.387543, 67.23753 ] ] } },
{ "type": "Feature", "properties": { "voltage_kv": 220.0, "from_node": 133, "to_node": 136, "length_km": 302.16853478958376, "delaunay_k": 2, "edge_set": "Delaunay2" }, "geometry": { "type": "LineString", "coordinates": [ [ 27.387543, 67.23753 ], [ 28.45047, 64.58147 ] ] } },
{ "type": "Feature", "properties": { "voltage_kv": 220.0, "from_node": 133, "to_node": 137, "length_km": 331.65051913968261, "delaunay_k": 2, "edge_set": "Delaunay2" }, "geometry": { "type": "LineString", "coordinates": [ [ 27.387543, 67.23753 ], [ 28.572693, 70.163212 ] ] } }
]
}
