{
"type": "FeatureCollection",
"name": "n490_300kv_mst",
"crs": { "type": "name", "properties": { "name": "urn:ogc:def:crs:OGC:1.3:CRS84" } },
"features": [
{ "type": "Feature", "properties": { "voltage_kv": 300.0, "from_node": 0, "to_node": 1, "length_km": 31.049362999871391, "edge_source": "delaunay", "edge_set": "MST", "mst": true }, "geometry": { "type": "LineString", "coordinates": [ [ 4.998779, 60.703432 ], [ 5.259705, 60.456541 ] ] } },
{ "type": "Feature", "properties": { "voltage_kv": 300.0, "from_node": 1, "to_node": 6, "length_km": 13.530091163544105, "edge_source": "delaunay", "edge_set": "MST", "mst": true }, "geometry": { "type": "LineString", "coordinates": [ [ 5.259705, 60.456541 ], [ 5.494537, 60.42131 ] ] } },
{ "type": "Feature", "properties": { "voltage_kv": 300.0, "from_node": 2, "to_node": 7, "length_km": 20.232325698377061, "edge_source": "delaunay", "edge_set": "MST", "mst": true }, "geometry": { "type": "LineString", "coordinates": [ [ 5.262451, 59.225853 ], [ 5.568695, 59.317075 ] ] } },
{ "type": "Feature", "properties": { "voltage_kv": 300.0, "from_node": 2, "to_node": 8, "length_km": 32.111097920274908, "edge_source": "delaunay", "edge_set": "MST", "mst": true }, "geometry": { "type": "LineString", "coordinates": [ [ 5.262451, 59.225853 ], [ 5.623627, 59.00592 ] ] } },
{ "type": "Feature", "properties": { "voltage_kv": 300.0, "from_node": 3, "to_node": 7, "length_km": 22.080965335338032, "edge_source": "delaunay", "edge_set": "MST", "mst": true }, "geometry": { "type": "LineString", "coordinates": [ [ 5.39978, 59.495303 ], [ 5.568695, 59.317075 ] ] } },
{ "type": "Feature", "properties": { "voltage_kv": 300.0, "from_node": 3, "to_node": 5, "length_km": 30.637630853154921, "edge_source": "delaunay", "edge_set": "MST", "mst": true }, "geometry": { "type": "LineString", "coordinates": [ [ 5.39978, 59.495303 ], [ 5.461578, 59.768152 ] ] } },
{ "type": "Feature", "properties": { "voltage_kv": 300.0, "from_node": 4, "to_node": 6, "length_km": 8.623567430115088, "edge_source": "delaunay", "edge_set": "MST", "mst": true }, "geometry": { "type": "LineString", "coordinates": [ [ 5.449219, 60.347337 ], [ 5.494537, 60.42131 ] ] } },
{ "type": "Feature", "properties": { "voltage_kv": 300.0, "from_node": 5, "to_node": 12, "length_km": 28.641372142098501, "edge_source": "delaunay", "edge_set": "MST", "mst": true }, "geometry": { "type": "LineString", "coordinates": [ [ 5.461578, 59.768152 ], [ 5.868073, 59.923367 ] ] } },
{ "type": "Feature", "properties": { "voltage_kv": 300.0, "from_node": 6, "to_node": 11, "length_km": 33.037219889770761, "edge_source": "delaunay", "edge_set": "MST", "mst": true }, "geometry": { "type": "LineString", "coordinates": [ [ 5.494537, 60.42131 ], [ 5.847473, 60.661069 ] ] } },
{ "type": "Feature", "properties": { "voltage_kv": 300.0, "from_node": 8, "to_node": 9, "length_km": 10.310946208865028, "edge_source": "delaunay", "edge_set": "MST", "mst": true }, "geometry": { "type": "LineString", "coordinates": [ [ 5.623627, 59.00592 ], [ 5.715637, 58.926626 ] ] } },
{ "type": "Feature", "properties": { "voltage_kv": 300.0, "from_node": 9, "to_node": 10, "length_km": 11.413796912107729, "edge_source": "delaunay", "edge_set": "MST", "mst": true }, "geometry": { "type": "LineString", "coordinates": [ [ 5.715637, 58.926626 ], [ 5.756836, 58.82654 ] ] } },
{ "type": "Feature", "properties": { "voltage_kv": 300.0, "from_node": 11, "to_node": 16, "length_km": 13.836448262776919, "edge_source": "delaunay", "edge_set": "MST", "mst": true }, "geometry": { "type": "LineString", "coordinates": [ [ 5.847473, 60.661069 ], [ 6.100159, 60.664433 ] ] } },
{ "type": "Feature", "properties": { "voltage_kv": 300.0, "from_node": 12, "to_node": 17, "length_km": 15.021406835865003, "edge_source": "delaunay", "edge_set": "MST", "mst": true }, "geometry": { "type": "LineString", "coordinates": [ [ 5.868073, 59.923367 ], [ 6.113892, 59.869641 ] ] } },
{ "type": "Feature", "properties": { "voltage_kv": 300.0, "from_node": 13, "to_node": 16, "length_km": 20.536714465815148, "edge_source": "delaunay", "edge_set": "MST", "mst": true }, "geometry": { "type": "LineString", "coordinates": [ [ 5.968323, 60.836881 ], [ 6.100159, 60.664433 ] ] } },
{ "type": "Feature", "properties": { "voltage_kv": 300.0, "from_node": 13, "to_node": 24, "length_km": 41.745729866769537, "edge_source": "delaunay", "edge_set": "MST", "mst": true }, "geometry": { "type": "LineString", "coordinates": [ [ 5.968323, 60.836881 ], [ 6.60965, 61.043662 ] ] } },
{ "type": "Feature", "properties": { "voltage_kv": 300.0, "from_node": 14, "to_node": 23, "length_km": 35.534868110234633, "edge_source": "delaunay", "edge_set": "MST", "mst": true }, "geometry": { "type": "LineString", "coordinates": [ [ 6.008148, 58.513066 ], [ 6.554718, 58.373638 ] ] } },
{ "type": "Feature", "properties": { "voltage_kv": 300.0, "from_node": 15, "to_node": 24, "length_km": 34.960144581980558, "edge_source": "delaunay", "edge_set": "MST", "mst": true }, "geometry": { "type": "LineString", "coordinates": [ [ 6.093292, 61.233245 ], [ 6.60965, 61.043662 ] ] } },
{ "type": "Feature", "properties": { "voltage_kv": 300.0, "from_node": 16, "to_node": 18, "length_km": 18.094162172047749, "edge_source": "delaunay", "edge_set": "MST", "mst": true }, "geometry": { "type": "LineString", "coordinates": [ [ 6.100159, 60.664433 ], [ 6.156464, 60.504583 ] ] } },
{ "type": "Feature", "properties": { "voltage_kv": 300.0, "from_node": 17, "to_node": 20, "length_km": 28.775977112157904, "edge_source": "delaunay", "edge_set": "MST", "mst": true }, "geometry": { "type": "LineString", "coordinates": [ [ 6.113892, 59.869641 ], [ 6.432495, 59.667741 ] ] } },
{ "type": "Feature", "properties": { "voltage_kv": 300.0, "from_node": 18, "to_node": 19, "length_km": 43.866084815451174, "edge_source": "delaunay", "edge_set": "MST", "mst": true }, "geometry": { "type": "LineString", "coordinates": [ [ 6.156464, 60.504583 ], [ 6.297913, 60.117566 ] ] } },
{ "type": "Feature", "properties": { "voltage_kv": 300.0, "from_node": 19, "to_node": 28, "length_km": 23.204113305632916, "edge_source": "delaunay", "edge_set": "MST", "mst": true }, "geometry": { "type": "LineString", "coordinates": [ [ 6.297913, 60.117566 ], [ 6.70166, 60.066211 ] ] } },
{ "type": "Feature", "properties": { "voltage_kv": 300.0, "from_node": 20, "to_node": 21, "length_km": 11.346864259763269, "edge_source": "delaunay", "edge_set": "MST", "mst": true }, "geometry": { "type": "LineString", "coordinates": [ [ 6.432495, 59.667741 ], [ 6.481934, 59.569114 ] ] } },
{ "type": "Feature", "properties": { "voltage_kv": 300.0, "from_node": 20, "to_node": 37, "length_km": 27.057363097573038, "edge_source": "delaunay", "edge_set": "MST", "mst": true }, "geometry": { "type": "LineString", "coordinates": [ [ 6.432495, 59.667741 ], [ 6.904907, 59.710712 ] ] } },
{ "type": "Feature", "properties": { "voltage_kv": 300.0, "from_node": 21, "to_node": 22, "length_km": 12.131062775294689, "edge_source": "delaunay", "edge_set": "MST", "mst": true }, "geometry": { "type": "LineString", "coordinates": [ [ 6.481934, 59.569114 ], [ 6.491547, 59.460431 ] ] } },
{ "type": "Feature", "properties": { "voltage_kv": 300.0, "from_node": 22, "to_node": 25, "length_km": 9.0425156087901382, "edge_source": "delaunay", "edge_set": "MST", "mst": true }, "geometry": { "type": "LineString", "coordinates": [ [ 6.491547, 59.460431 ], [ 6.650848, 59.461826 ] ] } },
{ "type": "Feature", "properties": { "voltage_kv": 300.0, "from_node": 23, "to_node": 39, "length_km": 28.153010570403183, "edge_source": "delaunay", "edge_set": "MST", "mst": true }, "geometry": { "type": "LineString", "coordinates": [ [ 6.554718, 58.373638 ], [ 7.001038, 58.28062 ] ] } },
{ "type": "Feature", "properties": { "voltage_kv": 300.0, "from_node": 23, "to_node": 33, "length_km": 35.521772766828342, "edge_source": "delaunay", "edge_set": "MST", "mst": true }, "geometry": { "type": "LineString", "coordinates": [ [ 6.554718, 58.373638 ], [ 6.82251, 58.659799 ] ] } },
{ "type": "Feature", "properties": { "voltage_kv": 300.0, "from_node": 24, "to_node": 34, "length_km": 15.628667330038379, "edge_source": "delaunay", "edge_set": "MST", "mst": true }, "geometry": { "type": "LineString", "coordinates": [ [ 6.60965, 61.043662 ], [ 6.871948, 61.10278 ] ] } },
{ "type": "Feature", "properties": { "voltage_kv": 300.0, "from_node": 25, "to_node": 26, "length_km": 16.466939952967959, "edge_source": "delaunay", "edge_set": "MST", "mst": true }, "geometry": { "type": "LineString", "coordinates": [ [ 6.650848, 59.461826 ], [ 6.663208, 59.314272 ] ] } },
{ "type": "Feature", "properties": { "voltage_kv": 300.0, "from_node": 26, "to_node": 35, "length_km": 26.159724012631862, "edge_source": "delaunay", "edge_set": "MST", "mst": true }, "geometry": { "type": "LineString", "coordinates": [ [ 6.663208, 59.314272 ], [ 6.889801, 59.110423 ] ] } },
{ "type": "Feature", "properties": { "voltage_kv": 300.0, "from_node": 27, "to_node": 35, "length_km": 12.070213671013935, "edge_source": "delaunay", "edge_set": "MST", "mst": true }, "geometry": { "type": "LineString", "coordinates": [ [ 6.696167, 59.068096 ], [ 6.889801, 59.110423 ] ] } },
{ "type": "Feature", "properties": { "voltage_kv": 300.0, "from_node": 28, "to_node": 32, "length_km": 11.405068925106326, "edge_source": "delaunay", "edge_set": "MST", "mst": true }, "geometry": { "type": "LineString", "coordinates": [ [ 6.70166, 60.066211 ], [ 6.797791, 60.156543 ] ] } },
{ "type": "Feature", "properties": { "voltage_kv": 300.0, "from_node": 28, "to_node": 29, "length_km": 21.902431936918589, "edge_source": "delaunay", "edge_set": "MST", "mst": true }, "geometry": { "type": "LineString", "coordinates": [ [ 6.70166, 60.066211 ], [ 6.745605, 59.871019 ] ] } },
{ "type": "Feature", "properties": { "voltage_kv": 300.0, "from_node": 29, "to_node": 38, "length_km": 13.012492360175241, "edge_source": "delaunay", "edge_set": "MST", "mst": true }, "geometry": { "type": "LineString", "coordinates": [ [ 6.745605, 59.871019 ], [ 6.968079, 59.837916 ] ] } },
{ "type": "Feature", "properties": { "voltage_kv": 300.0, "from_node": 30, "to_node": 36, "length_km": 8.1314773715294812, "edge_source": "delaunay", "edge_set": "MST", "mst": true }, "geometry": { "type": "LineString", "coordinates": [ [ 6.756592, 58.878393 ], [ 6.892548, 58.897552 ] ] } },
{ "type": "Feature", "properties": { "voltage_kv": 300.0, "from_node": 30, "to_node": 33, "length_km": 24.667074707157621, "edge_source": "delaunay", "edge_set": "MST", "mst": true }, "geometry": { "type": "LineString", "coordinates": [ [ 6.756592, 58.878393 ], [ 6.82251, 58.659799 ] ] } },
{ "type": "Feature", "properties": { "voltage_kv": 300.0, "from_node": 31, "to_node": 39, "length_km": 23.250437223857226, "edge_source": "delaunay", "edge_set": "MST", "mst": true }, "geometry": { "type": "LineString", "coordinates": [ [ 6.764832, 58.11344 ], [ 7.001038, 58.28062 ] ] } },
{ "type": "Feature", "properties": { "voltage_kv": 300.0, "from_node": 34, "to_node": 45, "length_km": 25.223802297766607, "edge_source": "delaunay", "edge_set": "MST", "mst": true }, "geometry": { "type": "LineString", "coordinates": [ [ 6.871948, 61.10278 ], [ 7.216644, 60.950443 ] ] } },
{ "type": "Feature", "properties": { "voltage_kv": 300.0, "from_node": 34, "to_node": 47, "length_km": 27.70150854582063, "edge_source": "delaunay", "edge_set": "MST", "mst": true }, "geometry": { "type": "LineString", "coordinates": [ [ 6.871948, 61.10278 ], [ 7.338867, 61.206798 ] ] } },
{ "type": "Feature", "properties": { "voltage_kv": 300.0, "from_node": 35, "to_node": 43, "length_km": 13.149001913871059, "edge_source": "delaunay", "edge_set": "MST", "mst": true }, "geometry": { "type": "LineString", "coordinates": [ [ 6.889801, 59.110423 ], [ 7.119141, 59.110423 ] ] } },
{ "type": "Feature", "properties": { "voltage_kv": 300.0, "from_node": 36, "to_node": 42, "length_km": 14.285772740208222, "edge_source": "delaunay", "edge_set": "MST", "mst": true }, "geometry": { "type": "LineString", "coordinates": [ [ 6.892548, 58.897552 ], [ 7.115021, 58.841464 ] ] } },
{ "type": "Feature", "properties": { "voltage_kv": 300.0, "from_node": 36, "to_node": 44, "length_km": 17.015451173790542, "edge_source": "delaunay", "edge_set": "MST", "mst": true }, "geometry": { "type": "LineString", "coordinates": [ [ 6.892548, 58.897552 ], [ 7.120514, 58.994604 ] ] } },
{ "type": "Feature", "properties": { "voltage_kv": 300.0, "from_node": 37, "to_node": 41, "length_km": 10.348752053530546, "edge_source": "delaunay", "edge_set": "MST", "mst": true }, "geometry": { "type": "LineString", "coordinates": [ [ 6.904907, 59.710712 ], [ 7.086182, 59.725947 ] ] } },
{ "type": "Feature", "properties": { "voltage_kv": 300.0, "from_node": 38, "to_node": 40, "length_km": 9.2126414878747234, "edge_source": "delaunay", "edge_set": "MST", "mst": true }, "geometry": { "type": "LineString", "coordinates": [ [ 6.968079, 59.837916 ], [ 7.080688, 59.777831 ] ] } },
{ "type": "Feature", "properties": { "voltage_kv": 300.0, "from_node": 39, "to_node": 59, "length_km": 64.81380016112027, "edge_source": "delaunay", "edge_set": "MST", "mst": true }, "geometry": { "type": "LineString", "coordinates": [ [ 7.001038, 58.28062 ], [ 8.102417, 58.2445 ] ] } },
{ "type": "Feature", "properties": { "voltage_kv": 300.0, "from_node": 40, "to_node": 41, "length_km": 5.792569427471042, "edge_source": "delaunay", "edge_set": "MST", "mst": true }, "geometry": { "type": "LineString", "coordinates": [ [ 7.080688, 59.777831 ], [ 7.086182, 59.725947 ] ] } },
{ "type": "Feature", "properties": { "voltage_kv": 300.0, "from_node": 40, "to_node": 48, "length_km": 14.905416887181604, "edge_source": "delaunay", "edge_set": "MST", "mst": true }, "geometry": { "type": "LineString", "coordinates": [ [ 7.080688, 59.777831 ], [ 7.34024, 59.805469 ] ] } },
{ "type": "Feature", "properties": { "voltage_kv": 300.0, "from_node": 43, "to_node": 44, "length_km": 12.911213005368728, "edge_source": "delaunay", "edge_set": "MST", "mst": true }, "geometry": { "type": "LineString", "coordinates": [ [ 7.119141, 59.110423 ], [ 7.120514, 58.994604 ] ] } },
{ "type": "Feature", "properties": { "voltage_kv": 300.0, "from_node": 46, "to_node": 47, "length_km": 6.3102556319735159, "edge_source": "delaunay", "edge_set": "MST", "mst": true }, "geometry": { "type": "LineString", "coordinates": [ [ 7.293549, 61.259009 ], [ 7.338867, 61.206798 ] ] } },
{ "type": "Feature", "properties": { "voltage_kv": 300.0, "from_node": 46, "to_node": 52, "length_km": 8.6669222750353541, "edge_source": "delaunay", "edge_set": "MST", "mst": true }, "geometry": { "type": "LineString", "coordinates": [ [ 7.293549, 61.259009 ], [ 7.439117, 61.292669 ] ] } },
{ "type": "Feature", "properties": { "voltage_kv": 300.0, "from_node": 47, "to_node": 56, "length_km": 34.869628001665284, "edge_source": "delaunay", "edge_set": "MST", "mst": true }, "geometry": { "type": "LineString", "coordinates": [ [ 7.338867, 61.206798 ], [ 7.892303, 61.044991 ] ] } },
{ "type": "Feature", "properties": { "voltage_kv": 300.0, "from_node": 48, "to_node": 49, "length_km": 6.6730029260123374, "edge_source": "delaunay", "edge_set": "MST", "mst": true }, "geometry": { "type": "LineString", "coordinates": [ [ 7.34024, 59.805469 ], [ 7.36908, 59.747402 ] ] } },
{ "type": "Feature", "properties": { "voltage_kv": 300.0, "from_node": 49, "to_node": 54, "length_km": 23.001258763278312, "edge_source": "delaunay", "edge_set": "MST", "mst": true }, "geometry": { "type": "LineString", "coordinates": [ [ 7.36908, 59.747402 ], [ 7.772827, 59.780596 ] ] } },
{ "type": "Feature", "properties": { "voltage_kv": 300.0, "from_node": 50, "to_node": 51, "length_km": 13.729191447956493, "edge_source": "delaunay", "edge_set": "MST", "mst": true }, "geometry": { "type": "LineString", "coordinates": [ [ 7.410278, 61.569805 ], [ 7.436371, 61.447302 ] ] } },
{ "type": "Feature", "properties": { "voltage_kv": 300.0, "from_node": 51, "to_node": 52, "length_km": 17.241320209500213, "edge_source": "delaunay", "edge_set": "MST", "mst": true }, "geometry": { "type": "LineString", "coordinates": [ [ 7.436371, 61.447302 ], [ 7.439117, 61.292669 ] ] } },
{ "type": "Feature", "properties": { "voltage_kv": 300.0, "from_node": 51, "to_node": 53, "length_km": 17.905200309475227, "edge_source": "delaunay", "edge_set": "MST", "mst": true }, "geometry": { "type": "LineString", "coordinates": [ [ 7.436371, 61.447302 ], [ 7.738495, 61.517456 ] ] } },
{ "type": "Feature", "properties": { "voltage_kv": 300.0, "from_node": 54, "to_node": 55, "length_km": 16.731408424017275, "edge_source": "delaunay", "edge_set": "MST", "mst": true }, "geometry": { "type": "LineString", "coordinates": [ [ 7.772827, 59.780596 ], [ 7.819519, 59.632352 ] ] } },
{ "type": "Feature", "properties": { "voltage_kv": 300.0, "from_node": 54, "to_node": 62, "length_km": 44.612731405763263, "edge_source": "delaunay", "edge_set": "MST", "mst": true }, "geometry": { "type": "LineString", "coordinates": [ [ 7.772827, 59.780596 ], [ 8.524017, 59.912353 ] ] } },
{ "type": "Feature", "properties": { "voltage_kv": 300.0, "from_node": 55, "to_node": 57, "length_km": 20.023499850546731, "edge_source": "delaunay", "edge_set": "MST", "mst": true }, "geometry": { "type": "LineString", "coordinates": [ [ 7.819519, 59.632352 ], [ 7.901917, 59.457639 ] ] } },
{ "type": "Feature", "properties": { "voltage_kv": 300.0, "from_node": 56, "to_node": 60, "length_km": 29.665336854949487, "edge_source": "delaunay", "edge_set": "MST", "mst": true }, "geometry": { "type": "LineString", "coordinates": [ [ 7.892303, 61.044991 ], [ 8.311157, 60.873666 ] ] } },
{ "type": "Feature", "properties": { "voltage_kv": 300.0, "from_node": 58, "to_node": 64, "length_km": 37.856836760102034, "edge_source": "delaunay", "edge_set": "MST", "mst": true }, "geometry": { "type": "LineString", "coordinates": [ [ 8.088684, 60.511343 ], [ 8.75885, 60.591688 ] ] } },
{ "type": "Feature", "properties": { "voltage_kv": 300.0, "from_node": 59, "to_node": 66, "length_km": 54.217998387611502, "edge_source": "delaunay", "edge_set": "MST", "mst": true }, "geometry": { "type": "LineString", "coordinates": [ [ 8.102417, 58.2445 ], [ 8.782196, 58.575413 ] ] } },
{ "type": "Feature", "properties": { "voltage_kv": 300.0, "from_node": 60, "to_node": 63, "length_km": 22.247835730059645, "edge_source": "delaunay", "edge_set": "MST", "mst": true }, "geometry": { "type": "LineString", "coordinates": [ [ 8.311157, 60.873666 ], [ 8.690186, 60.798714 ] ] } },
{ "type": "Feature", "properties": { "voltage_kv": 300.0, "from_node": 61, "to_node": 69, "length_km": 93.541863908413731, "edge_source": "delaunay", "edge_set": "MST", "mst": true }, "geometry": { "type": "LineString", "coordinates": [ [ 8.480072, 62.679816 ], [ 9.063721, 61.885931 ] ] } },
{ "type": "Feature", "properties": { "voltage_kv": 300.0, "from_node": 61, "to_node": 75, "length_km": 98.932432614784204, "edge_source": "delaunay", "edge_set": "MST", "mst": true }, "geometry": { "type": "LineString", "coordinates": [ [ 8.480072, 62.679816 ], [ 9.933014, 63.271947 ] ] } },
{ "type": "Feature", "properties": { "voltage_kv": 300.0, "from_node": 62, "to_node": 65, "length_km": 13.228759867716334, "edge_source": "delaunay", "edge_set": "MST", "mst": true }, "geometry": { "type": "LineString", "coordinates": [ [ 8.524017, 59.912353 ], [ 8.760223, 59.917172 ] ] } },
{ "type": "Feature", "properties": { "voltage_kv": 300.0, "from_node": 63, "to_node": 64, "length_km": 23.376444158156147, "edge_source": "delaunay", "edge_set": "MST", "mst": true }, "geometry": { "type": "LineString", "coordinates": [ [ 8.690186, 60.798714 ], [ 8.75885, 60.591688 ] ] } },
{ "type": "Feature", "properties": { "voltage_kv": 300.0, "from_node": 65, "to_node": 68, "length_km": 44.075374656066899, "edge_source": "delaunay", "edge_set": "MST", "mst": true }, "geometry": { "type": "LineString", "coordinates": [ [ 8.760223, 59.917172 ], [ 8.87558, 59.525961 ] ] } },
{ "type": "Feature", "properties": { "voltage_kv": 300.0, "from_node": 67, "to_node": 68, "length_km": 11.505616451441345, "edge_source": "delaunay", "edge_set": "MST", "mst": true }, "geometry": { "type": "LineString", "coordinates": [ [ 8.87146, 59.422728 ], [ 8.87558, 59.525961 ] ] } },
{ "type": "Feature", "properties": { "voltage_kv": 300.0, "from_node": 67, "to_node": 71, "length_km": 43.988137420289199, "edge_source": "delaunay", "edge_set": "MST", "mst": true }, "geometry": { "type": "LineString", "coordinates": [ [ 8.87146, 59.422728 ], [ 9.593811, 59.282019 ] ] } },
{ "type": "Feature", "properties": { "voltage_kv": 300.0, "from_node": 69, "to_node": 70, "length_km": 48.253917912876574, "edge_source": "delaunay", "edge_set": "MST", "mst": true }, "geometry": { "type": "LineString", "coordinates": [ [ 9.063721, 61.885931 ], [ 9.341125, 61.473546 ] ] } },
{ "type": "Feature", "properties": { "voltage_kv": 300.0, "from_node": 70, "to_node": 73, "length_km": 28.299896709442976, "edge_source": "delaunay", "edge_set": "MST", "mst": true }, "geometry": { "type": "LineString", "coordinates": [ [ 9.341125, 61.473546 ], [ 9.821777, 61.582225 ] ] } },
{ "type": "Feature", "properties": { "voltage_kv": 300.0, "from_node": 71, "to_node": 72, "length_km": 14.533996986316694, "edge_source": "delaunay", "edge_set": "MST", "mst": true }, "geometry": { "type": "LineString", "coordinates": [ [ 9.593811, 59.282019 ], [ 9.61441, 59.151995 ] ] } },
{ "type": "Feature", "properties": { "voltage_kv": 300.0, "from_node": 71, "to_node": 76, "length_km": 42.640434097689855, "edge_source": "delaunay", "edge_set": "MST", "mst": true }, "geometry": { "type": "LineString", "coordinates": [ [ 9.593811, 59.282019 ], [ 10.122528, 59.553808 ] ] } },
{ "type": "Feature", "properties": { "voltage_kv": 300.0, "from_node": 73, "to_node": 77, "length_km": 17.814326286874536, "edge_source": "delaunay", "edge_set": "MST", "mst": true }, "geometry": { "type": "LineString", "coordinates": [ [ 9.821777, 61.582225 ], [ 10.134888, 61.525314 ] ] } },
{ "type": "Feature", "properties": { "voltage_kv": 300.0, "from_node": 74, "to_node": 76, "length_km": 21.828097697046246, "edge_source": "delaunay", "edge_set": "MST", "mst": true }, "geometry": { "type": "LineString", "coordinates": [ [ 9.923401, 59.721792 ], [ 10.122528, 59.553808 ] ] } },
{ "type": "Feature", "properties": { "voltage_kv": 300.0, "from_node": 74, "to_node": 78, "length_km": 27.545005456996218, "edge_source": "delaunay", "edge_set": "MST", "mst": true }, "geometry": { "type": "LineString", "coordinates": [ [ 9.923401, 59.721792 ], [ 10.288696, 59.88687 ] ] } },
{ "type": "Feature", "properties": { "voltage_kv": 300.0, "from_node": 75, "to_node": 83, "length_km": 26.339838609871979, "edge_source": "delaunay", "edge_set": "MST", "mst": true }, "geometry": { "type": "LineString", "coordinates": [ [ 9.933014, 63.271947 ], [ 10.457611, 63.276888 ] ] } },
{ "type": "Feature", "properties": { "voltage_kv": 300.0, "from_node": 76, "to_node": 81, "length_km": 19.117217159160159, "edge_source": "delaunay", "edge_set": "MST", "mst": true }, "geometry": { "type": "LineString", "coordinates": [ [ 10.122528, 59.553808 ], [ 10.434265, 59.620547 ] ] } },
{ "type": "Feature", "properties": { "voltage_kv": 300.0, "from_node": 76, "to_node": 79, "length_km": 23.861466167981515, "edge_source": "delaunay", "edge_set": "MST", "mst": true }, "geometry": { "type": "LineString", "coordinates": [ [ 10.122528, 59.553808 ], [ 10.37796, 59.383584 ] ] } },
{ "type": "Feature", "properties": { "voltage_kv": 300.0, "from_node": 77, "to_node": 80, "length_km": 41.742089456392826, "edge_source": "delaunay", "edge_set": "MST", "mst": true }, "geometry": { "type": "LineString", "coordinates": [ [ 10.134888, 61.525314 ], [ 10.421906, 61.177019 ] ] } },
{ "type": "Feature", "properties": { "voltage_kv": 300.0, "from_node": 77, "to_node": 88, "length_km": 63.090256343650957, "edge_source": "delaunay", "edge_set": "MST", "mst": true }, "geometry": { "type": "LineString", "coordinates": [ [ 10.134888, 61.525314 ], [ 11.12915, 61.837358 ] ] } },
{ "type": "Feature", "properties": { "voltage_kv": 300.0, "from_node": 78, "to_node": 86, "length_km": 31.816602437646647, "edge_source": "delaunay", "edge_set": "MST", "mst": true }, "geometry": { "type": "LineString", "coordinates": [ [ 10.288696, 59.88687 ], [ 10.839386, 59.958448 ] ] } },
{ "type": "Feature", "properties": { "voltage_kv": 300.0, "from_node": 80, "to_node": 84, "length_km": 41.121624921424448, "edge_source": "delaunay", "edge_set": "MST", "mst": true }, "geometry": { "type": "LineString", "coordinates": [ [ 10.421906, 61.177019 ], [ 10.604553, 60.818808 ] ] } },
{ "type": "Feature", "properties": { "voltage_kv": 300.0, "from_node": 81, "to_node": 85, "length_km": 22.663279374249736, "edge_source": "delaunay", "edge_set": "MST", "mst": true }, "geometry": { "type": "LineString", "coordinates": [ [ 10.434265, 59.620547 ], [ 10.770721, 59.509939 ] ] } },
{ "type": "Feature", "properties": { "voltage_kv": 300.0, "from_node": 82, "to_node": 83, "length_km": 13.903813995157375, "edge_source": "delaunay", "edge_set": "MST", "mst": true }, "geometry": { "type": "LineString", "coordinates": [ [ 10.439758, 63.401361 ], [ 10.457611, 63.276888 ] ] } },
{ "type": "Feature", "properties": { "voltage_kv": 300.0, "from_node": 82, "to_node": 87, "length_km": 29.530984200485705, "edge_source": "delaunay", "edge_set": "MST", "mst": true }, "geometry": { "type": "LineString", "coordinates": [ [ 10.439758, 63.401361 ], [ 11.017914, 63.45726 ] ] } },
{ "type": "Feature", "properties": { "voltage_kv": 300.0, "from_node": 84, "to_node": 89, "length_km": 30.267015661361501, "edge_source": "delaunay", "edge_set": "MST", "mst": true }, "geometry": { "type": "LineString", "coordinates": [ [ 10.604553, 60.818808 ], [ 11.160736, 60.816799 ] ] } },
{ "type": "Feature", "properties": { "voltage_kv": 300.0, "from_node": 85, "to_node": 90, "length_km": 31.653489386224514, "edge_source": "delaunay", "edge_set": "MST", "mst": true }, "geometry": { "type": "LineString", "coordinates": [ [ 10.770721, 59.509939 ], [ 11.181335, 59.317776 ] ] } },
{ "type": "Feature", "properties": { "voltage_kv": 300.0, "from_node": 86, "to_node": 91, "length_km": 53.433990434418526, "edge_source": "delaunay", "edge_set": "MST", "mst": true }, "geometry": { "type": "LineString", "coordinates": [ [ 10.839386, 59.958448 ], [ 11.288452, 60.382648 ] ] } },
{ "type": "Feature", "properties": { "voltage_kv": 300.0, "from_node": 87, "to_node": 92, "length_km": 42.40510199431445, "edge_source": "delaunay", "edge_set": "MST", "mst": true }, "geometry": { "type": "LineString", "coordinates": [ [ 11.017914, 63.45726 ], [ 11.472473, 63.779452 ] ] } },
{ "type": "Feature", "properties": { "voltage_kv": 300.0, "from_node": 89, "to_node": 91, "length_km": 48.877875883961678, "edge_source": "delaunay", "edge_set": "MST", "mst": true }, "geometry": { "type": "LineString", "coordinates": [ [ 11.160736, 60.816799 ], [ 11.288452, 60.382648 ] ] } },
{ "type": "Feature", "properties": { "voltage_kv": 300.0, "from_node": 92, "to_node": 93, "length_km": 22.310703741313052, "edge_source": "delaunay", "edge_set": "MST", "mst": true }, "geometry": { "type": "LineString", "coordinates": [ [ 11.472473, 63.779452 ], [ 11.477966, 63.979576 ] ] } },
{ "type": "Feature", "properties": { "voltage_kv": 300.0, "from_node": 93, "to_node": 94, "length_km": 53.325453538567906, "edge_source": "delaunay", "edge_set": "MST", "mst": true }, "geometry": { "type": "LineString", "coordinates": [ [ 11.477966, 63.979576 ], [ 11.620789, 64.453849 ] ] } },
{ "type": "Feature", "properties": { "voltage_kv": 300.0, "from_node": 94, "to_node": 96, "length_km": 63.424517418671627, "edge_source": "delaunay", "edge_set": "MST", "mst": true }, "geometry": { "type": "LineString", "coordinates": [ [ 11.620789, 64.453849 ], [ 12.800446, 64.712014 ] ] } },
{ "type": "Feature", "properties": { "voltage_kv": 300.0, "from_node": 95, "to_node": 97, "length_km": 35.989458076242755, "edge_source": "delaunay", "edge_set": "MST", "mst": true }, "geometry": { "type": "LineString", "coordinates": [ [ 12.7565, 65.20262 ], [ 13.099823, 64.914228 ] ] } },
{ "type": "Feature", "properties": { "voltage_kv": 300.0, "from_node": 95, "to_node": 98, "length_km": 75.333680422041525, "edge_source": "delaunay", "edge_set": "MST", "mst": true }, "geometry": { "type": "LineString", "coordinates": [ [ 12.7565, 65.20262 ], [ 13.289337, 65.841024 ] ] } },
{ "type": "Feature", "properties": { "voltage_kv": 300.0, "from_node": 96, "to_node": 97, "length_km": 26.657841297756537, "edge_source": "delaunay", "edge_set": "MST", "mst": true }, "geometry": { "type": "LineString", "coordinates": [ [ 12.800446, 64.712014 ], [ 13.099823, 64.914228 ] ] } },
{ "type": "Feature", "properties": { "voltage_kv": 300.0, "from_node": 98, "to_node": 99, "length_km": 39.942125745716375, "edge_source": "delaunay", "edge_set": "MST", "mst": true }, "geometry": { "type": "LineString", "coordinates": [ [ 13.289337, 65.841024 ], [ 13.763123, 66.142743 ] ] } }
]
}
