{
"type": "FeatureCollection",
"name": "n490_132kv_delaunay4_removed_length",
"crs": { "type": "name", "properties": { "name": "urn:ogc:def:crs:OGC:1.3:CRS84" } },
"features": [
{ "type": "Feature", "properties": { "voltage_kv": 132.0, "from_node": 0, "to_node": 8, "length_km": 276.31324979151486, "delaunay_k": 4, "edge_set": "Delaunay4" }, "geometry": { "type": "LineString", "coordinates": [ [ 5.218506, 61.732826 ], [ 10.122528, 62.681707 ] ] } },
{ "type": "Feature", "properties": { "voltage_kv": 132.0, "from_node": 0, "to_node": 9, "length_km": 281.31908178840575, "delaunay_k": 4, "edge_set": "Delaunay4" }, "geometry": { "type": "LineString", "coordinates": [ [ 5.218506, 61.732826 ], [ 10.266724, 62.628719 ] ] } },
{ "type": "Feature", "properties": { "voltage_kv": 132.0, "from_node": 0, "to_node": 19, "length_km": 751.03920782591854, "delaunay_k": 4, "edge_set": "Delaunay4" }, "geometry": { "type": "LineString", "coordinates": [ [ 5.218506, 61.732826 ], [ 11.641388, 55.866835 ] ] } },
{ "type": "Feature", "properties": { "voltage_kv": 132.0, "from_node": 0, "to_node": 31, "length_km": 762.99631150396146, "delaunay_k": 4, "edge_set": "Delaunay4" }, "geometry": { "type": "LineString", "coordinates": [ [ 5.218506, 61.732826 ], [ 11.885834, 55.816715 ] ] } },
{ "type": "Feature", "properties": { "voltage_kv": 132.0, "from_node": 0, "to_node": 46, "length_km": 763.56194805003202, "delaunay_k": 4, "edge_set": "Delaunay4" }, "geometry": { "type": "LineString", "coordinates": [ [ 5.218506, 61.732826 ], [ 12.22641, 55.913812 ] ] } },
{ "type": "Feature", "properties": { "voltage_kv": 132.0, "from_node": 0, "to_node": 47, "length_km": 772.75545871231668, "delaunay_k": 4, "edge_set": "Delaunay4" }, "geometry": { "type": "LineString", "coordinates": [ [ 5.218506, 61.732826 ], [ 12.23465, 55.822116 ] ] } },
{ "type": "Feature", "properties": { "voltage_kv": 132.0, "from_node": 0, "to_node": 58, "length_km": 761.79376676759773, "delaunay_k": 4, "edge_set": "Delaunay4" }, "geometry": { "type": "LineString", "coordinates": [ [ 5.218506, 61.732826 ], [ 12.571106, 56.042897 ] ] } },
{ "type": "Feature", "properties": { "voltage_kv": 132.0, "from_node": 0, "to_node": 63, "length_km": 1050.3731456463493, "delaunay_k": 4, "edge_set": "Delaunay4" }, "geometry": { "type": "LineString", "coordinates": [ [ 5.218506, 61.732826 ], [ 19.24942, 69.183065 ] ] } },
{ "type": "Feature", "properties": { "voltage_kv": 132.0, "from_node": 1, "to_node": 6, "length_km": 260.25575473197978, "delaunay_k": 4, "edge_set": "Delaunay4" }, "geometry": { "type": "LineString", "coordinates": [ [ 5.748596, 61.49256 ], [ 9.930267, 62.764783 ] ] } },
{ "type": "Feature", "properties": { "voltage_kv": 132.0, "from_node": 1, "to_node": 7, "length_km": 293.63582389415842, "delaunay_k": 4, "edge_set": "Delaunay4" }, "geometry": { "type": "LineString", "coordinates": [ [ 5.748596, 61.49256 ], [ 9.933014, 63.271947 ] ] } },
{ "type": "Feature", "properties": { "voltage_kv": 132.0, "from_node": 1, "to_node": 10, "length_km": 719.73479934836735, "delaunay_k": 4, "edge_set": "Delaunay4" }, "geometry": { "type": "LineString", "coordinates": [ [ 5.748596, 61.49256 ], [ 11.089325, 55.66132 ] ] } },
{ "type": "Feature", "properties": { "voltage_kv": 132.0, "from_node": 1, "to_node": 18, "length_km": 725.27973619256488, "delaunay_k": 4, "edge_set": "Delaunay4" }, "geometry": { "type": "LineString", "coordinates": [ [ 5.748596, 61.49256 ], [ 11.550751, 55.724017 ] ] } },
{ "type": "Feature", "properties": { "voltage_kv": 132.0, "from_node": 1, "to_node": 30, "length_km": 740.86429368092024, "delaunay_k": 4, "edge_set": "Delaunay4" }, "geometry": { "type": "LineString", "coordinates": [ [ 5.748596, 61.49256 ], [ 11.877594, 55.657447 ] ] } },
{ "type": "Feature", "properties": { "voltage_kv": 132.0, "from_node": 1, "to_node": 44, "length_km": 740.72134211365903, "delaunay_k": 4, "edge_set": "Delaunay4" }, "geometry": { "type": "LineString", "coordinates": [ [ 5.748596, 61.49256 ], [ 12.154999, 55.737935 ] ] } },
{ "type": "Feature", "properties": { "voltage_kv": 132.0, "from_node": 1, "to_node": 48, "length_km": 740.60745047392675, "delaunay_k": 4, "edge_set": "Delaunay4" }, "geometry": { "type": "LineString", "coordinates": [ [ 5.748596, 61.49256 ], [ 12.240143, 55.764213 ] ] } },
{ "type": "Feature", "properties": { "voltage_kv": 132.0, "from_node": 1, "to_node": 52, "length_km": 745.33293208744328, "delaunay_k": 4, "edge_set": "Delaunay4" }, "geometry": { "type": "LineString", "coordinates": [ [ 5.748596, 61.49256 ], [ 12.389832, 55.761123 ] ] } },
{ "type": "Feature", "properties": { "voltage_kv": 132.0, "from_node": 1, "to_node": 53, "length_km": 730.90845798181363, "delaunay_k": 4, "edge_set": "Delaunay4" }, "geometry": { "type": "LineString", "coordinates": [ [ 5.748596, 61.49256 ], [ 12.474976, 55.935356 ] ] } },
{ "type": "Feature", "properties": { "voltage_kv": 132.0, "from_node": 1, "to_node": 55, "length_km": 732.44866590803758, "delaunay_k": 4, "edge_set": "Delaunay4" }, "geometry": { "type": "LineString", "coordinates": [ [ 5.748596, 61.49256 ], [ 12.520294, 55.933818 ] ] } },
{ "type": "Feature", "properties": { "voltage_kv": 132.0, "from_node": 1, "to_node": 61, "length_km": 732.41776039293859, "delaunay_k": 4, "edge_set": "Delaunay4" }, "geometry": { "type": "LineString", "coordinates": [ [ 5.748596, 61.49256 ], [ 12.933655, 56.070502 ] ] } },
{ "type": "Feature", "properties": { "voltage_kv": 132.0, "from_node": 2, "to_node": 6, "length_km": 263.77301179081246, "delaunay_k": 4, "edge_set": "Delaunay4" }, "geometry": { "type": "LineString", "coordinates": [ [ 6.093292, 61.233245 ], [ 9.930267, 62.764783 ] ] } },
{ "type": "Feature", "properties": { "voltage_kv": 132.0, "from_node": 2, "to_node": 7, "length_km": 302.41120756454978, "delaunay_k": 4, "edge_set": "Delaunay4" }, "geometry": { "type": "LineString", "coordinates": [ [ 6.093292, 61.233245 ], [ 9.933014, 63.271947 ] ] } },
{ "type": "Feature", "properties": { "voltage_kv": 132.0, "from_node": 2, "to_node": 10, "length_km": 685.54487877644158, "delaunay_k": 4, "edge_set": "Delaunay4" }, "geometry": { "type": "LineString", "coordinates": [ [ 6.093292, 61.233245 ], [ 11.089325, 55.66132 ] ] } },
{ "type": "Feature", "properties": { "voltage_kv": 132.0, "from_node": 2, "to_node": 18, "length_km": 690.99880524057266, "delaunay_k": 4, "edge_set": "Delaunay4" }, "geometry": { "type": "LineString", "coordinates": [ [ 6.093292, 61.233245 ], [ 11.550751, 55.724017 ] ] } },
{ "type": "Feature", "properties": { "voltage_kv": 132.0, "from_node": 2, "to_node": 30, "length_km": 706.55963395924448, "delaunay_k": 4, "edge_set": "Delaunay4" }, "geometry": { "type": "LineString", "coordinates": [ [ 6.093292, 61.233245 ], [ 11.877594, 55.657447 ] ] } },
{ "type": "Feature", "properties": { "voltage_kv": 132.0, "from_node": 2, "to_node": 44, "length_km": 706.40921253504575, "delaunay_k": 4, "edge_set": "Delaunay4" }, "geometry": { "type": "LineString", "coordinates": [ [ 6.093292, 61.233245 ], [ 12.154999, 55.737935 ] ] } },
{ "type": "Feature", "properties": { "voltage_kv": 132.0, "from_node": 2, "to_node": 48, "length_km": 706.29813517621903, "delaunay_k": 4, "edge_set": "Delaunay4" }, "geometry": { "type": "LineString", "coordinates": [ [ 6.093292, 61.233245 ], [ 12.240143, 55.764213 ] ] } },
{ "type": "Feature", "properties": { "voltage_kv": 132.0, "from_node": 2, "to_node": 52, "length_km": 711.03112961737918, "delaunay_k": 4, "edge_set": "Delaunay4" }, "geometry": { "type": "LineString", "coordinates": [ [ 6.093292, 61.233245 ], [ 12.389832, 55.761123 ] ] } },
{ "type": "Feature", "properties": { "voltage_kv": 132.0, "from_node": 2, "to_node": 53, "length_km": 696.62996857468329, "delaunay_k": 4, "edge_set": "Delaunay4" }, "geometry": { "type": "LineString", "coordinates": [ [ 6.093292, 61.233245 ], [ 12.474976, 55.935356 ] ] } },
{ "type": "Feature", "properties": { "voltage_kv": 132.0, "from_node": 2, "to_node": 55, "length_km": 698.1754706491613, "delaunay_k": 4, "edge_set": "Delaunay4" }, "geometry": { "type": "LineString", "coordinates": [ [ 6.093292, 61.233245 ], [ 12.520294, 55.933818 ] ] } },
{ "type": "Feature", "properties": { "voltage_kv": 132.0, "from_node": 2, "to_node": 61, "length_km": 698.24349655303229, "delaunay_k": 4, "edge_set": "Delaunay4" }, "geometry": { "type": "LineString", "coordinates": [ [ 6.093292, 61.233245 ], [ 12.933655, 56.070502 ] ] } },
{ "type": "Feature", "properties": { "voltage_kv": 132.0, "from_node": 3, "to_node": 11, "length_km": 225.09676759840741, "delaunay_k": 4, "edge_set": "Delaunay4" }, "geometry": { "type": "LineString", "coordinates": [ [ 7.033997, 62.47807 ], [ 11.12915, 61.837358 ] ] } },
{ "type": "Feature", "properties": { "voltage_kv": 132.0, "from_node": 3, "to_node": 42, "length_km": 779.41506046796042, "delaunay_k": 4, "edge_set": "Delaunay4" }, "geometry": { "type": "LineString", "coordinates": [ [ 7.033997, 62.47807 ], [ 12.061615, 55.969187 ] ] } },
{ "type": "Feature", "properties": { "voltage_kv": 132.0, "from_node": 3, "to_node": 62, "length_km": 964.13444868224019, "delaunay_k": 4, "edge_set": "Delaunay4" }, "geometry": { "type": "LineString", "coordinates": [ [ 7.033997, 62.47807 ], [ 19.158783, 69.620772 ] ] } },
{ "type": "Feature", "properties": { "voltage_kv": 132.0, "from_node": 3, "to_node": 64, "length_km": 975.96850204999384, "delaunay_k": 4, "edge_set": "Delaunay4" }, "geometry": { "type": "LineString", "coordinates": [ [ 7.033997, 62.47807 ], [ 19.820709, 69.558512 ] ] } },
{ "type": "Feature", "properties": { "voltage_kv": 132.0, "from_node": 3, "to_node": 65, "length_km": 965.76002872269919, "delaunay_k": 4, "edge_set": "Delaunay4" }, "geometry": { "type": "LineString", "coordinates": [ [ 7.033997, 62.47807 ], [ 20.376892, 69.243986 ] ] } },
{ "type": "Feature", "properties": { "voltage_kv": 132.0, "from_node": 4, "to_node": 5, "length_km": 237.75365109615095, "delaunay_k": 4, "edge_set": "Delaunay4" }, "geometry": { "type": "LineString", "coordinates": [ [ 7.338867, 61.206798 ], [ 9.602051, 63.058071 ] ] } },
{ "type": "Feature", "properties": { "voltage_kv": 132.0, "from_node": 4, "to_node": 13, "length_km": 706.14701988228171, "delaunay_k": 4, "edge_set": "Delaunay4" }, "geometry": { "type": "LineString", "coordinates": [ [ 7.338867, 61.206798 ], [ 11.295319, 55.21884 ] ] } },
{ "type": "Feature", "properties": { "voltage_kv": 132.0, "from_node": 4, "to_node": 14, "length_km": 682.13223227315166, "delaunay_k": 4, "edge_set": "Delaunay4" }, "geometry": { "type": "LineString", "coordinates": [ [ 7.338867, 61.206798 ], [ 11.348877, 55.455499 ] ] } },
{ "type": "Feature", "properties": { "voltage_kv": 132.0, "from_node": 4, "to_node": 21, "length_km": 679.09109001216825, "delaunay_k": 4, "edge_set": "Delaunay4" }, "geometry": { "type": "LineString", "coordinates": [ [ 7.338867, 61.206798 ], [ 11.670227, 55.548058 ] ] } },
{ "type": "Feature", "properties": { "voltage_kv": 132.0, "from_node": 4, "to_node": 37, "length_km": 684.0003742049347, "delaunay_k": 4, "edge_set": "Delaunay4" }, "geometry": { "type": "LineString", "coordinates": [ [ 7.338867, 61.206798 ], [ 11.949005, 55.560486 ] ] } },
{ "type": "Feature", "properties": { "voltage_kv": 132.0, "from_node": 4, "to_node": 43, "length_km": 682.40724135425853, "delaunay_k": 4, "edge_set": "Delaunay4" }, "geometry": { "type": "LineString", "coordinates": [ [ 7.338867, 61.206798 ], [ 12.108307, 55.611711 ] ] } },
{ "type": "Feature", "properties": { "voltage_kv": 132.0, "from_node": 4, "to_node": 50, "length_km": 681.26862280755336, "delaunay_k": 4, "edge_set": "Delaunay4" }, "geometry": { "type": "LineString", "coordinates": [ [ 7.338867, 61.206798 ], [ 12.311554, 55.670615 ] ] } },
{ "type": "Feature", "properties": { "voltage_kv": 132.0, "from_node": 4, "to_node": 54, "length_km": 685.66379587499625, "delaunay_k": 4, "edge_set": "Delaunay4" }, "geometry": { "type": "LineString", "coordinates": [ [ 7.338867, 61.206798 ], [ 12.490645134825497, 55.671527244775099 ] ] } },
{ "type": "Feature", "properties": { "voltage_kv": 132.0, "from_node": 4, "to_node": 56, "length_km": 680.15925930409571, "delaunay_k": 4, "edge_set": "Delaunay4" }, "geometry": { "type": "LineString", "coordinates": [ [ 7.338867, 61.206798 ], [ 12.527161, 55.734843 ] ] } },
{ "type": "Feature", "properties": { "voltage_kv": 132.0, "from_node": 4, "to_node": 57, "length_km": 674.93264615988107, "delaunay_k": 4, "edge_set": "Delaunay4" }, "geometry": { "type": "LineString", "coordinates": [ [ 7.338867, 61.206798 ], [ 12.56424, 55.795877 ] ] } },
{ "type": "Feature", "properties": { "voltage_kv": 132.0, "from_node": 4, "to_node": 59, "length_km": 681.6235257040596, "delaunay_k": 4, "edge_set": "Delaunay4" }, "geometry": { "type": "LineString", "coordinates": [ [ 7.338867, 61.206798 ], [ 12.580719, 55.73407 ] ] } },
{ "type": "Feature", "properties": { "voltage_kv": 132.0, "from_node": 4, "to_node": 60, "length_km": 688.99897081703148, "delaunay_k": 4, "edge_set": "Delaunay4" }, "geometry": { "type": "LineString", "coordinates": [ [ 7.338867, 61.206798 ], [ 12.583466, 55.662095 ] ] } },
{ "type": "Feature", "properties": { "voltage_kv": 132.0, "from_node": 5, "to_node": 66, "length_km": 874.78772117123287, "delaunay_k": 4, "edge_set": "Delaunay4" }, "geometry": { "type": "LineString", "coordinates": [ [ 9.602051, 63.058071 ], [ 21.041565, 69.431516 ] ] } },
{ "type": "Feature", "properties": { "voltage_kv": 132.0, "from_node": 5, "to_node": 67, "length_km": 926.90562622074424, "delaunay_k": 4, "edge_set": "Delaunay4" }, "geometry": { "type": "LineString", "coordinates": [ [ 9.602051, 63.058071 ], [ 22.138824, 69.713346 ] ] } },
{ "type": "Feature", "properties": { "voltage_kv": 132.0, "from_node": 6, "to_node": 66, "length_km": 894.83025866630385, "delaunay_k": 4, "edge_set": "Delaunay4" }, "geometry": { "type": "LineString", "coordinates": [ [ 9.930267, 62.764783 ], [ 21.041565, 69.431516 ] ] } },
{ "type": "Feature", "properties": { "voltage_kv": 132.0, "from_node": 6, "to_node": 67, "length_km": 946.56044650539809, "delaunay_k": 4, "edge_set": "Delaunay4" }, "geometry": { "type": "LineString", "coordinates": [ [ 9.930267, 62.764783 ], [ 22.138824, 69.713346 ] ] } },
{ "type": "Feature", "properties": { "voltage_kv": 132.0, "from_node": 7, "to_node": 68, "length_km": 949.83677214885518, "delaunay_k": 4, "edge_set": "Delaunay4" }, "geometry": { "type": "LineString", "coordinates": [ [ 9.933014, 63.271947 ], [ 23.410492, 69.935012 ] ] } },
{ "type": "Feature", "properties": { "voltage_kv": 132.0, "from_node": 7, "to_node": 69, "length_km": 946.65073815250059, "delaunay_k": 4, "edge_set": "Delaunay4" }, "geometry": { "type": "LineString", "coordinates": [ [ 9.933014, 63.271947 ], [ 23.990021, 69.68142 ] ] } },
{ "type": "Feature", "properties": { "voltage_kv": 132.0, "from_node": 7, "to_node": 70, "length_km": 1016.0130059229366, "delaunay_k": 4, "edge_set": "Delaunay4" }, "geometry": { "type": "LineString", "coordinates": [ [ 9.933014, 63.271947 ], [ 24.613495, 70.363091 ] ] } },
{ "type": "Feature", "properties": { "voltage_kv": 132.0, "from_node": 8, "to_node": 66, "length_km": 898.23135049264931, "delaunay_k": 4, "edge_set": "Delaunay4" }, "geometry": { "type": "LineString", "coordinates": [ [ 10.122528, 62.681707 ], [ 21.041565, 69.431516 ] ] } },
{ "type": "Feature", "properties": { "voltage_kv": 132.0, "from_node": 8, "to_node": 67, "length_km": 949.78144731952943, "delaunay_k": 4, "edge_set": "Delaunay4" }, "geometry": { "type": "LineString", "coordinates": [ [ 10.122528, 62.681707 ], [ 22.138824, 69.713346 ] ] } },
{ "type": "Feature", "properties": { "voltage_kv": 132.0, "from_node": 9, "to_node": 66, "length_km": 899.9544076778925, "delaunay_k": 4, "edge_set": "Delaunay4" }, "geometry": { "type": "LineString", "coordinates": [ [ 10.266724, 62.628719 ], [ 21.041565, 69.431516 ] ] } },
{ "type": "Feature", "properties": { "voltage_kv": 132.0, "from_node": 9, "to_node": 67, "length_km": 951.37042479546881, "delaunay_k": 4, "edge_set": "Delaunay4" }, "geometry": { "type": "LineString", "coordinates": [ [ 10.266724, 62.628719 ], [ 22.138824, 69.713346 ] ] } },
{ "type": "Feature", "properties": { "voltage_kv": 132.0, "from_node": 11, "to_node": 62, "length_km": 941.34621975170546, "delaunay_k": 4, "edge_set": "Delaunay4" }, "geometry": { "type": "LineString", "coordinates": [ [ 11.12915, 61.837358 ], [ 19.158783, 69.620772 ] ] } },
{ "type": "Feature", "properties": { "voltage_kv": 132.0, "from_node": 11, "to_node": 64, "length_km": 947.29680414481288, "delaunay_k": 4, "edge_set": "Delaunay4" }, "geometry": { "type": "LineString", "coordinates": [ [ 11.12915, 61.837358 ], [ 19.820709, 69.558512 ] ] } },
{ "type": "Feature", "properties": { "voltage_kv": 132.0, "from_node": 11, "to_node": 65, "length_km": 928.06978005144117, "delaunay_k": 4, "edge_set": "Delaunay4" }, "geometry": { "type": "LineString", "coordinates": [ [ 11.12915, 61.837358 ], [ 20.376892, 69.243986 ] ] } },
{ "type": "Feature", "properties": { "voltage_kv": 132.0, "from_node": 12, "to_node": 56, "length_km": 128.51937132764809, "delaunay_k": 4, "edge_set": "Delaunay4" }, "geometry": { "type": "LineString", "coordinates": [ [ 11.190948, 54.867915 ], [ 12.527161, 55.734843 ] ] } },
{ "type": "Feature", "properties": { "voltage_kv": 132.0, "from_node": 12, "to_node": 59, "length_km": 130.72762875565476, "delaunay_k": 4, "edge_set": "Delaunay4" }, "geometry": { "type": "LineString", "coordinates": [ [ 11.190948, 54.867915 ], [ 12.580719, 55.73407 ] ] } },
{ "type": "Feature", "properties": { "voltage_kv": 132.0, "from_node": 12, "to_node": 61, "length_km": 173.41391365681577, "delaunay_k": 4, "edge_set": "Delaunay4" }, "geometry": { "type": "LineString", "coordinates": [ [ 11.190948, 54.867915 ], [ 12.933655, 56.070502 ] ] } },
{ "type": "Feature", "properties": { "voltage_kv": 132.0, "from_node": 13, "to_node": 61, "length_km": 140.11414026435958, "delaunay_k": 4, "edge_set": "Delaunay4" }, "geometry": { "type": "LineString", "coordinates": [ [ 11.295319, 55.21884 ], [ 12.933655, 56.070502 ] ] } },
{ "type": "Feature", "properties": { "voltage_kv": 132.0, "from_node": 15, "to_node": 61, "length_km": 132.57824029010962, "delaunay_k": 4, "edge_set": "Delaunay4" }, "geometry": { "type": "LineString", "coordinates": [ [ 11.416168, 55.244684 ], [ 12.933655, 56.070502 ] ] } },
{ "type": "Feature", "properties": { "voltage_kv": 132.0, "from_node": 16, "to_node": 60, "length_km": 140.00679496576893, "delaunay_k": 4, "edge_set": "Delaunay4" }, "geometry": { "type": "LineString", "coordinates": [ [ 11.501312, 54.568081 ], [ 12.583466, 55.662095 ] ] } },
{ "type": "Feature", "properties": { "voltage_kv": 132.0, "from_node": 17, "to_node": 56, "length_km": 130.63968094543813, "delaunay_k": 4, "edge_set": "Delaunay4" }, "geometry": { "type": "LineString", "coordinates": [ [ 11.504059, 54.717482 ], [ 12.527161, 55.734843 ] ] } },
{ "type": "Feature", "properties": { "voltage_kv": 132.0, "from_node": 17, "to_node": 59, "length_km": 132.29781966974122, "delaunay_k": 4, "edge_set": "Delaunay4" }, "geometry": { "type": "LineString", "coordinates": [ [ 11.504059, 54.717482 ], [ 12.580719, 55.73407 ] ] } },
{ "type": "Feature", "properties": { "voltage_kv": 132.0, "from_node": 17, "to_node": 61, "length_km": 175.77400204916489, "delaunay_k": 4, "edge_set": "Delaunay4" }, "geometry": { "type": "LineString", "coordinates": [ [ 11.504059, 54.717482 ], [ 12.933655, 56.070502 ] ] } },
{ "type": "Feature", "properties": { "voltage_kv": 132.0, "from_node": 22, "to_node": 55, "length_km": 138.36316958820817, "delaunay_k": 4, "edge_set": "Delaunay4" }, "geometry": { "type": "LineString", "coordinates": [ [ 11.712799, 54.779306 ], [ 12.520294, 55.933818 ] ] } },
{ "type": "Feature", "properties": { "voltage_kv": 132.0, "from_node": 22, "to_node": 58, "length_km": 150.81917688896786, "delaunay_k": 4, "edge_set": "Delaunay4" }, "geometry": { "type": "LineString", "coordinates": [ [ 11.712799, 54.779306 ], [ 12.571106, 56.042897 ] ] } },
{ "type": "Feature", "properties": { "voltage_kv": 132.0, "from_node": 29, "to_node": 61, "length_km": 144.27413399915298, "delaunay_k": 4, "edge_set": "Delaunay4" }, "geometry": { "type": "LineString", "coordinates": [ [ 11.851501, 54.929509 ], [ 12.933655, 56.070502 ] ] } },
{ "type": "Feature", "properties": { "voltage_kv": 132.0, "from_node": 34, "to_node": 58, "length_km": 138.04682424686774, "delaunay_k": 4, "edge_set": "Delaunay4" }, "geometry": { "type": "LineString", "coordinates": [ [ 11.921539, 54.859221 ], [ 12.571106, 56.042897 ] ] } },
{ "type": "Feature", "properties": { "voltage_kv": 132.0, "from_node": 39, "to_node": 42, "length_km": 135.16912387346304, "delaunay_k": 4, "edge_set": "Delaunay4" }, "geometry": { "type": "LineString", "coordinates": [ [ 11.965485, 54.756331 ], [ 12.061615, 55.969187 ] ] } },
{ "type": "Feature", "properties": { "voltage_kv": 132.0, "from_node": 39, "to_node": 46, "length_km": 129.9259883069081, "delaunay_k": 4, "edge_set": "Delaunay4" }, "geometry": { "type": "LineString", "coordinates": [ [ 11.965485, 54.756331 ], [ 12.22641, 55.913812 ] ] } },
{ "type": "Feature", "properties": { "voltage_kv": 132.0, "from_node": 39, "to_node": 53, "length_km": 135.18745700206591, "delaunay_k": 4, "edge_set": "Delaunay4" }, "geometry": { "type": "LineString", "coordinates": [ [ 11.965485, 54.756331 ], [ 12.474976, 55.935356 ] ] } },
{ "type": "Feature", "properties": { "voltage_kv": 132.0, "from_node": 62, "to_node": 73, "length_km": 367.04997574979518, "delaunay_k": 4, "edge_set": "Delaunay4" }, "geometry": { "type": "LineString", "coordinates": [ [ 19.158783, 69.620772 ], [ 28.572693, 70.163212 ] ] } },
{ "type": "Feature", "properties": { "voltage_kv": 132.0, "from_node": 63, "to_node": 71, "length_km": 246.4067053226315, "delaunay_k": 4, "edge_set": "Delaunay4" }, "geometry": { "type": "LineString", "coordinates": [ [ 19.24942, 69.183065 ], [ 25.157318, 69.959498 ] ] } },
{ "type": "Feature", "properties": { "voltage_kv": 132.0, "from_node": 63, "to_node": 72, "length_km": 308.36245404673497, "delaunay_k": 4, "edge_set": "Delaunay4" }, "geometry": { "type": "LineString", "coordinates": [ [ 19.24942, 69.183065 ], [ 26.545715, 70.286801 ] ] } },
{ "type": "Feature", "properties": { "voltage_kv": 132.0, "from_node": 64, "to_node": 73, "length_km": 343.85201584232186, "delaunay_k": 4, "edge_set": "Delaunay4" }, "geometry": { "type": "LineString", "coordinates": [ [ 19.820709, 69.558512 ], [ 28.572693, 70.163212 ] ] } },
{ "type": "Feature", "properties": { "voltage_kv": 132.0, "from_node": 65, "to_node": 72, "length_km": 265.65142894398457, "delaunay_k": 4, "edge_set": "Delaunay4" }, "geometry": { "type": "LineString", "coordinates": [ [ 20.376892, 69.243986 ], [ 26.545715, 70.286801 ] ] } },
{ "type": "Feature", "properties": { "voltage_kv": 132.0, "from_node": 66, "to_node": 73, "length_km": 302.40755899394156, "delaunay_k": 4, "edge_set": "Delaunay4" }, "geometry": { "type": "LineString", "coordinates": [ [ 21.041565, 69.431516 ], [ 28.572693, 70.163212 ] ] } },
{ "type": "Feature", "properties": { "voltage_kv": 132.0, "from_node": 67, "to_node": 74, "length_km": 291.26252662745486, "delaunay_k": 4, "edge_set": "Delaunay4" }, "geometry": { "type": "LineString", "coordinates": [ [ 22.138824, 69.713346 ], [ 29.549103, 69.440681 ] ] } },
{ "type": "Feature", "properties": { "voltage_kv": 132.0, "from_node": 67, "to_node": 75, "length_km": 310.24750527691174, "delaunay_k": 4, "edge_set": "Delaunay4" }, "geometry": { "type": "LineString", "coordinates": [ [ 22.138824, 69.713346 ], [ 30.120392, 69.682374 ] ] } },
{ "type": "Feature", "properties": { "voltage_kv": 132.0, "from_node": 68, "to_node": 74, "length_km": 245.14184479796714, "delaunay_k": 4, "edge_set": "Delaunay4" }, "geometry": { "type": "LineString", "coordinates": [ [ 23.410492, 69.935012 ], [ 29.549103, 69.440681 ] ] } },
{ "type": "Feature", "properties": { "voltage_kv": 132.0, "from_node": 68, "to_node": 75, "length_km": 261.09934357082068, "delaunay_k": 4, "edge_set": "Delaunay4" }, "geometry": { "type": "LineString", "coordinates": [ [ 23.410492, 69.935012 ], [ 30.120392, 69.682374 ] ] } },
{ "type": "Feature", "properties": { "voltage_kv": 132.0, "from_node": 69, "to_node": 74, "length_km": 219.28538034583792, "delaunay_k": 4, "edge_set": "Delaunay4" }, "geometry": { "type": "LineString", "coordinates": [ [ 23.990021, 69.68142 ], [ 29.549103, 69.440681 ] ] } },
{ "type": "Feature", "properties": { "voltage_kv": 132.0, "from_node": 69, "to_node": 75, "length_km": 238.6370405859704, "delaunay_k": 4, "edge_set": "Delaunay4" }, "geometry": { "type": "LineString", "coordinates": [ [ 23.990021, 69.68142 ], [ 30.120392, 69.682374 ] ] } }
]
}
