{
"type": "FeatureCollection",
"name": "n490_132kv_delaunay2",
"crs": { "type": "name", "properties": { "name": "urn:ogc:def:crs:OGC:1.3:CRS84" } },
"features": [
{ "type": "Feature", "properties": { "voltage_kv": 132.0, "from_node": 5, "to_node": 8, "length_km": 49.61717640071798, "delaunay_k": 2, "edge_set": "Delaunay2" }, "geometry": { "type": "LineString", "coordinates": [ [ 9.602051, 63.058071 ], [ 10.122528, 62.681707 ] ] } },
{ "type": "Feature", "properties": { "voltage_kv": 132.0, "from_node": 5, "to_node": 9, "length_km": 58.62662285253424, "delaunay_k": 2, "edge_set": "Delaunay2" }, "geometry": { "type": "LineString", "coordinates": [ [ 9.602051, 63.058071 ], [ 10.266724, 62.628719 ] ] } },
{ "type": "Feature", "properties": { "voltage_kv": 132.0, "from_node": 6, "to_node": 9, "length_km": 22.951429194553462, "delaunay_k": 2, "edge_set": "Delaunay2" }, "geometry": { "type": "LineString", "coordinates": [ [ 9.930267, 62.764783 ], [ 10.266724, 62.628719 ] ] } },
{ "type": "Feature", "properties": { "voltage_kv": 132.0, "from_node": 8, "to_node": 11, "length_km": 107.65714038446517, "delaunay_k": 2, "edge_set": "Delaunay2" }, "geometry": { "type": "LineString", "coordinates": [ [ 10.122528, 62.681707 ], [ 11.12915, 61.837358 ] ] } },
{ "type": "Feature", "properties": { "voltage_kv": 132.0, "from_node": 10, "to_node": 15, "length_km": 50.786071839271472, "delaunay_k": 2, "edge_set": "Delaunay2" }, "geometry": { "type": "LineString", "coordinates": [ [ 11.089325, 55.66132 ], [ 11.416168, 55.244684 ] ] } },
{ "type": "Feature", "properties": { "voltage_kv": 132.0, "from_node": 10, "to_node": 21, "length_km": 38.723991638619424, "delaunay_k": 2, "edge_set": "Delaunay2" }, "geometry": { "type": "LineString", "coordinates": [ [ 11.089325, 55.66132 ], [ 11.670227, 55.548058 ] ] } },
{ "type": "Feature", "properties": { "voltage_kv": 132.0, "from_node": 10, "to_node": 23, "length_km": 54.950150170432408, "delaunay_k": 2, "edge_set": "Delaunay2" }, "geometry": { "type": "LineString", "coordinates": [ [ 11.089325, 55.66132 ], [ 11.715546, 55.318987 ] ] } },
{ "type": "Feature", "properties": { "voltage_kv": 132.0, "from_node": 10, "to_node": 24, "length_km": 50.967466885958288, "delaunay_k": 2, "edge_set": "Delaunay2" }, "geometry": { "type": "LineString", "coordinates": [ [ 11.089325, 55.66132 ], [ 11.727905, 55.381451 ] ] } },
{ "type": "Feature", "properties": { "voltage_kv": 132.0, "from_node": 10, "to_node": 27, "length_km": 71.959047410304393, "delaunay_k": 2, "edge_set": "Delaunay2" }, "geometry": { "type": "LineString", "coordinates": [ [ 11.089325, 55.66132 ], [ 11.797943, 55.15612 ] ] } },
{ "type": "Feature", "properties": { "voltage_kv": 132.0, "from_node": 10, "to_node": 30, "length_km": 49.61607459869434, "delaunay_k": 2, "edge_set": "Delaunay2" }, "geometry": { "type": "LineString", "coordinates": [ [ 11.089325, 55.66132 ], [ 11.877594, 55.657447 ] ] } },
{ "type": "Feature", "properties": { "voltage_kv": 132.0, "from_node": 10, "to_node": 31, "length_km": 52.937972962012076, "delaunay_k": 2, "edge_set": "Delaunay2" }, "geometry": { "type": "LineString", "coordinates": [ [ 11.089325, 55.66132 ], [ 11.885834, 55.816715 ] ] } },
{ "type": "Feature", "properties": { "voltage_kv": 132.0, "from_node": 10, "to_node": 42, "length_km": 69.929997316754012, "delaunay_k": 2, "edge_set": "Delaunay2" }, "geometry": { "type": "LineString", "coordinates": [ [ 11.089325, 55.66132 ], [ 12.061615, 55.969187 ] ] } },
{ "type": "Feature", "properties": { "voltage_kv": 132.0, "from_node": 12, "to_node": 15, "length_km": 44.344496234838601, "delaunay_k": 2, "edge_set": "Delaunay2" }, "geometry": { "type": "LineString", "coordinates": [ [ 11.190948, 54.867915 ], [ 11.416168, 55.244684 ] ] } },
{ "type": "Feature", "properties": { "voltage_kv": 132.0, "from_node": 12, "to_node": 25, "length_km": 54.051837978227944, "delaunay_k": 2, "edge_set": "Delaunay2" }, "geometry": { "type": "LineString", "coordinates": [ [ 11.190948, 54.867915 ], [ 11.762238, 55.22589 ] ] } },
{ "type": "Feature", "properties": { "voltage_kv": 132.0, "from_node": 12, "to_node": 28, "length_km": 60.18549630419939, "delaunay_k": 2, "edge_set": "Delaunay2" }, "geometry": { "type": "LineString", "coordinates": [ [ 11.190948, 54.867915 ], [ 11.8480685, 55.255251001923504 ] ] } },
{ "type": "Feature", "properties": { "voltage_kv": 132.0, "from_node": 12, "to_node": 33, "length_km": 47.667533198522648, "delaunay_k": 2, "edge_set": "Delaunay2" }, "geometry": { "type": "LineString", "coordinates": [ [ 11.190948, 54.867915 ], [ 11.902313, 54.992585 ] ] } },
{ "type": "Feature", "properties": { "voltage_kv": 132.0, "from_node": 12, "to_node": 34, "length_km": 46.922348102483788, "delaunay_k": 2, "edge_set": "Delaunay2" }, "geometry": { "type": "LineString", "coordinates": [ [ 11.190948, 54.867915 ], [ 11.921539, 54.859221 ] ] } },
{ "type": "Feature", "properties": { "voltage_kv": 132.0, "from_node": 12, "to_node": 35, "length_km": 55.58618856655194, "delaunay_k": 2, "edge_set": "Delaunay2" }, "geometry": { "type": "LineString", "coordinates": [ [ 11.190948, 54.867915 ], [ 11.932526, 55.127864 ] ] } },
{ "type": "Feature", "properties": { "voltage_kv": 132.0, "from_node": 12, "to_node": 36, "length_km": 61.661878315768348, "delaunay_k": 2, "edge_set": "Delaunay2" }, "geometry": { "type": "LineString", "coordinates": [ [ 11.190948, 54.867915 ], [ 11.933899, 55.22119 ] ] } },
{ "type": "Feature", "properties": { "voltage_kv": 132.0, "from_node": 12, "to_node": 39, "length_km": 51.323340260197817, "delaunay_k": 2, "edge_set": "Delaunay2" }, "geometry": { "type": "LineString", "coordinates": [ [ 11.190948, 54.867915 ], [ 11.965485, 54.756331 ] ] } },
{ "type": "Feature", "properties": { "voltage_kv": 132.0, "from_node": 13, "to_node": 18, "length_km": 58.516651474340122, "delaunay_k": 2, "edge_set": "Delaunay2" }, "geometry": { "type": "LineString", "coordinates": [ [ 11.295319, 55.21884 ], [ 11.550751, 55.724017 ] ] } },
{ "type": "Feature", "properties": { "voltage_kv": 132.0, "from_node": 13, "to_node": 19, "length_km": 75.379076348513777, "delaunay_k": 2, "edge_set": "Delaunay2" }, "geometry": { "type": "LineString", "coordinates": [ [ 11.295319, 55.21884 ], [ 11.641388, 55.866835 ] ] } },
{ "type": "Feature", "properties": { "voltage_kv": 132.0, "from_node": 13, "to_node": 21, "length_km": 43.681219799850872, "delaunay_k": 2, "edge_set": "Delaunay2" }, "geometry": { "type": "LineString", "coordinates": [ [ 11.295319, 55.21884 ], [ 11.670227, 55.548058 ] ] } },
{ "type": "Feature", "properties": { "voltage_kv": 132.0, "from_node": 13, "to_node": 23, "length_km": 28.945499476565129, "delaunay_k": 2, "edge_set": "Delaunay2" }, "geometry": { "type": "LineString", "coordinates": [ [ 11.295319, 55.21884 ], [ 11.715546, 55.318987 ] ] } },
{ "type": "Feature", "properties": { "voltage_kv": 132.0, "from_node": 13, "to_node": 24, "length_km": 32.903956834946605, "delaunay_k": 2, "edge_set": "Delaunay2" }, "geometry": { "type": "LineString", "coordinates": [ [ 11.295319, 55.21884 ], [ 11.727905, 55.381451 ] ] } },
{ "type": "Feature", "properties": { "voltage_kv": 132.0, "from_node": 13, "to_node": 25, "length_km": 29.725185672272893, "delaunay_k": 2, "edge_set": "Delaunay2" }, "geometry": { "type": "LineString", "coordinates": [ [ 11.295319, 55.21884 ], [ 11.762238, 55.22589 ] ] } },
{ "type": "Feature", "properties": { "voltage_kv": 132.0, "from_node": 13, "to_node": 28, "length_km": 35.397031185414825, "delaunay_k": 2, "edge_set": "Delaunay2" }, "geometry": { "type": "LineString", "coordinates": [ [ 11.295319, 55.21884 ], [ 11.8480685, 55.255251001923504 ] ] } },
{ "type": "Feature", "properties": { "voltage_kv": 132.0, "from_node": 13, "to_node": 29, "length_km": 47.954537735673071, "delaunay_k": 2, "edge_set": "Delaunay2" }, "geometry": { "type": "LineString", "coordinates": [ [ 11.295319, 55.21884 ], [ 11.851501, 54.929509 ] ] } },
{ "type": "Feature", "properties": { "voltage_kv": 132.0, "from_node": 13, "to_node": 33, "length_km": 46.210294971509441, "delaunay_k": 2, "edge_set": "Delaunay2" }, "geometry": { "type": "LineString", "coordinates": [ [ 11.295319, 55.21884 ], [ 11.902313, 54.992585 ] ] } },
{ "type": "Feature", "properties": { "voltage_kv": 132.0, "from_node": 13, "to_node": 35, "length_km": 41.846024832826529, "delaunay_k": 2, "edge_set": "Delaunay2" }, "geometry": { "type": "LineString", "coordinates": [ [ 11.295319, 55.21884 ], [ 11.932526, 55.127864 ] ] } },
{ "type": "Feature", "properties": { "voltage_kv": 132.0, "from_node": 13, "to_node": 36, "length_km": 40.642658740364951, "delaunay_k": 2, "edge_set": "Delaunay2" }, "geometry": { "type": "LineString", "coordinates": [ [ 11.295319, 55.21884 ], [ 11.933899, 55.22119 ] ] } },
{ "type": "Feature", "properties": { "voltage_kv": 132.0, "from_node": 14, "to_node": 19, "length_km": 49.35848497782699, "delaunay_k": 2, "edge_set": "Delaunay2" }, "geometry": { "type": "LineString", "coordinates": [ [ 11.348877, 55.455499 ], [ 11.641388, 55.866835 ] ] } },
{ "type": "Feature", "properties": { "voltage_kv": 132.0, "from_node": 14, "to_node": 25, "length_km": 36.624597686203643, "delaunay_k": 2, "edge_set": "Delaunay2" }, "geometry": { "type": "LineString", "coordinates": [ [ 11.348877, 55.455499 ], [ 11.762238, 55.22589 ] ] } },
{ "type": "Feature", "properties": { "voltage_kv": 132.0, "from_node": 14, "to_node": 26, "length_km": 27.770405864772457, "delaunay_k": 2, "edge_set": "Delaunay2" }, "geometry": { "type": "LineString", "coordinates": [ [ 11.348877, 55.455499 ], [ 11.786957, 55.4407 ] ] } },
{ "type": "Feature", "properties": { "voltage_kv": 132.0, "from_node": 14, "to_node": 27, "length_km": 43.865674895920286, "delaunay_k": 2, "edge_set": "Delaunay2" }, "geometry": { "type": "LineString", "coordinates": [ [ 11.348877, 55.455499 ], [ 11.797943, 55.15612 ] ] } },
{ "type": "Feature", "properties": { "voltage_kv": 132.0, "from_node": 14, "to_node": 28, "length_km": 38.723798573641879, "delaunay_k": 2, "edge_set": "Delaunay2" }, "geometry": { "type": "LineString", "coordinates": [ [ 11.348877, 55.455499 ], [ 11.8480685, 55.255251001923504 ] ] } },
{ "type": "Feature", "properties": { "voltage_kv": 132.0, "from_node": 14, "to_node": 30, "length_km": 40.233748945947205, "delaunay_k": 2, "edge_set": "Delaunay2" }, "geometry": { "type": "LineString", "coordinates": [ [ 11.348877, 55.455499 ], [ 11.877594, 55.657447 ] ] } },
{ "type": "Feature", "properties": { "voltage_kv": 132.0, "from_node": 14, "to_node": 31, "length_km": 52.544337679729523, "delaunay_k": 2, "edge_set": "Delaunay2" }, "geometry": { "type": "LineString", "coordinates": [ [ 11.348877, 55.455499 ], [ 11.885834, 55.816715 ] ] } },
{ "type": "Feature", "properties": { "voltage_kv": 132.0, "from_node": 14, "to_node": 32, "length_km": 39.348631709815621, "delaunay_k": 2, "edge_set": "Delaunay2" }, "geometry": { "type": "LineString", "coordinates": [ [ 11.348877, 55.455499 ], [ 11.90094, 55.293974 ] ] } },
{ "type": "Feature", "properties": { "voltage_kv": 132.0, "from_node": 14, "to_node": 37, "length_km": 39.678971825288528, "delaunay_k": 2, "edge_set": "Delaunay2" }, "geometry": { "type": "LineString", "coordinates": [ [ 11.348877, 55.455499 ], [ 11.949005, 55.560486 ] ] } },
{ "type": "Feature", "properties": { "voltage_kv": 132.0, "from_node": 15, "to_node": 18, "length_km": 54.039715266817737, "delaunay_k": 2, "edge_set": "Delaunay2" }, "geometry": { "type": "LineString", "coordinates": [ [ 11.416168, 55.244684 ], [ 11.550751, 55.724017 ] ] } },
{ "type": "Feature", "properties": { "voltage_kv": 132.0, "from_node": 15, "to_node": 21, "length_km": 37.415182511155429, "delaunay_k": 2, "edge_set": "Delaunay2" }, "geometry": { "type": "LineString", "coordinates": [ [ 11.416168, 55.244684 ], [ 11.670227, 55.548058 ] ] } },
{ "type": "Feature", "properties": { "voltage_kv": 132.0, "from_node": 15, "to_node": 24, "length_km": 24.972735107341297, "delaunay_k": 2, "edge_set": "Delaunay2" }, "geometry": { "type": "LineString", "coordinates": [ [ 11.416168, 55.244684 ], [ 11.727905, 55.381451 ] ] } },
{ "type": "Feature", "properties": { "voltage_kv": 132.0, "from_node": 15, "to_node": 28, "length_km": 27.492469870387435, "delaunay_k": 2, "edge_set": "Delaunay2" }, "geometry": { "type": "LineString", "coordinates": [ [ 11.416168, 55.244684 ], [ 11.8480685, 55.255251001923504 ] ] } },
{ "type": "Feature", "properties": { "voltage_kv": 132.0, "from_node": 15, "to_node": 29, "length_km": 44.764635956594574, "delaunay_k": 2, "edge_set": "Delaunay2" }, "geometry": { "type": "LineString", "coordinates": [ [ 11.416168, 55.244684 ], [ 11.851501, 54.929509 ] ] } },
{ "type": "Feature", "properties": { "voltage_kv": 132.0, "from_node": 15, "to_node": 32, "length_km": 31.299535429827838, "delaunay_k": 2, "edge_set": "Delaunay2" }, "geometry": { "type": "LineString", "coordinates": [ [ 11.416168, 55.244684 ], [ 11.90094, 55.293974 ] ] } },
{ "type": "Feature", "properties": { "voltage_kv": 132.0, "from_node": 15, "to_node": 33, "length_km": 41.831001026236599, "delaunay_k": 2, "edge_set": "Delaunay2" }, "geometry": { "type": "LineString", "coordinates": [ [ 11.416168, 55.244684 ], [ 11.902313, 54.992585 ] ] } },
{ "type": "Feature", "properties": { "voltage_kv": 132.0, "from_node": 15, "to_node": 35, "length_km": 35.36884956089272, "delaunay_k": 2, "edge_set": "Delaunay2" }, "geometry": { "type": "LineString", "coordinates": [ [ 11.416168, 55.244684 ], [ 11.932526, 55.127864 ] ] } },
{ "type": "Feature", "properties": { "voltage_kv": 132.0, "from_node": 15, "to_node": 36, "length_km": 33.043585594177721, "delaunay_k": 2, "edge_set": "Delaunay2" }, "geometry": { "type": "LineString", "coordinates": [ [ 11.416168, 55.244684 ], [ 11.933899, 55.22119 ] ] } },
{ "type": "Feature", "properties": { "voltage_kv": 132.0, "from_node": 17, "to_node": 27, "length_km": 52.337891478000785, "delaunay_k": 2, "edge_set": "Delaunay2" }, "geometry": { "type": "LineString", "coordinates": [ [ 11.504059, 54.717482 ], [ 11.797943, 55.15612 ] ] } },
{ "type": "Feature", "properties": { "voltage_kv": 132.0, "from_node": 17, "to_node": 29, "length_km": 32.493497178185258, "delaunay_k": 2, "edge_set": "Delaunay2" }, "geometry": { "type": "LineString", "coordinates": [ [ 11.504059, 54.717482 ], [ 11.851501, 54.929509 ] ] } },
{ "type": "Feature", "properties": { "voltage_kv": 132.0, "from_node": 17, "to_node": 34, "length_km": 31.149053197059128, "delaunay_k": 2, "edge_set": "Delaunay2" }, "geometry": { "type": "LineString", "coordinates": [ [ 11.504059, 54.717482 ], [ 11.921539, 54.859221 ] ] } },
{ "type": "Feature", "properties": { "voltage_kv": 132.0, "from_node": 17, "to_node": 39, "length_km": 30.034864396298165, "delaunay_k": 2, "edge_set": "Delaunay2" }, "geometry": { "type": "LineString", "coordinates": [ [ 11.504059, 54.717482 ], [ 11.965485, 54.756331 ] ] } },
{ "type": "Feature", "properties": { "voltage_kv": 132.0, "from_node": 18, "to_node": 23, "length_km": 46.279444004825983, "delaunay_k": 2, "edge_set": "Delaunay2" }, "geometry": { "type": "LineString", "coordinates": [ [ 11.550751, 55.724017 ], [ 11.715546, 55.318987 ] ] } },
{ "type": "Feature", "properties": { "voltage_kv": 132.0, "from_node": 18, "to_node": 24, "length_km": 39.744549707901875, "delaunay_k": 2, "edge_set": "Delaunay2" }, "geometry": { "type": "LineString", "coordinates": [ [ 11.550751, 55.724017 ], [ 11.727905, 55.381451 ] ] } },
{ "type": "Feature", "properties": { "voltage_kv": 132.0, "from_node": 18, "to_node": 26, "length_km": 34.883712880911304, "delaunay_k": 2, "edge_set": "Delaunay2" }, "geometry": { "type": "LineString", "coordinates": [ [ 11.550751, 55.724017 ], [ 11.786957, 55.4407 ] ] } },
{ "type": "Feature", "properties": { "voltage_kv": 132.0, "from_node": 18, "to_node": 37, "length_km": 30.989991471023963, "delaunay_k": 2, "edge_set": "Delaunay2" }, "geometry": { "type": "LineString", "coordinates": [ [ 11.550751, 55.724017 ], [ 11.949005, 55.560486 ] ] } },
{ "type": "Feature", "properties": { "voltage_kv": 132.0, "from_node": 18, "to_node": 42, "length_km": 42.061852351267085, "delaunay_k": 2, "edge_set": "Delaunay2" }, "geometry": { "type": "LineString", "coordinates": [ [ 11.550751, 55.724017 ], [ 12.061615, 55.969187 ] ] } },
{ "type": "Feature", "properties": { "voltage_kv": 132.0, "from_node": 18, "to_node": 43, "length_km": 37.247303624467897, "delaunay_k": 2, "edge_set": "Delaunay2" }, "geometry": { "type": "LineString", "coordinates": [ [ 11.550751, 55.724017 ], [ 12.108307, 55.611711 ] ] } },
{ "type": "Feature", "properties": { "voltage_kv": 132.0, "from_node": 18, "to_node": 44, "length_km": 37.994500053229579, "delaunay_k": 2, "edge_set": "Delaunay2" }, "geometry": { "type": "LineString", "coordinates": [ [ 11.550751, 55.724017 ], [ 12.154999, 55.737935 ] ] } },
{ "type": "Feature", "properties": { "voltage_kv": 132.0, "from_node": 18, "to_node": 47, "length_km": 44.288835032410802, "delaunay_k": 2, "edge_set": "Delaunay2" }, "geometry": { "type": "LineString", "coordinates": [ [ 11.550751, 55.724017 ], [ 12.23465, 55.822116 ] ] } },
{ "type": "Feature", "properties": { "voltage_kv": 132.0, "from_node": 19, "to_node": 21, "length_km": 35.538209993460356, "delaunay_k": 2, "edge_set": "Delaunay2" }, "geometry": { "type": "LineString", "coordinates": [ [ 11.641388, 55.866835 ], [ 11.670227, 55.548058 ] ] } },
{ "type": "Feature", "properties": { "voltage_kv": 132.0, "from_node": 19, "to_node": 30, "length_km": 27.629221846761236, "delaunay_k": 2, "edge_set": "Delaunay2" }, "geometry": { "type": "LineString", "coordinates": [ [ 11.641388, 55.866835 ], [ 11.877594, 55.657447 ] ] } },
{ "type": "Feature", "properties": { "voltage_kv": 132.0, "from_node": 19, "to_node": 44, "length_km": 35.262342515971525, "delaunay_k": 2, "edge_set": "Delaunay2" }, "geometry": { "type": "LineString", "coordinates": [ [ 11.641388, 55.866835 ], [ 12.154999, 55.737935 ] ] } },
{ "type": "Feature", "properties": { "voltage_kv": 132.0, "from_node": 19, "to_node": 46, "length_km": 36.977100721854043, "delaunay_k": 2, "edge_set": "Delaunay2" }, "geometry": { "type": "LineString", "coordinates": [ [ 11.641388, 55.866835 ], [ 12.22641, 55.913812 ] ] } },
{ "type": "Feature", "properties": { "voltage_kv": 132.0, "from_node": 19, "to_node": 47, "length_km": 37.496689829127966, "delaunay_k": 2, "edge_set": "Delaunay2" }, "geometry": { "type": "LineString", "coordinates": [ [ 11.641388, 55.866835 ], [ 12.23465, 55.822116 ] ] } },
{ "type": "Feature", "properties": { "voltage_kv": 132.0, "from_node": 19, "to_node": 58, "length_km": 61.296333012403437, "delaunay_k": 2, "edge_set": "Delaunay2" }, "geometry": { "type": "LineString", "coordinates": [ [ 11.641388, 55.866835 ], [ 12.571106, 56.042897 ] ] } },
{ "type": "Feature", "properties": { "voltage_kv": 132.0, "from_node": 21, "to_node": 23, "length_km": 25.664004767248141, "delaunay_k": 2, "edge_set": "Delaunay2" }, "geometry": { "type": "LineString", "coordinates": [ [ 11.670227, 55.548058 ], [ 11.715546, 55.318987 ] ] } },
{ "type": "Feature", "properties": { "voltage_kv": 132.0, "from_node": 21, "to_node": 31, "length_km": 32.842865805565914, "delaunay_k": 2, "edge_set": "Delaunay2" }, "geometry": { "type": "LineString", "coordinates": [ [ 11.670227, 55.548058 ], [ 11.885834, 55.816715 ] ] } },
{ "type": "Feature", "properties": { "voltage_kv": 132.0, "from_node": 21, "to_node": 32, "length_km": 31.837808862487488, "delaunay_k": 2, "edge_set": "Delaunay2" }, "geometry": { "type": "LineString", "coordinates": [ [ 11.670227, 55.548058 ], [ 11.90094, 55.293974 ] ] } },
{ "type": "Feature", "properties": { "voltage_kv": 132.0, "from_node": 21, "to_node": 38, "length_km": 21.66283907510314, "delaunay_k": 2, "edge_set": "Delaunay2" }, "geometry": { "type": "LineString", "coordinates": [ [ 11.670227, 55.548058 ], [ 11.961365, 55.445374 ] ] } },
{ "type": "Feature", "properties": { "voltage_kv": 132.0, "from_node": 21, "to_node": 40, "length_km": 20.955109089133721, "delaunay_k": 2, "edge_set": "Delaunay2" }, "geometry": { "type": "LineString", "coordinates": [ [ 11.670227, 55.548058 ], [ 11.990204, 55.498305 ] ] } },
{ "type": "Feature", "properties": { "voltage_kv": 132.0, "from_node": 21, "to_node": 43, "length_km": 28.523791424666172, "delaunay_k": 2, "edge_set": "Delaunay2" }, "geometry": { "type": "LineString", "coordinates": [ [ 11.670227, 55.548058 ], [ 12.108307, 55.611711 ] ] } },
{ "type": "Feature", "properties": { "voltage_kv": 132.0, "from_node": 21, "to_node": 44, "length_km": 37.130890500617269, "delaunay_k": 2, "edge_set": "Delaunay2" }, "geometry": { "type": "LineString", "coordinates": [ [ 11.670227, 55.548058 ], [ 12.154999, 55.737935 ] ] } },
{ "type": "Feature", "properties": { "voltage_kv": 132.0, "from_node": 22, "to_node": 27, "length_km": 42.301670731565245, "delaunay_k": 2, "edge_set": "Delaunay2" }, "geometry": { "type": "LineString", "coordinates": [ [ 11.712799, 54.779306 ], [ 11.797943, 55.15612 ] ] } },
{ "type": "Feature", "properties": { "voltage_kv": 132.0, "from_node": 22, "to_node": 33, "length_km": 26.676788507435969, "delaunay_k": 2, "edge_set": "Delaunay2" }, "geometry": { "type": "LineString", "coordinates": [ [ 11.712799, 54.779306 ], [ 11.902313, 54.992585 ] ] } },
{ "type": "Feature", "properties": { "voltage_kv": 132.0, "from_node": 22, "to_node": 35, "length_km": 41.277889977539552, "delaunay_k": 2, "edge_set": "Delaunay2" }, "geometry": { "type": "LineString", "coordinates": [ [ 11.712799, 54.779306 ], [ 11.932526, 55.127864 ] ] } },
{ "type": "Feature", "properties": { "voltage_kv": 132.0, "from_node": 22, "to_node": 60, "length_km": 112.82626710835373, "delaunay_k": 2, "edge_set": "Delaunay2" }, "geometry": { "type": "LineString", "coordinates": [ [ 11.712799, 54.779306 ], [ 12.583466, 55.662095 ] ] } },
{ "type": "Feature", "properties": { "voltage_kv": 132.0, "from_node": 23, "to_node": 26, "length_km": 14.286676617950492, "delaunay_k": 2, "edge_set": "Delaunay2" }, "geometry": { "type": "LineString", "coordinates": [ [ 11.715546, 55.318987 ], [ 11.786957, 55.4407 ] ] } },
{ "type": "Feature", "properties": { "voltage_kv": 132.0, "from_node": 23, "to_node": 27, "length_km": 18.874411786595115, "delaunay_k": 2, "edge_set": "Delaunay2" }, "geometry": { "type": "LineString", "coordinates": [ [ 11.715546, 55.318987 ], [ 11.797943, 55.15612 ] ] } },
{ "type": "Feature", "properties": { "voltage_kv": 132.0, "from_node": 23, "to_node": 36, "length_km": 17.640465937318574, "delaunay_k": 2, "edge_set": "Delaunay2" }, "geometry": { "type": "LineString", "coordinates": [ [ 11.715546, 55.318987 ], [ 11.933899, 55.22119 ] ] } },
{ "type": "Feature", "properties": { "voltage_kv": 132.0, "from_node": 23, "to_node": 38, "length_km": 20.994592756586353, "delaunay_k": 2, "edge_set": "Delaunay2" }, "geometry": { "type": "LineString", "coordinates": [ [ 11.715546, 55.318987 ], [ 11.961365, 55.445374 ] ] } },
{ "type": "Feature", "properties": { "voltage_kv": 132.0, "from_node": 23, "to_node": 41, "length_km": 19.930380665999902, "delaunay_k": 2, "edge_set": "Delaunay2" }, "geometry": { "type": "LineString", "coordinates": [ [ 11.715546, 55.318987 ], [ 12.024536, 55.351012 ] ] } },
{ "type": "Feature", "properties": { "voltage_kv": 132.0, "from_node": 24, "to_node": 25, "length_km": 17.455465987853763, "delaunay_k": 2, "edge_set": "Delaunay2" }, "geometry": { "type": "LineString", "coordinates": [ [ 11.727905, 55.381451 ], [ 11.762238, 55.22589 ] ] } },
{ "type": "Feature", "properties": { "voltage_kv": 132.0, "from_node": 24, "to_node": 28, "length_km": 15.987577708315186, "delaunay_k": 2, "edge_set": "Delaunay2" }, "geometry": { "type": "LineString", "coordinates": [ [ 11.727905, 55.381451 ], [ 11.8480685, 55.255251001923504 ] ] } },
{ "type": "Feature", "properties": { "voltage_kv": 132.0, "from_node": 24, "to_node": 30, "length_km": 32.149844577696314, "delaunay_k": 2, "edge_set": "Delaunay2" }, "geometry": { "type": "LineString", "coordinates": [ [ 11.727905, 55.381451 ], [ 11.877594, 55.657447 ] ] } },
{ "type": "Feature", "properties": { "voltage_kv": 132.0, "from_node": 24, "to_node": 36, "length_km": 22.125126251057008, "delaunay_k": 2, "edge_set": "Delaunay2" }, "geometry": { "type": "LineString", "coordinates": [ [ 11.727905, 55.381451 ], [ 11.933899, 55.22119 ] ] } },
{ "type": "Feature", "properties": { "voltage_kv": 132.0, "from_node": 24, "to_node": 37, "length_km": 24.348355884344837, "delaunay_k": 2, "edge_set": "Delaunay2" }, "geometry": { "type": "LineString", "coordinates": [ [ 11.727905, 55.381451 ], [ 11.949005, 55.560486 ] ] } },
{ "type": "Feature", "properties": { "voltage_kv": 132.0, "from_node": 24, "to_node": 38, "length_km": 16.409895208498341, "delaunay_k": 2, "edge_set": "Delaunay2" }, "geometry": { "type": "LineString", "coordinates": [ [ 11.727905, 55.381451 ], [ 11.961365, 55.445374 ] ] } },
{ "type": "Feature", "properties": { "voltage_kv": 132.0, "from_node": 24, "to_node": 40, "length_km": 21.092052149368083, "delaunay_k": 2, "edge_set": "Delaunay2" }, "geometry": { "type": "LineString", "coordinates": [ [ 11.727905, 55.381451 ], [ 11.990204, 55.498305 ] ] } },
{ "type": "Feature", "properties": { "voltage_kv": 132.0, "from_node": 24, "to_node": 41, "length_km": 19.112593048277908, "delaunay_k": 2, "edge_set": "Delaunay2" }, "geometry": { "type": "LineString", "coordinates": [ [ 11.727905, 55.381451 ], [ 12.024536, 55.351012 ] ] } },
{ "type": "Feature", "properties": { "voltage_kv": 132.0, "from_node": 25, "to_node": 29, "length_km": 33.484165945558196, "delaunay_k": 2, "edge_set": "Delaunay2" }, "geometry": { "type": "LineString", "coordinates": [ [ 11.762238, 55.22589 ], [ 11.851501, 54.929509 ] ] } },
{ "type": "Feature", "properties": { "voltage_kv": 132.0, "from_node": 25, "to_node": 32, "length_km": 11.628635422605855, "delaunay_k": 2, "edge_set": "Delaunay2" }, "geometry": { "type": "LineString", "coordinates": [ [ 11.762238, 55.22589 ], [ 11.90094, 55.293974 ] ] } },
{ "type": "Feature", "properties": { "voltage_kv": 132.0, "from_node": 25, "to_node": 33, "length_km": 27.468753627082481, "delaunay_k": 2, "edge_set": "Delaunay2" }, "geometry": { "type": "LineString", "coordinates": [ [ 11.762238, 55.22589 ], [ 11.902313, 54.992585 ] ] } },
{ "type": "Feature", "properties": { "voltage_kv": 132.0, "from_node": 25, "to_node": 35, "length_km": 15.38868824930112, "delaunay_k": 2, "edge_set": "Delaunay2" }, "geometry": { "type": "LineString", "coordinates": [ [ 11.762238, 55.22589 ], [ 11.932526, 55.127864 ] ] } },
{ "type": "Feature", "properties": { "voltage_kv": 132.0, "from_node": 25, "to_node": 36, "length_km": 10.936885325633991, "delaunay_k": 2, "edge_set": "Delaunay2" }, "geometry": { "type": "LineString", "coordinates": [ [ 11.762238, 55.22589 ], [ 11.933899, 55.22119 ] ] } },
{ "type": "Feature", "properties": { "voltage_kv": 132.0, "from_node": 26, "to_node": 28, "length_km": 21.007258258486821, "delaunay_k": 2, "edge_set": "Delaunay2" }, "geometry": { "type": "LineString", "coordinates": [ [ 11.786957, 55.4407 ], [ 11.8480685, 55.255251001923504 ] ] } },
{ "type": "Feature", "properties": { "voltage_kv": 132.0, "from_node": 26, "to_node": 30, "length_km": 24.80054185029628, "delaunay_k": 2, "edge_set": "Delaunay2" }, "geometry": { "type": "LineString", "coordinates": [ [ 11.786957, 55.4407 ], [ 11.877594, 55.657447 ] ] } },
{ "type": "Feature", "properties": { "voltage_kv": 132.0, "from_node": 26, "to_node": 36, "length_km": 26.157487922221499, "delaunay_k": 2, "edge_set": "Delaunay2" }, "geometry": { "type": "LineString", "coordinates": [ [ 11.786957, 55.4407 ], [ 11.933899, 55.22119 ] ] } },
{ "type": "Feature", "properties": { "voltage_kv": 132.0, "from_node": 26, "to_node": 41, "length_km": 18.064530348347859, "delaunay_k": 2, "edge_set": "Delaunay2" }, "geometry": { "type": "LineString", "coordinates": [ [ 11.786957, 55.4407 ], [ 12.024536, 55.351012 ] ] } },
{ "type": "Feature", "properties": { "voltage_kv": 132.0, "from_node": 26, "to_node": 43, "length_km": 27.827977478146643, "delaunay_k": 2, "edge_set": "Delaunay2" }, "geometry": { "type": "LineString", "coordinates": [ [ 11.786957, 55.4407 ], [ 12.108307, 55.611711 ] ] } },
{ "type": "Feature", "properties": { "voltage_kv": 132.0, "from_node": 26, "to_node": 45, "length_km": 25.089151245174303, "delaunay_k": 2, "edge_set": "Delaunay2" }, "geometry": { "type": "LineString", "coordinates": [ [ 11.786957, 55.4407 ], [ 12.170105, 55.499083 ] ] } },
{ "type": "Feature", "properties": { "voltage_kv": 132.0, "from_node": 27, "to_node": 32, "length_km": 16.688289714088029, "delaunay_k": 2, "edge_set": "Delaunay2" }, "geometry": { "type": "LineString", "coordinates": [ [ 11.797943, 55.15612 ], [ 11.90094, 55.293974 ] ] } },
{ "type": "Feature", "properties": { "voltage_kv": 132.0, "from_node": 27, "to_node": 34, "length_km": 33.985449644573897, "delaunay_k": 2, "edge_set": "Delaunay2" }, "geometry": { "type": "LineString", "coordinates": [ [ 11.797943, 55.15612 ], [ 11.921539, 54.859221 ] ] } },
{ "type": "Feature", "properties": { "voltage_kv": 132.0, "from_node": 27, "to_node": 39, "length_km": 45.782594950528576, "delaunay_k": 2, "edge_set": "Delaunay2" }, "geometry": { "type": "LineString", "coordinates": [ [ 11.797943, 55.15612 ], [ 11.965485, 54.756331 ] ] } },
{ "type": "Feature", "properties": { "voltage_kv": 132.0, "from_node": 27, "to_node": 41, "length_km": 26.046310210646489, "delaunay_k": 2, "edge_set": "Delaunay2" }, "geometry": { "type": "LineString", "coordinates": [ [ 11.797943, 55.15612 ], [ 12.024536, 55.351012 ] ] } },
{ "type": "Feature", "properties": { "voltage_kv": 132.0, "from_node": 27, "to_node": 60, "length_km": 75.161180514926727, "delaunay_k": 2, "edge_set": "Delaunay2" }, "geometry": { "type": "LineString", "coordinates": [ [ 11.797943, 55.15612 ], [ 12.583466, 55.662095 ] ] } },
{ "type": "Feature", "properties": { "voltage_kv": 132.0, "from_node": 28, "to_node": 29, "length_km": 36.264718466166656, "delaunay_k": 2, "edge_set": "Delaunay2" }, "geometry": { "type": "LineString", "coordinates": [ [ 11.8480685, 55.255251001923504 ], [ 11.851501, 54.929509 ] ] } },
{ "type": "Feature", "properties": { "voltage_kv": 132.0, "from_node": 28, "to_node": 33, "length_km": 29.446219610901093, "delaunay_k": 2, "edge_set": "Delaunay2" }, "geometry": { "type": "LineString", "coordinates": [ [ 11.8480685, 55.255251001923504 ], [ 11.902313, 54.992585 ] ] } },
{ "type": "Feature", "properties": { "voltage_kv": 132.0, "from_node": 28, "to_node": 35, "length_km": 15.167811818396716, "delaunay_k": 2, "edge_set": "Delaunay2" }, "geometry": { "type": "LineString", "coordinates": [ [ 11.8480685, 55.255251001923504 ], [ 11.932526, 55.127864 ] ] } },
{ "type": "Feature", "properties": { "voltage_kv": 132.0, "from_node": 28, "to_node": 38, "length_km": 22.353799149357588, "delaunay_k": 2, "edge_set": "Delaunay2" }, "geometry": { "type": "LineString", "coordinates": [ [ 11.8480685, 55.255251001923504 ], [ 11.961365, 55.445374 ] ] } },
{ "type": "Feature", "properties": { "voltage_kv": 132.0, "from_node": 28, "to_node": 41, "length_km": 15.468634611163628, "delaunay_k": 2, "edge_set": "Delaunay2" }, "geometry": { "type": "LineString", "coordinates": [ [ 11.8480685, 55.255251001923504 ], [ 12.024536, 55.351012 ] ] } },
{ "type": "Feature", "properties": { "voltage_kv": 132.0, "from_node": 29, "to_node": 35, "length_km": 22.68196658504851, "delaunay_k": 2, "edge_set": "Delaunay2" }, "geometry": { "type": "LineString", "coordinates": [ [ 11.851501, 54.929509 ], [ 11.932526, 55.127864 ] ] } },
{ "type": "Feature", "properties": { "voltage_kv": 132.0, "from_node": 29, "to_node": 36, "length_km": 32.89588852782547, "delaunay_k": 2, "edge_set": "Delaunay2" }, "geometry": { "type": "LineString", "coordinates": [ [ 11.851501, 54.929509 ], [ 11.933899, 55.22119 ] ] } },
{ "type": "Feature", "properties": { "voltage_kv": 132.0, "from_node": 29, "to_node": 39, "length_km": 20.622700627942933, "delaunay_k": 2, "edge_set": "Delaunay2" }, "geometry": { "type": "LineString", "coordinates": [ [ 11.851501, 54.929509 ], [ 11.965485, 54.756331 ] ] } },
{ "type": "Feature", "properties": { "voltage_kv": 132.0, "from_node": 30, "to_node": 40, "length_km": 19.088951762962175, "delaunay_k": 2, "edge_set": "Delaunay2" }, "geometry": { "type": "LineString", "coordinates": [ [ 11.877594, 55.657447 ], [ 11.990204, 55.498305 ] ] } },
{ "type": "Feature", "properties": { "voltage_kv": 132.0, "from_node": 30, "to_node": 42, "length_km": 36.576763012349552, "delaunay_k": 2, "edge_set": "Delaunay2" }, "geometry": { "type": "LineString", "coordinates": [ [ 11.877594, 55.657447 ], [ 12.061615, 55.969187 ] ] } },
{ "type": "Feature", "properties": { "voltage_kv": 132.0, "from_node": 30, "to_node": 45, "length_km": 25.519816773858963, "delaunay_k": 2, "edge_set": "Delaunay2" }, "geometry": { "type": "LineString", "coordinates": [ [ 11.877594, 55.657447 ], [ 12.170105, 55.499083 ] ] } },
{ "type": "Feature", "properties": { "voltage_kv": 132.0, "from_node": 30, "to_node": 47, "length_km": 28.968218520543463, "delaunay_k": 2, "edge_set": "Delaunay2" }, "geometry": { "type": "LineString", "coordinates": [ [ 11.877594, 55.657447 ], [ 12.23465, 55.822116 ] ] } },
{ "type": "Feature", "properties": { "voltage_kv": 132.0, "from_node": 30, "to_node": 48, "length_km": 25.703752943684439, "delaunay_k": 2, "edge_set": "Delaunay2" }, "geometry": { "type": "LineString", "coordinates": [ [ 11.877594, 55.657447 ], [ 12.240143, 55.764213 ] ] } },
{ "type": "Feature", "properties": { "voltage_kv": 132.0, "from_node": 30, "to_node": 49, "length_km": 26.960539867946014, "delaunay_k": 2, "edge_set": "Delaunay2" }, "geometry": { "type": "LineString", "coordinates": [ [ 11.877594, 55.657447 ], [ 12.268982, 55.559709 ] ] } },
{ "type": "Feature", "properties": { "voltage_kv": 132.0, "from_node": 30, "to_node": 50, "length_km": 27.350669282730859, "delaunay_k": 2, "edge_set": "Delaunay2" }, "geometry": { "type": "LineString", "coordinates": [ [ 11.877594, 55.657447 ], [ 12.311554, 55.670615 ] ] } },
{ "type": "Feature", "properties": { "voltage_kv": 132.0, "from_node": 31, "to_node": 37, "length_km": 28.803579072376174, "delaunay_k": 2, "edge_set": "Delaunay2" }, "geometry": { "type": "LineString", "coordinates": [ [ 11.885834, 55.816715 ], [ 11.949005, 55.560486 ] ] } },
{ "type": "Feature", "properties": { "voltage_kv": 132.0, "from_node": 31, "to_node": 43, "length_km": 26.767876661186751, "delaunay_k": 2, "edge_set": "Delaunay2" }, "geometry": { "type": "LineString", "coordinates": [ [ 11.885834, 55.816715 ], [ 12.108307, 55.611711 ] ] } },
{ "type": "Feature", "properties": { "voltage_kv": 132.0, "from_node": 31, "to_node": 46, "length_km": 23.908019432677008, "delaunay_k": 2, "edge_set": "Delaunay2" }, "geometry": { "type": "LineString", "coordinates": [ [ 11.885834, 55.816715 ], [ 12.22641, 55.913812 ] ] } },
{ "type": "Feature", "properties": { "voltage_kv": 132.0, "from_node": 31, "to_node": 48, "length_km": 22.982370486716029, "delaunay_k": 2, "edge_set": "Delaunay2" }, "geometry": { "type": "LineString", "coordinates": [ [ 11.885834, 55.816715 ], [ 12.240143, 55.764213 ] ] } },
{ "type": "Feature", "properties": { "voltage_kv": 132.0, "from_node": 31, "to_node": 50, "length_km": 31.297765166546561, "delaunay_k": 2, "edge_set": "Delaunay2" }, "geometry": { "type": "LineString", "coordinates": [ [ 11.885834, 55.816715 ], [ 12.311554, 55.670615 ] ] } },
{ "type": "Feature", "properties": { "voltage_kv": 132.0, "from_node": 31, "to_node": 52, "length_km": 32.218378659714261, "delaunay_k": 2, "edge_set": "Delaunay2" }, "geometry": { "type": "LineString", "coordinates": [ [ 11.885834, 55.816715 ], [ 12.389832, 55.761123 ] ] } },
{ "type": "Feature", "properties": { "voltage_kv": 132.0, "from_node": 31, "to_node": 53, "length_km": 39.171868601322515, "delaunay_k": 2, "edge_set": "Delaunay2" }, "geometry": { "type": "LineString", "coordinates": [ [ 11.885834, 55.816715 ], [ 12.474976, 55.935356 ] ] } },
{ "type": "Feature", "properties": { "voltage_kv": 132.0, "from_node": 31, "to_node": 58, "length_km": 49.690125448379163, "delaunay_k": 2, "edge_set": "Delaunay2" }, "geometry": { "type": "LineString", "coordinates": [ [ 11.885834, 55.816715 ], [ 12.571106, 56.042897 ] ] } },
{ "type": "Feature", "properties": { "voltage_kv": 132.0, "from_node": 32, "to_node": 35, "length_km": 18.602042293534137, "delaunay_k": 2, "edge_set": "Delaunay2" }, "geometry": { "type": "LineString", "coordinates": [ [ 11.90094, 55.293974 ], [ 11.932526, 55.127864 ] ] } },
{ "type": "Feature", "properties": { "voltage_kv": 132.0, "from_node": 32, "to_node": 37, "length_km": 29.827530207592861, "delaunay_k": 2, "edge_set": "Delaunay2" }, "geometry": { "type": "LineString", "coordinates": [ [ 11.90094, 55.293974 ], [ 11.949005, 55.560486 ] ] } },
{ "type": "Feature", "properties": { "voltage_kv": 132.0, "from_node": 32, "to_node": 40, "length_km": 23.441524075539629, "delaunay_k": 2, "edge_set": "Delaunay2" }, "geometry": { "type": "LineString", "coordinates": [ [ 11.90094, 55.293974 ], [ 11.990204, 55.498305 ] ] } },
{ "type": "Feature", "properties": { "voltage_kv": 132.0, "from_node": 32, "to_node": 45, "length_km": 28.501712665511175, "delaunay_k": 2, "edge_set": "Delaunay2" }, "geometry": { "type": "LineString", "coordinates": [ [ 11.90094, 55.293974 ], [ 12.170105, 55.499083 ] ] } },
{ "type": "Feature", "properties": { "voltage_kv": 132.0, "from_node": 32, "to_node": 60, "length_km": 59.518720503590572, "delaunay_k": 2, "edge_set": "Delaunay2" }, "geometry": { "type": "LineString", "coordinates": [ [ 11.90094, 55.293974 ], [ 12.583466, 55.662095 ] ] } },
{ "type": "Feature", "properties": { "voltage_kv": 132.0, "from_node": 33, "to_node": 36, "length_km": 25.52991477150146, "delaunay_k": 2, "edge_set": "Delaunay2" }, "geometry": { "type": "LineString", "coordinates": [ [ 11.902313, 54.992585 ], [ 11.933899, 55.22119 ] ] } },
{ "type": "Feature", "properties": { "voltage_kv": 132.0, "from_node": 33, "to_node": 39, "length_km": 26.611575539957467, "delaunay_k": 2, "edge_set": "Delaunay2" }, "geometry": { "type": "LineString", "coordinates": [ [ 11.902313, 54.992585 ], [ 11.965485, 54.756331 ] ] } },
{ "type": "Feature", "properties": { "voltage_kv": 132.0, "from_node": 33, "to_node": 41, "length_km": 40.656523541278169, "delaunay_k": 2, "edge_set": "Delaunay2" }, "geometry": { "type": "LineString", "coordinates": [ [ 11.902313, 54.992585 ], [ 12.024536, 55.351012 ] ] } },
{ "type": "Feature", "properties": { "voltage_kv": 132.0, "from_node": 33, "to_node": 60, "length_km": 86.170955551093371, "delaunay_k": 2, "edge_set": "Delaunay2" }, "geometry": { "type": "LineString", "coordinates": [ [ 11.902313, 54.992585 ], [ 12.583466, 55.662095 ] ] } },
{ "type": "Feature", "properties": { "voltage_kv": 132.0, "from_node": 34, "to_node": 36, "length_km": 40.304702780724568, "delaunay_k": 2, "edge_set": "Delaunay2" }, "geometry": { "type": "LineString", "coordinates": [ [ 11.921539, 54.859221 ], [ 11.933899, 55.22119 ] ] } },
{ "type": "Feature", "properties": { "voltage_kv": 132.0, "from_node": 34, "to_node": 41, "length_km": 55.143670785635308, "delaunay_k": 2, "edge_set": "Delaunay2" }, "geometry": { "type": "LineString", "coordinates": [ [ 11.921539, 54.859221 ], [ 12.024536, 55.351012 ] ] } },
{ "type": "Feature", "properties": { "voltage_kv": 132.0, "from_node": 34, "to_node": 60, "length_km": 98.798453911415592, "delaunay_k": 2, "edge_set": "Delaunay2" }, "geometry": { "type": "LineString", "coordinates": [ [ 11.921539, 54.859221 ], [ 12.583466, 55.662095 ] ] } },
{ "type": "Feature", "properties": { "voltage_kv": 132.0, "from_node": 35, "to_node": 38, "length_km": 35.396397567871396, "delaunay_k": 2, "edge_set": "Delaunay2" }, "geometry": { "type": "LineString", "coordinates": [ [ 11.932526, 55.127864 ], [ 11.961365, 55.445374 ] ] } },
{ "type": "Feature", "properties": { "voltage_kv": 132.0, "from_node": 35, "to_node": 45, "length_km": 43.995960398046094, "delaunay_k": 2, "edge_set": "Delaunay2" }, "geometry": { "type": "LineString", "coordinates": [ [ 11.932526, 55.127864 ], [ 12.170105, 55.499083 ] ] } },
{ "type": "Feature", "properties": { "voltage_kv": 132.0, "from_node": 35, "to_node": 49, "length_km": 52.605078917544454, "delaunay_k": 2, "edge_set": "Delaunay2" }, "geometry": { "type": "LineString", "coordinates": [ [ 11.932526, 55.127864 ], [ 12.268982, 55.559709 ] ] } },
{ "type": "Feature", "properties": { "voltage_kv": 132.0, "from_node": 35, "to_node": 51, "length_km": 60.524979099034027, "delaunay_k": 2, "edge_set": "Delaunay2" }, "geometry": { "type": "LineString", "coordinates": [ [ 11.932526, 55.127864 ], [ 12.362366, 55.613262 ] ] } },
{ "type": "Feature", "properties": { "voltage_kv": 132.0, "from_node": 35, "to_node": 54, "length_km": 70.101408956479915, "delaunay_k": 2, "edge_set": "Delaunay2" }, "geometry": { "type": "LineString", "coordinates": [ [ 11.932526, 55.127864 ], [ 12.490645134825497, 55.671527244775099 ] ] } },
{ "type": "Feature", "properties": { "voltage_kv": 132.0, "from_node": 35, "to_node": 56, "length_km": 77.35654431506137, "delaunay_k": 2, "edge_set": "Delaunay2" }, "geometry": { "type": "LineString", "coordinates": [ [ 11.932526, 55.127864 ], [ 12.527161, 55.734843 ] ] } },
{ "type": "Feature", "properties": { "voltage_kv": 132.0, "from_node": 35, "to_node": 59, "length_km": 78.988870401924373, "delaunay_k": 2, "edge_set": "Delaunay2" }, "geometry": { "type": "LineString", "coordinates": [ [ 11.932526, 55.127864 ], [ 12.580719, 55.73407 ] ] } },
{ "type": "Feature", "properties": { "voltage_kv": 132.0, "from_node": 35, "to_node": 61, "length_km": 122.46691421751814, "delaunay_k": 2, "edge_set": "Delaunay2" }, "geometry": { "type": "LineString", "coordinates": [ [ 11.932526, 55.127864 ], [ 12.933655, 56.070502 ] ] } },
{ "type": "Feature", "properties": { "voltage_kv": 132.0, "from_node": 36, "to_node": 38, "length_km": 25.01977796100417, "delaunay_k": 2, "edge_set": "Delaunay2" }, "geometry": { "type": "LineString", "coordinates": [ [ 11.933899, 55.22119 ], [ 11.961365, 55.445374 ] ] } },
{ "type": "Feature", "properties": { "voltage_kv": 132.0, "from_node": 36, "to_node": 39, "length_km": 51.790517840984869, "delaunay_k": 2, "edge_set": "Delaunay2" }, "geometry": { "type": "LineString", "coordinates": [ [ 11.933899, 55.22119 ], [ 11.965485, 54.756331 ] ] } },
{ "type": "Feature", "properties": { "voltage_kv": 132.0, "from_node": 36, "to_node": 45, "length_km": 34.374864380727857, "delaunay_k": 2, "edge_set": "Delaunay2" }, "geometry": { "type": "LineString", "coordinates": [ [ 11.933899, 55.22119 ], [ 12.170105, 55.499083 ] ] } },
{ "type": "Feature", "properties": { "voltage_kv": 132.0, "from_node": 36, "to_node": 60, "length_km": 64.030774663335961, "delaunay_k": 2, "edge_set": "Delaunay2" }, "geometry": { "type": "LineString", "coordinates": [ [ 11.933899, 55.22119 ], [ 12.583466, 55.662095 ] ] } },
{ "type": "Feature", "properties": { "voltage_kv": 132.0, "from_node": 37, "to_node": 38, "length_km": 12.839856633978028, "delaunay_k": 2, "edge_set": "Delaunay2" }, "geometry": { "type": "LineString", "coordinates": [ [ 11.949005, 55.560486 ], [ 11.961365, 55.445374 ] ] } },
{ "type": "Feature", "properties": { "voltage_kv": 132.0, "from_node": 37, "to_node": 44, "length_km": 23.633390604929684, "delaunay_k": 2, "edge_set": "Delaunay2" }, "geometry": { "type": "LineString", "coordinates": [ [ 11.949005, 55.560486 ], [ 12.154999, 55.737935 ] ] } },
{ "type": "Feature", "properties": { "voltage_kv": 132.0, "from_node": 37, "to_node": 45, "length_km": 15.546345926615514, "delaunay_k": 2, "edge_set": "Delaunay2" }, "geometry": { "type": "LineString", "coordinates": [ [ 11.949005, 55.560486 ], [ 12.170105, 55.499083 ] ] } },
{ "type": "Feature", "properties": { "voltage_kv": 132.0, "from_node": 37, "to_node": 49, "length_km": 20.191356241689022, "delaunay_k": 2, "edge_set": "Delaunay2" }, "geometry": { "type": "LineString", "coordinates": [ [ 11.949005, 55.560486 ], [ 12.268982, 55.559709 ] ] } },
{ "type": "Feature", "properties": { "voltage_kv": 132.0, "from_node": 37, "to_node": 50, "length_km": 25.927929602857169, "delaunay_k": 2, "edge_set": "Delaunay2" }, "geometry": { "type": "LineString", "coordinates": [ [ 11.949005, 55.560486 ], [ 12.311554, 55.670615 ] ] } },
{ "type": "Feature", "properties": { "voltage_kv": 132.0, "from_node": 38, "to_node": 43, "length_km": 20.714289088071148, "delaunay_k": 2, "edge_set": "Delaunay2" }, "geometry": { "type": "LineString", "coordinates": [ [ 11.961365, 55.445374 ], [ 12.108307, 55.611711 ] ] } },
{ "type": "Feature", "properties": { "voltage_kv": 132.0, "from_node": 38, "to_node": 49, "length_km": 23.236676906036859, "delaunay_k": 2, "edge_set": "Delaunay2" }, "geometry": { "type": "LineString", "coordinates": [ [ 11.961365, 55.445374 ], [ 12.268982, 55.559709 ] ] } },
{ "type": "Feature", "properties": { "voltage_kv": 132.0, "from_node": 38, "to_node": 60, "length_km": 46.084478961848099, "delaunay_k": 2, "edge_set": "Delaunay2" }, "geometry": { "type": "LineString", "coordinates": [ [ 11.961365, 55.445374 ], [ 12.583466, 55.662095 ] ] } },
{ "type": "Feature", "properties": { "voltage_kv": 132.0, "from_node": 39, "to_node": 41, "length_km": 66.312017264026593, "delaunay_k": 2, "edge_set": "Delaunay2" }, "geometry": { "type": "LineString", "coordinates": [ [ 11.965485, 54.756331 ], [ 12.024536, 55.351012 ] ] } },
{ "type": "Feature", "properties": { "voltage_kv": 132.0, "from_node": 39, "to_node": 45, "length_km": 83.714251318670279, "delaunay_k": 2, "edge_set": "Delaunay2" }, "geometry": { "type": "LineString", "coordinates": [ [ 11.965485, 54.756331 ], [ 12.170105, 55.499083 ] ] } },
{ "type": "Feature", "properties": { "voltage_kv": 132.0, "from_node": 39, "to_node": 49, "length_km": 91.508879160113977, "delaunay_k": 2, "edge_set": "Delaunay2" }, "geometry": { "type": "LineString", "coordinates": [ [ 11.965485, 54.756331 ], [ 12.268982, 55.559709 ] ] } },
{ "type": "Feature", "properties": { "voltage_kv": 132.0, "from_node": 39, "to_node": 51, "length_km": 98.696259606733548, "delaunay_k": 2, "edge_set": "Delaunay2" }, "geometry": { "type": "LineString", "coordinates": [ [ 11.965485, 54.756331 ], [ 12.362366, 55.613262 ] ] } },
{ "type": "Feature", "properties": { "voltage_kv": 132.0, "from_node": 39, "to_node": 54, "length_km": 107.2345167787405, "delaunay_k": 2, "edge_set": "Delaunay2" }, "geometry": { "type": "LineString", "coordinates": [ [ 11.965485, 54.756331 ], [ 12.490645134825497, 55.671527244775099 ] ] } },
{ "type": "Feature", "properties": { "voltage_kv": 132.0, "from_node": 39, "to_node": 56, "length_km": 114.64870207196067, "delaunay_k": 2, "edge_set": "Delaunay2" }, "geometry": { "type": "LineString", "coordinates": [ [ 11.965485, 54.756331 ], [ 12.527161, 55.734843 ] ] } },
{ "type": "Feature", "properties": { "voltage_kv": 132.0, "from_node": 39, "to_node": 59, "length_km": 115.67475138558251, "delaunay_k": 2, "edge_set": "Delaunay2" }, "geometry": { "type": "LineString", "coordinates": [ [ 11.965485, 54.756331 ], [ 12.580719, 55.73407 ] ] } },
{ "type": "Feature", "properties": { "voltage_kv": 132.0, "from_node": 40, "to_node": 41, "length_km": 16.542276117041744, "delaunay_k": 2, "edge_set": "Delaunay2" }, "geometry": { "type": "LineString", "coordinates": [ [ 11.990204, 55.498305 ], [ 12.024536, 55.351012 ] ] } },
{ "type": "Feature", "properties": { "voltage_kv": 132.0, "from_node": 40, "to_node": 44, "length_km": 28.629429350414259, "delaunay_k": 2, "edge_set": "Delaunay2" }, "geometry": { "type": "LineString", "coordinates": [ [ 11.990204, 55.498305 ], [ 12.154999, 55.737935 ] ] } },
{ "type": "Feature", "properties": { "voltage_kv": 132.0, "from_node": 40, "to_node": 49, "length_km": 18.886159248134724, "delaunay_k": 2, "edge_set": "Delaunay2" }, "geometry": { "type": "LineString", "coordinates": [ [ 11.990204, 55.498305 ], [ 12.268982, 55.559709 ] ] } },
{ "type": "Feature", "properties": { "voltage_kv": 132.0, "from_node": 40, "to_node": 50, "length_km": 27.905870005960601, "delaunay_k": 2, "edge_set": "Delaunay2" }, "geometry": { "type": "LineString", "coordinates": [ [ 11.990204, 55.498305 ], [ 12.311554, 55.670615 ] ] } },
{ "type": "Feature", "properties": { "voltage_kv": 132.0, "from_node": 40, "to_node": 60, "length_km": 41.624773179565423, "delaunay_k": 2, "edge_set": "Delaunay2" }, "geometry": { "type": "LineString", "coordinates": [ [ 11.990204, 55.498305 ], [ 12.583466, 55.662095 ] ] } },
{ "type": "Feature", "properties": { "voltage_kv": 132.0, "from_node": 41, "to_node": 43, "length_km": 29.504550088733534, "delaunay_k": 2, "edge_set": "Delaunay2" }, "geometry": { "type": "LineString", "coordinates": [ [ 12.024536, 55.351012 ], [ 12.108307, 55.611711 ] ] } },
{ "type": "Feature", "properties": { "voltage_kv": 132.0, "from_node": 41, "to_node": 49, "length_km": 27.912179883481137, "delaunay_k": 2, "edge_set": "Delaunay2" }, "geometry": { "type": "LineString", "coordinates": [ [ 12.024536, 55.351012 ], [ 12.268982, 55.559709 ] ] } },
{ "type": "Feature", "properties": { "voltage_kv": 132.0, "from_node": 41, "to_node": 51, "length_km": 36.177110267386752, "delaunay_k": 2, "edge_set": "Delaunay2" }, "geometry": { "type": "LineString", "coordinates": [ [ 12.024536, 55.351012 ], [ 12.362366, 55.613262 ] ] } },
{ "type": "Feature", "properties": { "voltage_kv": 132.0, "from_node": 41, "to_node": 54, "length_km": 46.267808465193141, "delaunay_k": 2, "edge_set": "Delaunay2" }, "geometry": { "type": "LineString", "coordinates": [ [ 12.024536, 55.351012 ], [ 12.490645134825497, 55.671527244775099 ] ] } },
{ "type": "Feature", "properties": { "voltage_kv": 132.0, "from_node": 41, "to_node": 56, "length_km": 53.227285561158666, "delaunay_k": 2, "edge_set": "Delaunay2" }, "geometry": { "type": "LineString", "coordinates": [ [ 12.024536, 55.351012 ], [ 12.527161, 55.734843 ] ] } },
{ "type": "Feature", "properties": { "voltage_kv": 132.0, "from_node": 41, "to_node": 59, "length_km": 55.243403341289671, "delaunay_k": 2, "edge_set": "Delaunay2" }, "geometry": { "type": "LineString", "coordinates": [ [ 12.024536, 55.351012 ], [ 12.580719, 55.73407 ] ] } },
{ "type": "Feature", "properties": { "voltage_kv": 132.0, "from_node": 41, "to_node": 61, "length_km": 98.405187772225659, "delaunay_k": 2, "edge_set": "Delaunay2" }, "geometry": { "type": "LineString", "coordinates": [ [ 12.024536, 55.351012 ], [ 12.933655, 56.070502 ] ] } },
{ "type": "Feature", "properties": { "voltage_kv": 132.0, "from_node": 42, "to_node": 44, "length_km": 26.404260502523506, "delaunay_k": 2, "edge_set": "Delaunay2" }, "geometry": { "type": "LineString", "coordinates": [ [ 12.061615, 55.969187 ], [ 12.154999, 55.737935 ] ] } },
{ "type": "Feature", "properties": { "voltage_kv": 132.0, "from_node": 42, "to_node": 48, "length_km": 25.412780018149267, "delaunay_k": 2, "edge_set": "Delaunay2" }, "geometry": { "type": "LineString", "coordinates": [ [ 12.061615, 55.969187 ], [ 12.240143, 55.764213 ] ] } },
{ "type": "Feature", "properties": { "voltage_kv": 132.0, "from_node": 42, "to_node": 52, "length_km": 30.968097609763653, "delaunay_k": 2, "edge_set": "Delaunay2" }, "geometry": { "type": "LineString", "coordinates": [ [ 12.061615, 55.969187 ], [ 12.389832, 55.761123 ] ] } },
{ "type": "Feature", "properties": { "voltage_kv": 132.0, "from_node": 42, "to_node": 53, "length_km": 26.097090337848467, "delaunay_k": 2, "edge_set": "Delaunay2" }, "geometry": { "type": "LineString", "coordinates": [ [ 12.061615, 55.969187 ], [ 12.474976, 55.935356 ] ] } },
{ "type": "Feature", "properties": { "voltage_kv": 132.0, "from_node": 42, "to_node": 55, "length_km": 28.924906808896171, "delaunay_k": 2, "edge_set": "Delaunay2" }, "geometry": { "type": "LineString", "coordinates": [ [ 12.061615, 55.969187 ], [ 12.520294, 55.933818 ] ] } },
{ "type": "Feature", "properties": { "voltage_kv": 132.0, "from_node": 42, "to_node": 61, "length_km": 55.54264342973201, "delaunay_k": 2, "edge_set": "Delaunay2" }, "geometry": { "type": "LineString", "coordinates": [ [ 12.061615, 55.969187 ], [ 12.933655, 56.070502 ] ] } },
{ "type": "Feature", "properties": { "voltage_kv": 132.0, "from_node": 43, "to_node": 47, "length_km": 24.735988667189051, "delaunay_k": 2, "edge_set": "Delaunay2" }, "geometry": { "type": "LineString", "coordinates": [ [ 12.108307, 55.611711 ], [ 12.23465, 55.822116 ] ] } },
{ "type": "Feature", "properties": { "voltage_kv": 132.0, "from_node": 43, "to_node": 48, "length_km": 18.896279539439075, "delaunay_k": 2, "edge_set": "Delaunay2" }, "geometry": { "type": "LineString", "coordinates": [ [ 12.108307, 55.611711 ], [ 12.240143, 55.764213 ] ] } },
{ "type": "Feature", "properties": { "voltage_kv": 132.0, "from_node": 43, "to_node": 51, "length_km": 16.011382846949552, "delaunay_k": 2, "edge_set": "Delaunay2" }, "geometry": { "type": "LineString", "coordinates": [ [ 12.108307, 55.611711 ], [ 12.362366, 55.613262 ] ] } },
{ "type": "Feature", "properties": { "voltage_kv": 132.0, "from_node": 43, "to_node": 52, "length_km": 24.296481684329457, "delaunay_k": 2, "edge_set": "Delaunay2" }, "geometry": { "type": "LineString", "coordinates": [ [ 12.108307, 55.611711 ], [ 12.389832, 55.761123 ] ] } },
{ "type": "Feature", "properties": { "voltage_kv": 132.0, "from_node": 43, "to_node": 54, "length_km": 24.98084827956108, "delaunay_k": 2, "edge_set": "Delaunay2" }, "geometry": { "type": "LineString", "coordinates": [ [ 12.108307, 55.611711 ], [ 12.490645134825497, 55.671527244775099 ] ] } },
{ "type": "Feature", "properties": { "voltage_kv": 132.0, "from_node": 43, "to_node": 60, "length_km": 30.446820564352759, "delaunay_k": 2, "edge_set": "Delaunay2" }, "geometry": { "type": "LineString", "coordinates": [ [ 12.108307, 55.611711 ], [ 12.583466, 55.662095 ] ] } },
{ "type": "Feature", "properties": { "voltage_kv": 132.0, "from_node": 44, "to_node": 45, "length_km": 26.610693787487655, "delaunay_k": 2, "edge_set": "Delaunay2" }, "geometry": { "type": "LineString", "coordinates": [ [ 12.154999, 55.737935 ], [ 12.170105, 55.499083 ] ] } },
{ "type": "Feature", "properties": { "voltage_kv": 132.0, "from_node": 44, "to_node": 46, "length_km": 20.087727189617713, "delaunay_k": 2, "edge_set": "Delaunay2" }, "geometry": { "type": "LineString", "coordinates": [ [ 12.154999, 55.737935 ], [ 12.22641, 55.913812 ] ] } },
{ "type": "Feature", "properties": { "voltage_kv": 132.0, "from_node": 44, "to_node": 49, "length_km": 21.101562767389371, "delaunay_k": 2, "edge_set": "Delaunay2" }, "geometry": { "type": "LineString", "coordinates": [ [ 12.154999, 55.737935 ], [ 12.268982, 55.559709 ] ] } },
{ "type": "Feature", "properties": { "voltage_kv": 132.0, "from_node": 44, "to_node": 51, "length_km": 19.050304554390117, "delaunay_k": 2, "edge_set": "Delaunay2" }, "geometry": { "type": "LineString", "coordinates": [ [ 12.154999, 55.737935 ], [ 12.362366, 55.613262 ] ] } },
{ "type": "Feature", "properties": { "voltage_kv": 132.0, "from_node": 44, "to_node": 52, "length_km": 14.971545266813507, "delaunay_k": 2, "edge_set": "Delaunay2" }, "geometry": { "type": "LineString", "coordinates": [ [ 12.154999, 55.737935 ], [ 12.389832, 55.761123 ] ] } },
{ "type": "Feature", "properties": { "voltage_kv": 132.0, "from_node": 44, "to_node": 53, "length_km": 29.751970615043664, "delaunay_k": 2, "edge_set": "Delaunay2" }, "geometry": { "type": "LineString", "coordinates": [ [ 12.154999, 55.737935 ], [ 12.474976, 55.935356 ] ] } },
{ "type": "Feature", "properties": { "voltage_kv": 132.0, "from_node": 44, "to_node": 54, "length_km": 22.360333227852827, "delaunay_k": 2, "edge_set": "Delaunay2" }, "geometry": { "type": "LineString", "coordinates": [ [ 12.154999, 55.737935 ], [ 12.490645134825497, 55.671527244775099 ] ] } },
{ "type": "Feature", "properties": { "voltage_kv": 132.0, "from_node": 45, "to_node": 50, "length_km": 21.078785969177311, "delaunay_k": 2, "edge_set": "Delaunay2" }, "geometry": { "type": "LineString", "coordinates": [ [ 12.170105, 55.499083 ], [ 12.311554, 55.670615 ] ] } },
{ "type": "Feature", "properties": { "voltage_kv": 132.0, "from_node": 45, "to_node": 51, "length_km": 17.573569573125312, "delaunay_k": 2, "edge_set": "Delaunay2" }, "geometry": { "type": "LineString", "coordinates": [ [ 12.170105, 55.499083 ], [ 12.362366, 55.613262 ] ] } },
{ "type": "Feature", "properties": { "voltage_kv": 132.0, "from_node": 45, "to_node": 54, "length_km": 27.879237118993792, "delaunay_k": 2, "edge_set": "Delaunay2" }, "geometry": { "type": "LineString", "coordinates": [ [ 12.170105, 55.499083 ], [ 12.490645134825497, 55.671527244775099 ] ] } },
{ "type": "Feature", "properties": { "voltage_kv": 132.0, "from_node": 45, "to_node": 56, "length_km": 34.57236442089345, "delaunay_k": 2, "edge_set": "Delaunay2" }, "geometry": { "type": "LineString", "coordinates": [ [ 12.170105, 55.499083 ], [ 12.527161, 55.734843 ] ] } },
{ "type": "Feature", "properties": { "voltage_kv": 132.0, "from_node": 45, "to_node": 59, "length_km": 36.796790894326875, "delaunay_k": 2, "edge_set": "Delaunay2" }, "geometry": { "type": "LineString", "coordinates": [ [ 12.170105, 55.499083 ], [ 12.580719, 55.73407 ] ] } },
{ "type": "Feature", "properties": { "voltage_kv": 132.0, "from_node": 45, "to_node": 61, "length_km": 79.644805096230286, "delaunay_k": 2, "edge_set": "Delaunay2" }, "geometry": { "type": "LineString", "coordinates": [ [ 12.170105, 55.499083 ], [ 12.933655, 56.070502 ] ] } },
{ "type": "Feature", "properties": { "voltage_kv": 132.0, "from_node": 46, "to_node": 48, "length_km": 16.679185437748046, "delaunay_k": 2, "edge_set": "Delaunay2" }, "geometry": { "type": "LineString", "coordinates": [ [ 12.22641, 55.913812 ], [ 12.240143, 55.764213 ] ] } },
{ "type": "Feature", "properties": { "voltage_kv": 132.0, "from_node": 46, "to_node": 52, "length_km": 19.846638944318133, "delaunay_k": 2, "edge_set": "Delaunay2" }, "geometry": { "type": "LineString", "coordinates": [ [ 12.22641, 55.913812 ], [ 12.389832, 55.761123 ] ] } },
{ "type": "Feature", "properties": { "voltage_kv": 132.0, "from_node": 46, "to_node": 55, "length_km": 18.507942523974009, "delaunay_k": 2, "edge_set": "Delaunay2" }, "geometry": { "type": "LineString", "coordinates": [ [ 12.22641, 55.913812 ], [ 12.520294, 55.933818 ] ] } },
{ "type": "Feature", "properties": { "voltage_kv": 132.0, "from_node": 46, "to_node": 57, "length_km": 24.902138005693629, "delaunay_k": 2, "edge_set": "Delaunay2" }, "geometry": { "type": "LineString", "coordinates": [ [ 12.22641, 55.913812 ], [ 12.56424, 55.795877 ] ] } },
{ "type": "Feature", "properties": { "voltage_kv": 132.0, "from_node": 46, "to_node": 61, "length_km": 47.462662287055267, "delaunay_k": 2, "edge_set": "Delaunay2" }, "geometry": { "type": "LineString", "coordinates": [ [ 12.22641, 55.913812 ], [ 12.933655, 56.070502 ] ] } },
{ "type": "Feature", "properties": { "voltage_kv": 132.0, "from_node": 47, "to_node": 50, "length_km": 17.546396497268972, "delaunay_k": 2, "edge_set": "Delaunay2" }, "geometry": { "type": "LineString", "coordinates": [ [ 12.23465, 55.822116 ], [ 12.311554, 55.670615 ] ] } },
{ "type": "Feature", "properties": { "voltage_kv": 132.0, "from_node": 47, "to_node": 54, "length_km": 23.229740123169449, "delaunay_k": 2, "edge_set": "Delaunay2" }, "geometry": { "type": "LineString", "coordinates": [ [ 12.23465, 55.822116 ], [ 12.490645134825497, 55.671527244775099 ] ] } },
{ "type": "Feature", "properties": { "voltage_kv": 132.0, "from_node": 47, "to_node": 55, "length_km": 21.779895371596243, "delaunay_k": 2, "edge_set": "Delaunay2" }, "geometry": { "type": "LineString", "coordinates": [ [ 12.23465, 55.822116 ], [ 12.520294, 55.933818 ] ] } },
{ "type": "Feature", "properties": { "voltage_kv": 132.0, "from_node": 47, "to_node": 56, "length_km": 20.769402870967848, "delaunay_k": 2, "edge_set": "Delaunay2" }, "geometry": { "type": "LineString", "coordinates": [ [ 12.23465, 55.822116 ], [ 12.527161, 55.734843 ] ] } },
{ "type": "Feature", "properties": { "voltage_kv": 132.0, "from_node": 47, "to_node": 57, "length_km": 20.872128657742561, "delaunay_k": 2, "edge_set": "Delaunay2" }, "geometry": { "type": "LineString", "coordinates": [ [ 12.23465, 55.822116 ], [ 12.56424, 55.795877 ] ] } },
{ "type": "Feature", "properties": { "voltage_kv": 132.0, "from_node": 47, "to_node": 58, "length_km": 32.351455735318503, "delaunay_k": 2, "edge_set": "Delaunay2" }, "geometry": { "type": "LineString", "coordinates": [ [ 12.23465, 55.822116 ], [ 12.571106, 56.042897 ] ] } },
{ "type": "Feature", "properties": { "voltage_kv": 132.0, "from_node": 48, "to_node": 49, "length_km": 22.84195235253809, "delaunay_k": 2, "edge_set": "Delaunay2" }, "geometry": { "type": "LineString", "coordinates": [ [ 12.240143, 55.764213 ], [ 12.268982, 55.559709 ] ] } },
{ "type": "Feature", "properties": { "voltage_kv": 132.0, "from_node": 48, "to_node": 51, "length_km": 18.481846071689137, "delaunay_k": 2, "edge_set": "Delaunay2" }, "geometry": { "type": "LineString", "coordinates": [ [ 12.240143, 55.764213 ], [ 12.362366, 55.613262 ] ] } },
{ "type": "Feature", "properties": { "voltage_kv": 132.0, "from_node": 48, "to_node": 53, "length_km": 24.072838447540228, "delaunay_k": 2, "edge_set": "Delaunay2" }, "geometry": { "type": "LineString", "coordinates": [ [ 12.240143, 55.764213 ], [ 12.474976, 55.935356 ] ] } },
{ "type": "Feature", "properties": { "voltage_kv": 132.0, "from_node": 48, "to_node": 54, "length_km": 18.824950960192393, "delaunay_k": 2, "edge_set": "Delaunay2" }, "geometry": { "type": "LineString", "coordinates": [ [ 12.240143, 55.764213 ], [ 12.490645134825497, 55.671527244775099 ] ] } },
{ "type": "Feature", "properties": { "voltage_kv": 132.0, "from_node": 48, "to_node": 56, "length_km": 18.318855318681784, "delaunay_k": 2, "edge_set": "Delaunay2" }, "geometry": { "type": "LineString", "coordinates": [ [ 12.240143, 55.764213 ], [ 12.527161, 55.734843 ] ] } },
{ "type": "Feature", "properties": { "voltage_kv": 132.0, "from_node": 48, "to_node": 57, "length_km": 20.640630076571089, "delaunay_k": 2, "edge_set": "Delaunay2" }, "geometry": { "type": "LineString", "coordinates": [ [ 12.240143, 55.764213 ], [ 12.56424, 55.795877 ] ] } },
{ "type": "Feature", "properties": { "voltage_kv": 132.0, "from_node": 49, "to_node": 52, "length_km": 23.680742498860649, "delaunay_k": 2, "edge_set": "Delaunay2" }, "geometry": { "type": "LineString", "coordinates": [ [ 12.268982, 55.559709 ], [ 12.389832, 55.761123 ] ] } },
{ "type": "Feature", "properties": { "voltage_kv": 132.0, "from_node": 49, "to_node": 54, "length_km": 18.711169036322744, "delaunay_k": 2, "edge_set": "Delaunay2" }, "geometry": { "type": "LineString", "coordinates": [ [ 12.268982, 55.559709 ], [ 12.490645134825497, 55.671527244775099 ] ] } },
{ "type": "Feature", "properties": { "voltage_kv": 132.0, "from_node": 49, "to_node": 56, "length_km": 25.386980524394179, "delaunay_k": 2, "edge_set": "Delaunay2" }, "geometry": { "type": "LineString", "coordinates": [ [ 12.268982, 55.559709 ], [ 12.527161, 55.734843 ] ] } },
{ "type": "Feature", "properties": { "voltage_kv": 132.0, "from_node": 49, "to_node": 59, "length_km": 27.607421806877785, "delaunay_k": 2, "edge_set": "Delaunay2" }, "geometry": { "type": "LineString", "coordinates": [ [ 12.268982, 55.559709 ], [ 12.580719, 55.73407 ] ] } },
{ "type": "Feature", "properties": { "voltage_kv": 132.0, "from_node": 49, "to_node": 61, "length_km": 70.507774734539197, "delaunay_k": 2, "edge_set": "Delaunay2" }, "geometry": { "type": "LineString", "coordinates": [ [ 12.268982, 55.559709 ], [ 12.933655, 56.070502 ] ] } },
{ "type": "Feature", "properties": { "voltage_kv": 132.0, "from_node": 50, "to_node": 53, "length_km": 31.208472665575705, "delaunay_k": 2, "edge_set": "Delaunay2" }, "geometry": { "type": "LineString", "coordinates": [ [ 12.311554, 55.670615 ], [ 12.474976, 55.935356 ] ] } },
{ "type": "Feature", "properties": { "voltage_kv": 132.0, "from_node": 50, "to_node": 56, "length_km": 15.326939878006854, "delaunay_k": 2, "edge_set": "Delaunay2" }, "geometry": { "type": "LineString", "coordinates": [ [ 12.311554, 55.670615 ], [ 12.527161, 55.734843 ] ] } },
{ "type": "Feature", "properties": { "voltage_kv": 132.0, "from_node": 50, "to_node": 57, "length_km": 21.131709172978795, "delaunay_k": 2, "edge_set": "Delaunay2" }, "geometry": { "type": "LineString", "coordinates": [ [ 12.311554, 55.670615 ], [ 12.56424, 55.795877 ] ] } },
{ "type": "Feature", "properties": { "voltage_kv": 132.0, "from_node": 50, "to_node": 60, "length_km": 17.13866293207494, "delaunay_k": 2, "edge_set": "Delaunay2" }, "geometry": { "type": "LineString", "coordinates": [ [ 12.311554, 55.670615 ], [ 12.583466, 55.662095 ] ] } },
{ "type": "Feature", "properties": { "voltage_kv": 132.0, "from_node": 51, "to_node": 52, "length_km": 16.553680026217389, "delaunay_k": 2, "edge_set": "Delaunay2" }, "geometry": { "type": "LineString", "coordinates": [ [ 12.362366, 55.613262 ], [ 12.389832, 55.761123 ] ] } },
{ "type": "Feature", "properties": { "voltage_kv": 132.0, "from_node": 51, "to_node": 56, "length_km": 17.052137085500867, "delaunay_k": 2, "edge_set": "Delaunay2" }, "geometry": { "type": "LineString", "coordinates": [ [ 12.362366, 55.613262 ], [ 12.527161, 55.734843 ] ] } },
{ "type": "Feature", "properties": { "voltage_kv": 132.0, "from_node": 51, "to_node": 59, "length_km": 19.227610065280373, "delaunay_k": 2, "edge_set": "Delaunay2" }, "geometry": { "type": "LineString", "coordinates": [ [ 12.362366, 55.613262 ], [ 12.580719, 55.73407 ] ] } },
{ "type": "Feature", "properties": { "voltage_kv": 132.0, "from_node": 51, "to_node": 61, "length_km": 62.235494834958018, "delaunay_k": 2, "edge_set": "Delaunay2" }, "geometry": { "type": "LineString", "coordinates": [ [ 12.362366, 55.613262 ], [ 12.933655, 56.070502 ] ] } },
{ "type": "Feature", "properties": { "voltage_kv": 132.0, "from_node": 52, "to_node": 55, "length_km": 20.893656011985613, "delaunay_k": 2, "edge_set": "Delaunay2" }, "geometry": { "type": "LineString", "coordinates": [ [ 12.389832, 55.761123 ], [ 12.520294, 55.933818 ] ] } },
{ "type": "Feature", "properties": { "voltage_kv": 132.0, "from_node": 52, "to_node": 58, "length_km": 33.361279918299594, "delaunay_k": 2, "edge_set": "Delaunay2" }, "geometry": { "type": "LineString", "coordinates": [ [ 12.389832, 55.761123 ], [ 12.571106, 56.042897 ] ] } },
{ "type": "Feature", "properties": { "voltage_kv": 132.0, "from_node": 52, "to_node": 59, "length_km": 12.360987083150457, "delaunay_k": 2, "edge_set": "Delaunay2" }, "geometry": { "type": "LineString", "coordinates": [ [ 12.389832, 55.761123 ], [ 12.580719, 55.73407 ] ] } },
{ "type": "Feature", "properties": { "voltage_kv": 132.0, "from_node": 52, "to_node": 60, "length_km": 16.42367425421482, "delaunay_k": 2, "edge_set": "Delaunay2" }, "geometry": { "type": "LineString", "coordinates": [ [ 12.389832, 55.761123 ], [ 12.583466, 55.662095 ] ] } },
{ "type": "Feature", "properties": { "voltage_kv": 132.0, "from_node": 52, "to_node": 61, "length_km": 48.407280387114945, "delaunay_k": 2, "edge_set": "Delaunay2" }, "geometry": { "type": "LineString", "coordinates": [ [ 12.389832, 55.761123 ], [ 12.933655, 56.070502 ] ] } },
{ "type": "Feature", "properties": { "voltage_kv": 132.0, "from_node": 53, "to_node": 54, "length_km": 29.392799584394908, "delaunay_k": 2, "edge_set": "Delaunay2" }, "geometry": { "type": "LineString", "coordinates": [ [ 12.474976, 55.935356 ], [ 12.490645134825497, 55.671527244775099 ] ] } },
{ "type": "Feature", "properties": { "voltage_kv": 132.0, "from_node": 53, "to_node": 56, "length_km": 22.564753192014468, "delaunay_k": 2, "edge_set": "Delaunay2" }, "geometry": { "type": "LineString", "coordinates": [ [ 12.474976, 55.935356 ], [ 12.527161, 55.734843 ] ] } },
{ "type": "Feature", "properties": { "voltage_kv": 132.0, "from_node": 53, "to_node": 59, "length_km": 23.371681951649371, "delaunay_k": 2, "edge_set": "Delaunay2" }, "geometry": { "type": "LineString", "coordinates": [ [ 12.474976, 55.935356 ], [ 12.580719, 55.73407 ] ] } },
{ "type": "Feature", "properties": { "voltage_kv": 132.0, "from_node": 53, "to_node": 61, "length_km": 32.334321864635484, "delaunay_k": 2, "edge_set": "Delaunay2" }, "geometry": { "type": "LineString", "coordinates": [ [ 12.474976, 55.935356 ], [ 12.933655, 56.070502 ] ] } },
{ "type": "Feature", "properties": { "voltage_kv": 132.0, "from_node": 54, "to_node": 57, "length_km": 14.597420679850503, "delaunay_k": 2, "edge_set": "Delaunay2" }, "geometry": { "type": "LineString", "coordinates": [ [ 12.490645134825497, 55.671527244775099 ], [ 12.56424, 55.795877 ] ] } },
{ "type": "Feature", "properties": { "voltage_kv": 132.0, "from_node": 54, "to_node": 59, "length_km": 8.9760667927728797, "delaunay_k": 2, "edge_set": "Delaunay2" }, "geometry": { "type": "LineString", "coordinates": [ [ 12.490645134825497, 55.671527244775099 ], [ 12.580719, 55.73407 ] ] } },
{ "type": "Feature", "properties": { "voltage_kv": 132.0, "from_node": 54, "to_node": 61, "length_km": 52.372801181229974, "delaunay_k": 2, "edge_set": "Delaunay2" }, "geometry": { "type": "LineString", "coordinates": [ [ 12.490645134825497, 55.671527244775099 ], [ 12.933655, 56.070502 ] ] } },
{ "type": "Feature", "properties": { "voltage_kv": 132.0, "from_node": 55, "to_node": 56, "length_km": 22.159532486650903, "delaunay_k": 2, "edge_set": "Delaunay2" }, "geometry": { "type": "LineString", "coordinates": [ [ 12.520294, 55.933818 ], [ 12.527161, 55.734843 ] ] } },
{ "type": "Feature", "properties": { "voltage_kv": 132.0, "from_node": 55, "to_node": 59, "length_km": 22.561512987288669, "delaunay_k": 2, "edge_set": "Delaunay2" }, "geometry": { "type": "LineString", "coordinates": [ [ 12.520294, 55.933818 ], [ 12.580719, 55.73407 ] ] } },
{ "type": "Feature", "properties": { "voltage_kv": 132.0, "from_node": 55, "to_node": 60, "length_km": 30.513933568075736, "delaunay_k": 2, "edge_set": "Delaunay2" }, "geometry": { "type": "LineString", "coordinates": [ [ 12.520294, 55.933818 ], [ 12.583466, 55.662095 ] ] } },
{ "type": "Feature", "properties": { "voltage_kv": 132.0, "from_node": 56, "to_node": 61, "length_km": 45.205944205972528, "delaunay_k": 2, "edge_set": "Delaunay2" }, "geometry": { "type": "LineString", "coordinates": [ [ 12.527161, 55.734843 ], [ 12.933655, 56.070502 ] ] } },
{ "type": "Feature", "properties": { "voltage_kv": 132.0, "from_node": 57, "to_node": 58, "length_km": 27.508908651893005, "delaunay_k": 2, "edge_set": "Delaunay2" }, "geometry": { "type": "LineString", "coordinates": [ [ 12.56424, 55.795877 ], [ 12.571106, 56.042897 ] ] } },
{ "type": "Feature", "properties": { "voltage_kv": 132.0, "from_node": 57, "to_node": 60, "length_km": 14.945024544857375, "delaunay_k": 2, "edge_set": "Delaunay2" }, "geometry": { "type": "LineString", "coordinates": [ [ 12.56424, 55.795877 ], [ 12.583466, 55.662095 ] ] } },
{ "type": "Feature", "properties": { "voltage_kv": 132.0, "from_node": 58, "to_node": 59, "length_km": 34.392864359765809, "delaunay_k": 2, "edge_set": "Delaunay2" }, "geometry": { "type": "LineString", "coordinates": [ [ 12.571106, 56.042897 ], [ 12.580719, 55.73407 ] ] } },
{ "type": "Feature", "properties": { "voltage_kv": 132.0, "from_node": 58, "to_node": 60, "length_km": 42.408783669715916, "delaunay_k": 2, "edge_set": "Delaunay2" }, "geometry": { "type": "LineString", "coordinates": [ [ 12.571106, 56.042897 ], [ 12.583466, 55.662095 ] ] } },
{ "type": "Feature", "properties": { "voltage_kv": 132.0, "from_node": 62, "to_node": 65, "length_km": 63.719269252491493, "delaunay_k": 2, "edge_set": "Delaunay2" }, "geometry": { "type": "LineString", "coordinates": [ [ 19.158783, 69.620772 ], [ 20.376892, 69.243986 ] ] } },
{ "type": "Feature", "properties": { "voltage_kv": 132.0, "from_node": 62, "to_node": 66, "length_km": 76.60510824455109, "delaunay_k": 2, "edge_set": "Delaunay2" }, "geometry": { "type": "LineString", "coordinates": [ [ 19.158783, 69.620772 ], [ 21.041565, 69.431516 ] ] } },
{ "type": "Feature", "properties": { "voltage_kv": 132.0, "from_node": 63, "to_node": 66, "length_km": 76.049802438801791, "delaunay_k": 2, "edge_set": "Delaunay2" }, "geometry": { "type": "LineString", "coordinates": [ [ 19.24942, 69.183065 ], [ 21.041565, 69.431516 ] ] } },
{ "type": "Feature", "properties": { "voltage_kv": 132.0, "from_node": 65, "to_node": 67, "length_km": 86.739812085961788, "delaunay_k": 2, "edge_set": "Delaunay2" }, "geometry": { "type": "LineString", "coordinates": [ [ 20.376892, 69.243986 ], [ 22.138824, 69.713346 ] ] } },
{ "type": "Feature", "properties": { "voltage_kv": 132.0, "from_node": 66, "to_node": 68, "length_km": 107.87216822469415, "delaunay_k": 2, "edge_set": "Delaunay2" }, "geometry": { "type": "LineString", "coordinates": [ [ 21.041565, 69.431516 ], [ 23.410492, 69.935012 ] ] } },
{ "type": "Feature", "properties": { "voltage_kv": 132.0, "from_node": 67, "to_node": 71, "length_km": 119.68382668665269, "delaunay_k": 2, "edge_set": "Delaunay2" }, "geometry": { "type": "LineString", "coordinates": [ [ 22.138824, 69.713346 ], [ 25.157318, 69.959498 ] ] } },
{ "type": "Feature", "properties": { "voltage_kv": 132.0, "from_node": 68, "to_node": 72, "length_km": 125.77941135061344, "delaunay_k": 2, "edge_set": "Delaunay2" }, "geometry": { "type": "LineString", "coordinates": [ [ 23.410492, 69.935012 ], [ 26.545715, 70.286801 ] ] } },
{ "type": "Feature", "properties": { "voltage_kv": 132.0, "from_node": 69, "to_node": 70, "length_km": 79.916540380974922, "delaunay_k": 2, "edge_set": "Delaunay2" }, "geometry": { "type": "LineString", "coordinates": [ [ 23.990021, 69.68142 ], [ 24.613495, 70.363091 ] ] } },
{ "type": "Feature", "properties": { "voltage_kv": 132.0, "from_node": 69, "to_node": 72, "length_km": 119.13713336808982, "delaunay_k": 2, "edge_set": "Delaunay2" }, "geometry": { "type": "LineString", "coordinates": [ [ 23.990021, 69.68142 ], [ 26.545715, 70.286801 ] ] } }
]
}
