{
"type": "FeatureCollection",
"name": "n490_delaunay3_removed_length",
"crs": { "type": "name", "properties": { "name": "urn:ogc:def:crs:OGC:1.3:CRS84" } },
"features": [
{ "type": "Feature", "properties": { "from_node": 168, "to_node": 367, "length_km": 563.01640934535692, "delaunay_k": 3, "edge_set": "Delaunay3" }, "geometry": { "type": "LineString", "coordinates": [ [ 23.819733, 60.047704 ], [ 28.45047, 64.58147 ] ] } },
{ "type": "Feature", "properties": { "from_node": 176, "to_node": 367, "length_km": 529.34648348226028, "delaunay_k": 3, "edge_set": "Delaunay3" }, "geometry": { "type": "LineString", "coordinates": [ [ 24.656067, 60.20571 ], [ 28.45047, 64.58147 ] ] } },
{ "type": "Feature", "properties": { "from_node": 185, "to_node": 367, "length_km": 500.98760659794664, "delaunay_k": 3, "edge_set": "Delaunay3" }, "geometry": { "type": "LineString", "coordinates": [ [ 25.209503, 60.378575 ], [ 28.45047, 64.58147 ] ] } },
{ "type": "Feature", "properties": { "from_node": 192, "to_node": 375, "length_km": 487.47300438825533, "delaunay_k": 3, "edge_set": "Delaunay3" }, "geometry": { "type": "LineString", "coordinates": [ [ 26.294403, 60.418598 ], [ 26.51825, 64.759489 ] ] } },
{ "type": "Feature", "properties": { "from_node": 192, "to_node": 404, "length_km": 664.72815059325865, "delaunay_k": 3, "edge_set": "Delaunay3" }, "geometry": { "type": "LineString", "coordinates": [ [ 26.294403, 60.418598 ], [ 27.030487, 66.33089 ] ] } },
{ "type": "Feature", "properties": { "from_node": 192, "to_node": 407, "length_km": 679.43071398192092, "delaunay_k": 3, "edge_set": "Delaunay3" }, "geometry": { "type": "LineString", "coordinates": [ [ 26.294403, 60.418598 ], [ 27.398529, 66.450241 ] ] } },
{ "type": "Feature", "properties": { "from_node": 196, "to_node": 367, "length_km": 483.95546134940491, "delaunay_k": 3, "edge_set": "Delaunay3" }, "geometry": { "type": "LineString", "coordinates": [ [ 25.659943, 60.469404 ], [ 28.45047, 64.58147 ] ] } },
{ "type": "Feature", "properties": { "from_node": 214, "to_node": 360, "length_km": 538.75189795547556, "delaunay_k": 3, "edge_set": "Delaunay3" }, "geometry": { "type": "LineString", "coordinates": [ [ 4.998779, 60.703432 ], [ 11.620789, 64.453849 ] ] } },
{ "type": "Feature", "properties": { "from_node": 215, "to_node": 404, "length_km": 628.1757117154857, "delaunay_k": 3, "edge_set": "Delaunay3" }, "geometry": { "type": "LineString", "coordinates": [ [ 27.063446, 60.737015 ], [ 27.030487, 66.33089 ] ] } },
{ "type": "Feature", "properties": { "from_node": 215, "to_node": 407, "length_km": 641.87270122495465, "delaunay_k": 3, "edge_set": "Delaunay3" }, "geometry": { "type": "LineString", "coordinates": [ [ 27.063446, 60.737015 ], [ 27.398529, 66.450241 ] ] } },
{ "type": "Feature", "properties": { "from_node": 223, "to_node": 386, "length_km": 505.32891182692748, "delaunay_k": 3, "edge_set": "Delaunay3" }, "geometry": { "type": "LineString", "coordinates": [ [ 27.919006, 60.893713 ], [ 25.694275, 65.279688 ] ] } },
{ "type": "Feature", "properties": { "from_node": 223, "to_node": 403, "length_km": 618.05133167284771, "delaunay_k": 3, "edge_set": "Delaunay3" }, "geometry": { "type": "LineString", "coordinates": [ [ 27.919006, 60.893713 ], [ 25.415497, 66.285642 ] ] } },
{ "type": "Feature", "properties": { "from_node": 223, "to_node": 405, "length_km": 618.78846532453599, "delaunay_k": 3, "edge_set": "Delaunay3" }, "geometry": { "type": "LineString", "coordinates": [ [ 27.919006, 60.893713 ], [ 26.769562, 66.378809 ] ] } },
{ "type": "Feature", "properties": { "from_node": 223, "to_node": 415, "length_km": 713.13718391265888, "delaunay_k": 3, "edge_set": "Delaunay3" }, "geometry": { "type": "LineString", "coordinates": [ [ 27.919006, 60.893713 ], [ 27.387543, 67.23753 ] ] } },
{ "type": "Feature", "properties": { "from_node": 246, "to_node": 404, "length_km": 543.85220503165726, "delaunay_k": 3, "edge_set": "Delaunay3" }, "geometry": { "type": "LineString", "coordinates": [ [ 27.305145, 61.489282 ], [ 27.030487, 66.33089 ] ] } },
{ "type": "Feature", "properties": { "from_node": 246, "to_node": 407, "length_km": 557.17442290666463, "delaunay_k": 3, "edge_set": "Delaunay3" }, "geometry": { "type": "LineString", "coordinates": [ [ 27.305145, 61.489282 ], [ 27.398529, 66.450241 ] ] } },
{ "type": "Feature", "properties": { "from_node": 247, "to_node": 373, "length_km": 505.14658228821236, "delaunay_k": 3, "edge_set": "Delaunay3" }, "geometry": { "type": "LineString", "coordinates": [ [ 5.748596, 61.49256 ], [ 12.800446, 64.712014 ] ] } },
{ "type": "Feature", "properties": { "from_node": 247, "to_node": 383, "length_km": 541.88405054233215, "delaunay_k": 3, "edge_set": "Delaunay3" }, "geometry": { "type": "LineString", "coordinates": [ [ 5.748596, 61.49256 ], [ 12.7565, 65.20262 ] ] } },
{ "type": "Feature", "properties": { "from_node": 247, "to_node": 396, "length_km": 611.17498874180251, "delaunay_k": 3, "edge_set": "Delaunay3" }, "geometry": { "type": "LineString", "coordinates": [ [ 5.748596, 61.49256 ], [ 13.289337, 65.841024 ] ] } },
{ "type": "Feature", "properties": { "from_node": 247, "to_node": 410, "length_km": 700.71262719221272, "delaunay_k": 3, "edge_set": "Delaunay3" }, "geometry": { "type": "LineString", "coordinates": [ [ 5.748596, 61.49256 ], [ 13.807068, 66.707884 ] ] } },
{ "type": "Feature", "properties": { "from_node": 252, "to_node": 383, "length_km": 484.92667481267051, "delaunay_k": 3, "edge_set": "Delaunay3" }, "geometry": { "type": "LineString", "coordinates": [ [ 7.410278, 61.569805 ], [ 12.7565, 65.20262 ] ] } },
{ "type": "Feature", "properties": { "from_node": 252, "to_node": 396, "length_km": 557.40807555775314, "delaunay_k": 3, "edge_set": "Delaunay3" }, "geometry": { "type": "LineString", "coordinates": [ [ 7.410278, 61.569805 ], [ 13.289337, 65.841024 ] ] } },
{ "type": "Feature", "properties": { "from_node": 252, "to_node": 410, "length_km": 651.32742571182155, "delaunay_k": 3, "edge_set": "Delaunay3" }, "geometry": { "type": "LineString", "coordinates": [ [ 7.410278, 61.569805 ], [ 13.807068, 66.707884 ] ] } },
{ "type": "Feature", "properties": { "from_node": 254, "to_node": 373, "length_km": 505.20869253164142, "delaunay_k": 3, "edge_set": "Delaunay3" }, "geometry": { "type": "LineString", "coordinates": [ [ 5.218506, 61.732826 ], [ 12.800446, 64.712014 ] ] } },
{ "type": "Feature", "properties": { "from_node": 254, "to_node": 383, "length_km": 538.82894790092348, "delaunay_k": 3, "edge_set": "Delaunay3" }, "geometry": { "type": "LineString", "coordinates": [ [ 5.218506, 61.732826 ], [ 12.7565, 65.20262 ] ] } },
{ "type": "Feature", "properties": { "from_node": 254, "to_node": 396, "length_km": 605.9706053319311, "delaunay_k": 3, "edge_set": "Delaunay3" }, "geometry": { "type": "LineString", "coordinates": [ [ 5.218506, 61.732826 ], [ 13.289337, 65.841024 ] ] } },
{ "type": "Feature", "properties": { "from_node": 254, "to_node": 410, "length_km": 692.80916120099687, "delaunay_k": 3, "edge_set": "Delaunay3" }, "geometry": { "type": "LineString", "coordinates": [ [ 5.218506, 61.732826 ], [ 13.807068, 66.707884 ] ] } },
{ "type": "Feature", "properties": { "from_node": 265, "to_node": 415, "length_km": 559.0185337334733, "delaunay_k": 3, "edge_set": "Delaunay3" }, "geometry": { "type": "LineString", "coordinates": [ [ 27.766571, 62.262171 ], [ 27.387543, 67.23753 ] ] } },
{ "type": "Feature", "properties": { "from_node": 273, "to_node": 391, "length_km": 514.82129702910458, "delaunay_k": 3, "edge_set": "Delaunay3" }, "geometry": { "type": "LineString", "coordinates": [ [ 7.033997, 62.47807 ], [ 14.765625, 65.62429 ] ] } },
{ "type": "Feature", "properties": { "from_node": 273, "to_node": 401, "length_km": 521.92997253963836, "delaunay_k": 3, "edge_set": "Delaunay3" }, "geometry": { "type": "LineString", "coordinates": [ [ 7.033997, 62.47807 ], [ 13.763123, 66.142743 ] ] } },
{ "type": "Feature", "properties": { "from_node": 273, "to_node": 402, "length_km": 546.41306000366797, "delaunay_k": 3, "edge_set": "Delaunay3" }, "geometry": { "type": "LineString", "coordinates": [ [ 7.033997, 62.47807 ], [ 14.191589, 66.282328 ] ] } },
{ "type": "Feature", "properties": { "from_node": 273, "to_node": 416, "length_km": 675.93420448851509, "delaunay_k": 3, "edge_set": "Delaunay3" }, "geometry": { "type": "LineString", "coordinates": [ [ 7.033997, 62.47807 ], [ 15.757141, 67.288485 ] ] } },
{ "type": "Feature", "properties": { "from_node": 273, "to_node": 420, "length_km": 704.68348799095338, "delaunay_k": 3, "edge_set": "Delaunay3" }, "geometry": { "type": "LineString", "coordinates": [ [ 7.033997, 62.47807 ], [ 15.850525, 67.598233 ] ] } },
{ "type": "Feature", "properties": { "from_node": 273, "to_node": 432, "length_km": 964.13444868224019, "delaunay_k": 3, "edge_set": "Delaunay3" }, "geometry": { "type": "LineString", "coordinates": [ [ 7.033997, 62.47807 ], [ 19.158783, 69.620772 ] ] } },
{ "type": "Feature", "properties": { "from_node": 277, "to_node": 410, "length_km": 547.33568567611348, "delaunay_k": 3, "edge_set": "Delaunay3" }, "geometry": { "type": "LineString", "coordinates": [ [ 7.7948, 62.526259 ], [ 13.807068, 66.707884 ] ] } },
{ "type": "Feature", "properties": { "from_node": 282, "to_node": 410, "length_km": 515.65183228556418, "delaunay_k": 3, "edge_set": "Delaunay3" }, "geometry": { "type": "LineString", "coordinates": [ [ 8.480072, 62.679816 ], [ 13.807068, 66.707884 ] ] } },
{ "type": "Feature", "properties": { "from_node": 313, "to_node": 416, "length_km": 523.47153213353533, "delaunay_k": 3, "edge_set": "Delaunay3" }, "geometry": { "type": "LineString", "coordinates": [ [ 9.933014, 63.271947 ], [ 15.757141, 67.288485 ] ] } },
{ "type": "Feature", "properties": { "from_node": 313, "to_node": 420, "length_km": 554.58821366914731, "delaunay_k": 3, "edge_set": "Delaunay3" }, "geometry": { "type": "LineString", "coordinates": [ [ 9.933014, 63.271947 ], [ 15.850525, 67.598233 ] ] } },
{ "type": "Feature", "properties": { "from_node": 313, "to_node": 432, "length_km": 817.20236583869905, "delaunay_k": 3, "edge_set": "Delaunay3" }, "geometry": { "type": "LineString", "coordinates": [ [ 9.933014, 63.271947 ], [ 19.158783, 69.620772 ] ] } },
{ "type": "Feature", "properties": { "from_node": 321, "to_node": 416, "length_km": 498.81892863008619, "delaunay_k": 3, "edge_set": "Delaunay3" }, "geometry": { "type": "LineString", "coordinates": [ [ 10.439758, 63.401361 ], [ 15.757141, 67.288485 ] ] } },
{ "type": "Feature", "properties": { "from_node": 321, "to_node": 420, "length_km": 530.39404128052706, "delaunay_k": 3, "edge_set": "Delaunay3" }, "geometry": { "type": "LineString", "coordinates": [ [ 10.439758, 63.401361 ], [ 15.850525, 67.598233 ] ] } },
{ "type": "Feature", "properties": { "from_node": 321, "to_node": 432, "length_km": 793.22234615610034, "delaunay_k": 3, "edge_set": "Delaunay3" }, "geometry": { "type": "LineString", "coordinates": [ [ 10.439758, 63.401361 ], [ 19.158783, 69.620772 ] ] } },
{ "type": "Feature", "properties": { "from_node": 337, "to_node": 432, "length_km": 707.15341168462476, "delaunay_k": 3, "edge_set": "Delaunay3" }, "geometry": { "type": "LineString", "coordinates": [ [ 13.065491, 63.752742 ], [ 19.158783, 69.620772 ] ] } },
{ "type": "Feature", "properties": { "from_node": 346, "to_node": 432, "length_km": 713.10583318150077, "delaunay_k": 3, "edge_set": "Delaunay3" }, "geometry": { "type": "LineString", "coordinates": [ [ 11.477966, 63.979576 ], [ 19.158783, 69.620772 ] ] } },
{ "type": "Feature", "properties": { "from_node": 360, "to_node": 423, "length_km": 484.80753339055855, "delaunay_k": 3, "edge_set": "Delaunay3" }, "geometry": { "type": "LineString", "coordinates": [ [ 11.620789, 64.453849 ], [ 17.288361, 68.158786 ] ] } },
{ "type": "Feature", "properties": { "from_node": 360, "to_node": 424, "length_km": 524.74955039978568, "delaunay_k": 3, "edge_set": "Delaunay3" }, "geometry": { "type": "LineString", "coordinates": [ [ 11.620789, 64.453849 ], [ 17.579498, 68.517173 ] ] } },
{ "type": "Feature", "properties": { "from_node": 360, "to_node": 426, "length_km": 602.10328713688989, "delaunay_k": 3, "edge_set": "Delaunay3" }, "geometry": { "type": "LineString", "coordinates": [ [ 11.620789, 64.453849 ], [ 18.864899, 69.038124 ] ] } },
{ "type": "Feature", "properties": { "from_node": 360, "to_node": 427, "length_km": 624.19446862246707, "delaunay_k": 3, "edge_set": "Delaunay3" }, "geometry": { "type": "LineString", "coordinates": [ [ 11.620789, 64.453849 ], [ 19.24942, 69.183065 ] ] } },
{ "type": "Feature", "properties": { "from_node": 360, "to_node": 431, "length_km": 671.33943894403717, "delaunay_k": 3, "edge_set": "Delaunay3" }, "geometry": { "type": "LineString", "coordinates": [ [ 11.620789, 64.453849 ], [ 19.820709, 69.558512 ] ] } },
{ "type": "Feature", "properties": { "from_node": 360, "to_node": 435, "length_km": 742.16119123614067, "delaunay_k": 3, "edge_set": "Delaunay3" }, "geometry": { "type": "LineString", "coordinates": [ [ 11.620789, 64.453849 ], [ 22.138824, 69.713346 ] ] } },
{ "type": "Feature", "properties": { "from_node": 360, "to_node": 442, "length_km": 860.3428101456775, "delaunay_k": 3, "edge_set": "Delaunay3" }, "geometry": { "type": "LineString", "coordinates": [ [ 11.620789, 64.453849 ], [ 24.613495, 70.363091 ] ] } },
{ "type": "Feature", "properties": { "from_node": 373, "to_node": 432, "length_km": 612.40467954637961, "delaunay_k": 3, "edge_set": "Delaunay3" }, "geometry": { "type": "LineString", "coordinates": [ [ 12.800446, 64.712014 ], [ 19.158783, 69.620772 ] ] } },
{ "type": "Feature", "properties": { "from_node": 383, "to_node": 432, "length_km": 563.67095199038158, "delaunay_k": 3, "edge_set": "Delaunay3" }, "geometry": { "type": "LineString", "coordinates": [ [ 12.7565, 65.20262 ], [ 19.158783, 69.620772 ] ] } },
{ "type": "Feature", "properties": { "from_node": 386, "to_node": 428, "length_km": 499.3484775197914, "delaunay_k": 3, "edge_set": "Delaunay3" }, "geometry": { "type": "LineString", "coordinates": [ [ 25.694275, 65.279688 ], [ 20.376892, 69.243986 ] ] } },
{ "type": "Feature", "properties": { "from_node": 386, "to_node": 429, "length_km": 505.78100115417817, "delaunay_k": 3, "edge_set": "Delaunay3" }, "geometry": { "type": "LineString", "coordinates": [ [ 25.694275, 65.279688 ], [ 21.041565, 69.431516 ] ] } },
{ "type": "Feature", "properties": { "from_node": 386, "to_node": 433, "length_km": 498.29492726752579, "delaunay_k": 3, "edge_set": "Delaunay3" }, "geometry": { "type": "LineString", "coordinates": [ [ 25.694275, 65.279688 ], [ 23.990021, 69.68142 ] ] } },
{ "type": "Feature", "properties": { "from_node": 391, "to_node": 432, "length_km": 483.29931648500502, "delaunay_k": 3, "edge_set": "Delaunay3" }, "geometry": { "type": "LineString", "coordinates": [ [ 14.765625, 65.62429 ], [ 19.158783, 69.620772 ] ] } },
{ "type": "Feature", "properties": { "from_node": 392, "to_node": 418, "length_km": 490.51824374974154, "delaunay_k": 3, "edge_set": "Delaunay3" }, "geometry": { "type": "LineString", "coordinates": [ [ 14.965643971847902, 65.721629736713297 ], [ 25.085907, 67.498059 ] ] } },
{ "type": "Feature", "properties": { "from_node": 396, "to_node": 431, "length_km": 498.18424828446945, "delaunay_k": 3, "edge_set": "Delaunay3" }, "geometry": { "type": "LineString", "coordinates": [ [ 13.289337, 65.841024 ], [ 19.820709, 69.558512 ] ] } },
{ "type": "Feature", "properties": { "from_node": 396, "to_node": 435, "length_km": 570.51591787324696, "delaunay_k": 3, "edge_set": "Delaunay3" }, "geometry": { "type": "LineString", "coordinates": [ [ 13.289337, 65.841024 ], [ 22.138824, 69.713346 ] ] } },
{ "type": "Feature", "properties": { "from_node": 396, "to_node": 442, "length_km": 689.2004927953717, "delaunay_k": 3, "edge_set": "Delaunay3" }, "geometry": { "type": "LineString", "coordinates": [ [ 13.289337, 65.841024 ], [ 24.613495, 70.363091 ] ] } },
{ "type": "Feature", "properties": { "from_node": 398, "to_node": 430, "length_km": 479.16265152784553, "delaunay_k": 3, "edge_set": "Delaunay3" }, "geometry": { "type": "LineString", "coordinates": [ [ 23.072662, 65.938074 ], [ 29.549103, 69.440681 ] ] } },
{ "type": "Feature", "properties": { "from_node": 401, "to_node": 435, "length_km": 530.69903782783479, "delaunay_k": 3, "edge_set": "Delaunay3" }, "geometry": { "type": "LineString", "coordinates": [ [ 13.763123, 66.142743 ], [ 22.138824, 69.713346 ] ] } },
{ "type": "Feature", "properties": { "from_node": 401, "to_node": 442, "length_km": 649.44917929566259, "delaunay_k": 3, "edge_set": "Delaunay3" }, "geometry": { "type": "LineString", "coordinates": [ [ 13.763123, 66.142743 ], [ 24.613495, 70.363091 ] ] } },
{ "type": "Feature", "properties": { "from_node": 402, "to_node": 435, "length_km": 506.61125926360057, "delaunay_k": 3, "edge_set": "Delaunay3" }, "geometry": { "type": "LineString", "coordinates": [ [ 14.191589, 66.282328 ], [ 22.138824, 69.713346 ] ] } },
{ "type": "Feature", "properties": { "from_node": 402, "to_node": 442, "length_km": 625.24872294376689, "delaunay_k": 3, "edge_set": "Delaunay3" }, "geometry": { "type": "LineString", "coordinates": [ [ 14.191589, 66.282328 ], [ 24.613495, 70.363091 ] ] } },
{ "type": "Feature", "properties": { "from_node": 409, "to_node": 430, "length_km": 490.54752450996068, "delaunay_k": 3, "edge_set": "Delaunay3" }, "geometry": { "type": "LineString", "coordinates": [ [ 20.452423, 66.669299 ], [ 29.549103, 69.440681 ] ] } },
{ "type": "Feature", "properties": { "from_node": 410, "to_node": 433, "length_km": 536.5165291068929, "delaunay_k": 3, "edge_set": "Delaunay3" }, "geometry": { "type": "LineString", "coordinates": [ [ 13.807068, 66.707884 ], [ 23.990021, 69.68142 ] ] } },
{ "type": "Feature", "properties": { "from_node": 410, "to_node": 438, "length_km": 534.71776544987267, "delaunay_k": 3, "edge_set": "Delaunay3" }, "geometry": { "type": "LineString", "coordinates": [ [ 13.807068, 66.707884 ], [ 23.410492, 69.935012 ] ] } },
{ "type": "Feature", "properties": { "from_node": 410, "to_node": 439, "length_km": 591.2820763694707, "delaunay_k": 3, "edge_set": "Delaunay3" }, "geometry": { "type": "LineString", "coordinates": [ [ 13.807068, 66.707884 ], [ 25.157318, 69.959498 ] ] } },
{ "type": "Feature", "properties": { "from_node": 410, "to_node": 441, "length_km": 655.54944489105787, "delaunay_k": 3, "edge_set": "Delaunay3" }, "geometry": { "type": "LineString", "coordinates": [ [ 13.807068, 66.707884 ], [ 26.545715, 70.286801 ] ] } },
{ "type": "Feature", "properties": { "from_node": 414, "to_node": 430, "length_km": 487.44241856693731, "delaunay_k": 3, "edge_set": "Delaunay3" }, "geometry": { "type": "LineString", "coordinates": [ [ 19.866028, 66.975221 ], [ 29.549103, 69.440681 ] ] } },
{ "type": "Feature", "properties": { "from_node": 416, "to_node": 442, "length_km": 495.04544654607253, "delaunay_k": 3, "edge_set": "Delaunay3" }, "geometry": { "type": "LineString", "coordinates": [ [ 15.757141, 67.288485 ], [ 24.613495, 70.363091 ] ] } },
{ "type": "Feature", "properties": { "from_node": 420, "to_node": 441, "length_km": 523.3381423662255, "delaunay_k": 3, "edge_set": "Delaunay3" }, "geometry": { "type": "LineString", "coordinates": [ [ 15.850525, 67.598233 ], [ 26.545715, 70.286801 ] ] } }
]
}
