{
"type": "FeatureCollection",
"name": "n490_delaunay_removed_outside_land_area",
"crs": { "type": "name", "properties": { "name": "urn:ogc:def:crs:OGC:1.3:CRS84" } },
"features": [
{ "type": "Feature", "properties": { "from_node": 0, "to_node": 1, "length_km": 10.628642701527369 }, "geometry": { "type": "LineString", "coordinates": [ [ 11.661987, 54.548173 ], [ 11.501312, 54.568081 ] ] } },
{ "type": "Feature", "properties": { "from_node": 0, "to_node": 2, "length_km": 21.429551117130277 }, "geometry": { "type": "LineString", "coordinates": [ [ 11.661987, 54.548173 ], [ 11.504059, 54.717482 ] ] } },
{ "type": "Feature", "properties": { "from_node": 0, "to_node": 3, "length_km": 30.343195786756159 }, "geometry": { "type": "LineString", "coordinates": [ [ 11.661987, 54.548173 ], [ 11.965485, 54.756331 ] ] } },
{ "type": "Feature", "properties": { "from_node": 0, "to_node": 4, "length_km": 25.937530464111443 }, "geometry": { "type": "LineString", "coordinates": [ [ 11.661987, 54.548173 ], [ 11.712799, 54.779306 ] ] } },
{ "type": "Feature", "properties": { "from_node": 0, "to_node": 60, "length_km": 271.14071261933697 }, "geometry": { "type": "LineString", "coordinates": [ [ 11.661987, 54.548173 ], [ 14.845276, 56.173846 ] ] } },
{ "type": "Feature", "properties": { "from_node": 1, "to_node": 2, "length_km": 16.631939868225754 }, "geometry": { "type": "LineString", "coordinates": [ [ 11.501312, 54.568081 ], [ 11.504059, 54.717482 ] ] } },
{ "type": "Feature", "properties": { "from_node": 1, "to_node": 6, "length_km": 38.910914252178586 }, "geometry": { "type": "LineString", "coordinates": [ [ 11.501312, 54.568081 ], [ 11.190948, 54.867915 ] ] } },
{ "type": "Feature", "properties": { "from_node": 3, "to_node": 29, "length_km": 120.4970775724518 }, "geometry": { "type": "LineString", "coordinates": [ [ 11.965485, 54.756331 ], [ 13.189087, 55.58145 ] ] } },
{ "type": "Feature", "properties": { "from_node": 3, "to_node": 60, "length_km": 241.03231495517008 }, "geometry": { "type": "LineString", "coordinates": [ [ 11.965485, 54.756331 ], [ 14.845276, 56.173846 ] ] } },
{ "type": "Feature", "properties": { "from_node": 5, "to_node": 29, "length_km": 113.90367940324161 }, "geometry": { "type": "LineString", "coordinates": [ [ 11.921539, 54.859221 ], [ 13.189087, 55.58145 ] ] } },
{ "type": "Feature", "properties": { "from_node": 6, "to_node": 11, "length_km": 39.632358026489484 }, "geometry": { "type": "LineString", "coordinates": [ [ 11.190948, 54.867915 ], [ 11.295319, 55.21884 ] ] } },
{ "type": "Feature", "properties": { "from_node": 6, "to_node": 34, "length_km": 88.565072699988136 }, "geometry": { "type": "LineString", "coordinates": [ [ 11.190948, 54.867915 ], [ 11.089325, 55.66132 ] ] } },
{ "type": "Feature", "properties": { "from_node": 6, "to_node": 78, "length_km": 452.6418574897167 }, "geometry": { "type": "LineString", "coordinates": [ [ 11.190948, 54.867915 ], [ 6.764832, 58.11344 ] ] } },
{ "type": "Feature", "properties": { "from_node": 8, "to_node": 29, "length_km": 104.80147316082922 }, "geometry": { "type": "LineString", "coordinates": [ [ 11.902313, 54.992585 ], [ 13.189087, 55.58145 ] ] } },
{ "type": "Feature", "properties": { "from_node": 9, "to_node": 29, "length_km": 94.35868613360752 }, "geometry": { "type": "LineString", "coordinates": [ [ 11.932526, 55.127864 ], [ 13.189087, 55.58145 ] ] } },
{ "type": "Feature", "properties": { "from_node": 34, "to_node": 67, "length_km": 198.67495952865536 }, "geometry": { "type": "LineString", "coordinates": [ [ 11.089325, 55.66132 ], [ 12.237396, 57.328745 ] ] } },
{ "type": "Feature", "properties": { "from_node": 34, "to_node": 78, "length_km": 379.51435719061243 }, "geometry": { "type": "LineString", "coordinates": [ [ 11.089325, 55.66132 ], [ 6.764832, 58.11344 ] ] } },
{ "type": "Feature", "properties": { "from_node": 34, "to_node": 79, "length_km": 340.2475529721213 }, "geometry": { "type": "LineString", "coordinates": [ [ 11.089325, 55.66132 ], [ 8.102417, 58.2445 ] ] } },
{ "type": "Feature", "properties": { "from_node": 51, "to_node": 67, "length_km": 166.85605186339006 }, "geometry": { "type": "LineString", "coordinates": [ [ 11.641388, 55.866835 ], [ 12.237396, 57.328745 ] ] } },
{ "type": "Feature", "properties": { "from_node": 56, "to_node": 64, "length_km": 106.22523734135177 }, "geometry": { "type": "LineString", "coordinates": [ [ 12.061615, 55.969187 ], [ 12.991333, 56.771541 ] ] } },
{ "type": "Feature", "properties": { "from_node": 56, "to_node": 67, "length_km": 151.78087533343839 }, "geometry": { "type": "LineString", "coordinates": [ [ 12.061615, 55.969187 ], [ 12.237396, 57.328745 ] ] } },
{ "type": "Feature", "properties": { "from_node": 67, "to_node": 79, "length_km": 266.24924838511151 }, "geometry": { "type": "LineString", "coordinates": [ [ 12.237396, 57.328745 ], [ 8.102417, 58.2445 ] ] } },
{ "type": "Feature", "properties": { "from_node": 69, "to_node": 103, "length_km": 202.93379081139665 }, "geometry": { "type": "LineString", "coordinates": [ [ 16.660767, 57.43682 ], [ 18.124695, 59.084327 ] ] } },
{ "type": "Feature", "properties": { "from_node": 69, "to_node": 104, "length_km": 199.48682703582099 }, "geometry": { "type": "LineString", "coordinates": [ [ 16.660767, 57.43682 ], [ 17.932434, 59.094909 ] ] } },
{ "type": "Feature", "properties": { "from_node": 72, "to_node": 79, "length_km": 247.95386786499924 }, "geometry": { "type": "LineString", "coordinates": [ [ 12.087708, 57.568888 ], [ 8.102417, 58.2445 ] ] } },
{ "type": "Feature", "properties": { "from_node": 74, "to_node": 79, "length_km": 235.07053331724964 }, "geometry": { "type": "LineString", "coordinates": [ [ 11.954498, 57.726153 ], [ 8.102417, 58.2445 ] ] } },
{ "type": "Feature", "properties": { "from_node": 74, "to_node": 87, "length_km": 209.36967256143348 }, "geometry": { "type": "LineString", "coordinates": [ [ 11.954498, 57.726153 ], [ 8.782196, 58.575413 ] ] } },
{ "type": "Feature", "properties": { "from_node": 85, "to_node": 113, "length_km": 90.422993630210996 }, "geometry": { "type": "LineString", "coordinates": [ [ 6.008148, 58.513066 ], [ 5.262451, 59.225853 ] ] } },
{ "type": "Feature", "properties": { "from_node": 87, "to_node": 91, "length_km": 166.91973041799164 }, "geometry": { "type": "LineString", "coordinates": [ [ 8.782196, 58.575413 ], [ 11.629028, 58.795248 ] ] } },
{ "type": "Feature", "properties": { "from_node": 91, "to_node": 108, "length_km": 122.50303165319214 }, "geometry": { "type": "LineString", "coordinates": [ [ 11.629028, 58.795248 ], [ 9.61441, 59.151995 ] ] } },
{ "type": "Feature", "properties": { "from_node": 92, "to_node": 113, "length_km": 52.842783380781349 }, "geometry": { "type": "LineString", "coordinates": [ [ 5.756836, 58.82654 ], [ 5.262451, 59.225853 ] ] } },
{ "type": "Feature", "properties": { "from_node": 103, "to_node": 168, "length_km": 340.4832575770493 }, "geometry": { "type": "LineString", "coordinates": [ [ 18.124695, 59.084327 ], [ 23.819733, 60.047704 ] ] } },
{ "type": "Feature", "properties": { "from_node": 113, "to_node": 214, "length_km": 165.51798993204173 }, "geometry": { "type": "LineString", "coordinates": [ [ 5.262451, 59.225853 ], [ 4.998779, 60.703432 ] ] } },
{ "type": "Feature", "properties": { "from_node": 129, "to_node": 168, "length_km": 311.8648203580168 }, "geometry": { "type": "LineString", "coordinates": [ [ 18.404846, 59.480661 ], [ 23.819733, 60.047704 ] ] } },
{ "type": "Feature", "properties": { "from_node": 129, "to_node": 183, "length_km": 271.52044449362586 }, "geometry": { "type": "LineString", "coordinates": [ [ 18.404846, 59.480661 ], [ 22.913361, 60.363639 ] ] } },
{ "type": "Feature", "properties": { "from_node": 158, "to_node": 183, "length_km": 246.61168507862666 }, "geometry": { "type": "LineString", "coordinates": [ [ 18.621826, 59.837916 ], [ 22.913361, 60.363639 ] ] } },
{ "type": "Feature", "properties": { "from_node": 158, "to_node": 200, "length_km": 226.72333931689471 }, "geometry": { "type": "LineString", "coordinates": [ [ 18.621826, 59.837916 ], [ 22.457428, 60.52013 ] ] } },
{ "type": "Feature", "properties": { "from_node": 170, "to_node": 200, "length_km": 207.92355083551357 }, "geometry": { "type": "LineString", "coordinates": [ [ 18.8237, 60.06484 ], [ 22.457428, 60.52013 ] ] } },
{ "type": "Feature", "properties": { "from_node": 170, "to_node": 225, "length_km": 194.44192310517496 }, "geometry": { "type": "LineString", "coordinates": [ [ 18.8237, 60.06484 ], [ 21.895752, 60.919755 ] ] } },
{ "type": "Feature", "properties": { "from_node": 170, "to_node": 233, "length_km": 190.55391547047333 }, "geometry": { "type": "LineString", "coordinates": [ [ 18.8237, 60.06484 ], [ 21.538696, 61.125998 ] ] } },
{ "type": "Feature", "properties": { "from_node": 194, "to_node": 233, "length_km": 202.09844319829884 }, "geometry": { "type": "LineString", "coordinates": [ [ 18.123322, 60.430121 ], [ 21.538696, 61.125998 ] ] } },
{ "type": "Feature", "properties": { "from_node": 202, "to_node": 233, "length_km": 203.00282919926823 }, "geometry": { "type": "LineString", "coordinates": [ [ 18.020325, 60.532293 ], [ 21.538696, 61.125998 ] ] } },
{ "type": "Feature", "properties": { "from_node": 202, "to_node": 234, "length_km": 85.226390960960813 }, "geometry": { "type": "LineString", "coordinates": [ [ 18.020325, 60.532293 ], [ 17.166138, 61.172384 ] ] } },
{ "type": "Feature", "properties": { "from_node": 233, "to_node": 234, "length_km": 236.04462764972723 }, "geometry": { "type": "LineString", "coordinates": [ [ 21.538696, 61.125998 ], [ 17.166138, 61.172384 ] ] } },
{ "type": "Feature", "properties": { "from_node": 234, "to_node": 251, "length_km": 244.64397433224232 }, "geometry": { "type": "LineString", "coordinates": [ [ 17.166138, 61.172384 ], [ 21.660919, 61.552147 ] ] } },
{ "type": "Feature", "properties": { "from_node": 234, "to_node": 267, "length_km": 132.0444055550704 }, "geometry": { "type": "LineString", "coordinates": [ [ 17.166138, 61.172384 ], [ 17.362518, 62.352158 ] ] } },
{ "type": "Feature", "properties": { "from_node": 251, "to_node": 267, "length_km": 243.07069418452645 }, "geometry": { "type": "LineString", "coordinates": [ [ 21.660919, 61.552147 ], [ 17.362518, 62.352158 ] ] } },
{ "type": "Feature", "properties": { "from_node": 263, "to_node": 267, "length_km": 221.57625790572638 }, "geometry": { "type": "LineString", "coordinates": [ [ 21.604614, 62.184091 ], [ 17.362518, 62.352158 ] ] } },
{ "type": "Feature", "properties": { "from_node": 263, "to_node": 272, "length_km": 217.09841321910781 }, "geometry": { "type": "LineString", "coordinates": [ [ 21.604614, 62.184091 ], [ 17.468262, 62.460297 ] ] } },
{ "type": "Feature", "properties": { "from_node": 263, "to_node": 322, "length_km": 219.20643123160113 }, "geometry": { "type": "LineString", "coordinates": [ [ 21.604614, 62.184091 ], [ 18.242798, 63.401361 ] ] } },
{ "type": "Feature", "properties": { "from_node": 294, "to_node": 322, "length_km": 189.106474377794 }, "geometry": { "type": "LineString", "coordinates": [ [ 21.902618, 63.030057 ], [ 18.242798, 63.401361 ] ] } },
{ "type": "Feature", "properties": { "from_node": 294, "to_node": 343, "length_km": 134.10353049849888 }, "geometry": { "type": "LineString", "coordinates": [ [ 21.902618, 63.030057 ], [ 20.047302, 63.896314 ] ] } },
{ "type": "Feature", "properties": { "from_node": 340, "to_node": 343, "length_km": 148.49240209213761 }, "geometry": { "type": "LineString", "coordinates": [ [ 23.047943, 63.797043 ], [ 20.047302, 63.896314 ] ] } },
{ "type": "Feature", "properties": { "from_node": 341, "to_node": 343, "length_km": 152.75132736405629 }, "geometry": { "type": "LineString", "coordinates": [ [ 23.1427, 63.842485 ], [ 20.047302, 63.896314 ] ] } },
{ "type": "Feature", "properties": { "from_node": 341, "to_node": 385, "length_km": 185.8039848530079 }, "geometry": { "type": "LineString", "coordinates": [ [ 23.1427, 63.842485 ], [ 21.169281, 65.270498 ] ] } },
{ "type": "Feature", "properties": { "from_node": 358, "to_node": 385, "length_km": 185.47459465298101 }, "geometry": { "type": "LineString", "coordinates": [ [ 24.517365, 64.423037 ], [ 21.169281, 65.270498 ] ] } },
{ "type": "Feature", "properties": { "from_node": 358, "to_node": 393, "length_km": 152.29417405685146 }, "geometry": { "type": "LineString", "coordinates": [ [ 24.517365, 64.423037 ], [ 24.411621, 65.781941 ] ] } },
{ "type": "Feature", "properties": { "from_node": 358, "to_node": 395, "length_km": 171.83176839355411 }, "geometry": { "type": "LineString", "coordinates": [ [ 24.517365, 64.423037 ], [ 23.100128, 65.837089 ] ] } },
{ "type": "Feature", "properties": { "from_node": 385, "to_node": 395, "length_km": 109.63009191930206 }, "geometry": { "type": "LineString", "coordinates": [ [ 21.169281, 65.270498 ], [ 23.100128, 65.837089 ] ] } },
{ "type": "Feature", "properties": { "from_node": 386, "to_node": 393, "length_km": 81.965298287308627 }, "geometry": { "type": "LineString", "coordinates": [ [ 25.694275, 65.279688 ], [ 24.411621, 65.781941 ] ] } },
{ "type": "Feature", "properties": { "from_node": 407, "to_node": 434, "length_km": 380.22655592611937 }, "geometry": { "type": "LineString", "coordinates": [ [ 27.398529, 66.450241 ], [ 30.120392, 69.682374 ] ] } },
{ "type": "Feature", "properties": { "from_node": 415, "to_node": 430, "length_km": 262.90341821520258 }, "geometry": { "type": "LineString", "coordinates": [ [ 27.387543, 67.23753 ], [ 29.549103, 69.440681 ] ] } },
{ "type": "Feature", "properties": { "from_node": 415, "to_node": 434, "length_km": 296.53382339352646 }, "geometry": { "type": "LineString", "coordinates": [ [ 27.387543, 67.23753 ], [ 30.120392, 69.682374 ] ] } }
]
}
