{
"type": "FeatureCollection",
"name": "n490_132kv_nodes",
"crs": { "type": "name", "properties": { "name": "urn:ogc:def:crs:OGC:1.3:CRS84" } },
"features": [
{ "type": "Feature", "properties": { "voltage_kv": 132.0, "lon": 5.218506, "lat": 61.732826, "n_buses_at_location": 1, "bus_ids": "6618", "bus_names": "Åskara", "node_id": 0 }, "geometry": { "type": "Point", "coordinates": [ 5.218506, 61.732826 ] } },
{ "type": "Feature", "properties": { "voltage_kv": 132.0, "lon": 5.748596, "lat": 61.49256, "n_buses_at_location": 1, "bus_ids": "6478", "bus_names": "unknown", "node_id": 1 }, "geometry": { "type": "Point", "coordinates": [ 5.748596, 61.49256 ] } },
{ "type": "Feature", "properties": { "voltage_kv": 132.0, "lon": 6.093292, "lat": 61.233245, "n_buses_at_location": 1, "bus_ids": "6398", "bus_names": "Høyanger", "node_id": 2 }, "geometry": { "type": "Point", "coordinates": [ 6.093292, 61.233245 ] } },
{ "type": "Feature", "properties": { "voltage_kv": 132.0, "lon": 7.033997, "lat": 62.47807, "n_buses_at_location": 1, "bus_ids": "6606", "bus_names": "Ålesund", "node_id": 3 }, "geometry": { "type": "Point", "coordinates": [ 7.033997, 62.47807 ] } },
{ "type": "Feature", "properties": { "voltage_kv": 132.0, "lon": 7.338867, "lat": 61.206798, "n_buses_at_location": 1, "bus_ids": "6405", "bus_names": "Fardal in Sogn", "node_id": 4 }, "geometry": { "type": "Point", "coordinates": [ 7.338867, 61.206798 ] } },
{ "type": "Feature", "properties": { "voltage_kv": 132.0, "lon": 9.602051, "lat": 63.058071, "n_buses_at_location": 1, "bus_ids": "6605", "bus_names": "Grana", "node_id": 5 }, "geometry": { "type": "Point", "coordinates": [ 9.602051, 63.058071 ] } },
{ "type": "Feature", "properties": { "voltage_kv": 132.0, "lon": 9.930267, "lat": 62.764783, "n_buses_at_location": 1, "bus_ids": "6613", "bus_names": "Brattset", "node_id": 6 }, "geometry": { "type": "Point", "coordinates": [ 9.930267, 62.764783 ] } },
{ "type": "Feature", "properties": { "voltage_kv": 132.0, "lon": 9.933014, "lat": 63.271947, "n_buses_at_location": 1, "bus_ids": "6603", "bus_names": "Trondheim", "node_id": 7 }, "geometry": { "type": "Point", "coordinates": [ 9.933014, 63.271947 ] } },
{ "type": "Feature", "properties": { "voltage_kv": 132.0, "lon": 10.122528, "lat": 62.681707, "n_buses_at_location": 1, "bus_ids": "6612", "bus_names": "Litjfossen", "node_id": 8 }, "geometry": { "type": "Point", "coordinates": [ 10.122528, 62.681707 ] } },
{ "type": "Feature", "properties": { "voltage_kv": 132.0, "lon": 10.266724, "lat": 62.628719, "n_buses_at_location": 1, "bus_ids": "6611", "bus_names": "Ulset", "node_id": 9 }, "geometry": { "type": "Point", "coordinates": [ 10.266724, 62.628719 ] } },
{ "type": "Feature", "properties": { "voltage_kv": 132.0, "lon": 11.089325, "lat": 55.66132, "n_buses_at_location": 1, "bus_ids": "5493", "bus_names": "Asnæsværket", "node_id": 10 }, "geometry": { "type": "Point", "coordinates": [ 11.089325, 55.66132 ] } },
{ "type": "Feature", "properties": { "voltage_kv": 132.0, "lon": 11.12915, "lat": 61.837358, "n_buses_at_location": 1, "bus_ids": "6561", "bus_names": "Rendalen", "node_id": 11 }, "geometry": { "type": "Point", "coordinates": [ 11.12915, 61.837358 ] } },
{ "type": "Feature", "properties": { "voltage_kv": 132.0, "lon": 11.190948, "lat": 54.867915, "n_buses_at_location": 1, "bus_ids": "5502", "bus_names": "unknown", "node_id": 12 }, "geometry": { "type": "Point", "coordinates": [ 11.190948, 54.867915 ] } },
{ "type": "Feature", "properties": { "voltage_kv": 132.0, "lon": 11.295319, "lat": 55.21884, "n_buses_at_location": 1, "bus_ids": "5498", "bus_names": "Stigsnæs", "node_id": 13 }, "geometry": { "type": "Point", "coordinates": [ 11.295319, 55.21884 ] } },
{ "type": "Feature", "properties": { "voltage_kv": 132.0, "lon": 11.348877, "lat": 55.455499, "n_buses_at_location": 1, "bus_ids": "5495", "bus_names": "unknown", "node_id": 14 }, "geometry": { "type": "Point", "coordinates": [ 11.348877, 55.455499 ] } },
{ "type": "Feature", "properties": { "voltage_kv": 132.0, "lon": 11.416168, "lat": 55.244684, "n_buses_at_location": 1, "bus_ids": "8058", "bus_names": "nan", "node_id": 15 }, "geometry": { "type": "Point", "coordinates": [ 11.416168, 55.244684 ] } },
{ "type": "Feature", "properties": { "voltage_kv": 132.0, "lon": 11.501312, "lat": 54.568081, "n_buses_at_location": 1, "bus_ids": "5581", "bus_names": "Rødsand 2", "node_id": 16 }, "geometry": { "type": "Point", "coordinates": [ 11.501312, 54.568081 ] } },
{ "type": "Feature", "properties": { "voltage_kv": 132.0, "lon": 11.504059, "lat": 54.717482, "n_buses_at_location": 1, "bus_ids": "5503", "bus_names": "unknown", "node_id": 17 }, "geometry": { "type": "Point", "coordinates": [ 11.504059, 54.717482 ] } },
{ "type": "Feature", "properties": { "voltage_kv": 132.0, "lon": 11.550751, "lat": 55.724017, "n_buses_at_location": 1, "bus_ids": "5459", "bus_names": "unknown", "node_id": 18 }, "geometry": { "type": "Point", "coordinates": [ 11.550751, 55.724017 ] } },
{ "type": "Feature", "properties": { "voltage_kv": 132.0, "lon": 11.641388, "lat": 55.866835, "n_buses_at_location": 1, "bus_ids": "5492", "bus_names": "unknown", "node_id": 19 }, "geometry": { "type": "Point", "coordinates": [ 11.641388, 55.866835 ] } },
{ "type": "Feature", "properties": { "voltage_kv": 132.0, "lon": 11.661987, "lat": 54.548173, "n_buses_at_location": 1, "bus_ids": "5580", "bus_names": "Rødsand 1 (Nysted)", "node_id": 20 }, "geometry": { "type": "Point", "coordinates": [ 11.661987, 54.548173 ] } },
{ "type": "Feature", "properties": { "voltage_kv": 132.0, "lon": 11.670227, "lat": 55.548058, "n_buses_at_location": 1, "bus_ids": "5499", "bus_names": "unknown", "node_id": 21 }, "geometry": { "type": "Point", "coordinates": [ 11.670227, 55.548058 ] } },
{ "type": "Feature", "properties": { "voltage_kv": 132.0, "lon": 11.712799, "lat": 54.779306, "n_buses_at_location": 1, "bus_ids": "5504", "bus_names": "unknown", "node_id": 22 }, "geometry": { "type": "Point", "coordinates": [ 11.712799, 54.779306 ] } },
{ "type": "Feature", "properties": { "voltage_kv": 132.0, "lon": 11.715546, "lat": 55.318987, "n_buses_at_location": 1, "bus_ids": "5575", "bus_names": "unknown", "node_id": 23 }, "geometry": { "type": "Point", "coordinates": [ 11.715546, 55.318987 ] } },
{ "type": "Feature", "properties": { "voltage_kv": 132.0, "lon": 11.727905, "lat": 55.381451, "n_buses_at_location": 1, "bus_ids": "5569", "bus_names": "unknown", "node_id": 24 }, "geometry": { "type": "Point", "coordinates": [ 11.727905, 55.381451 ] } },
{ "type": "Feature", "properties": { "voltage_kv": 132.0, "lon": 11.762238, "lat": 55.22589, "n_buses_at_location": 1, "bus_ids": "5497", "bus_names": "unknown", "node_id": 25 }, "geometry": { "type": "Point", "coordinates": [ 11.762238, 55.22589 ] } },
{ "type": "Feature", "properties": { "voltage_kv": 132.0, "lon": 11.786957, "lat": 55.4407, "n_buses_at_location": 1, "bus_ids": "5496", "bus_names": "unknown", "node_id": 26 }, "geometry": { "type": "Point", "coordinates": [ 11.786957, 55.4407 ] } },
{ "type": "Feature", "properties": { "voltage_kv": 132.0, "lon": 11.797943, "lat": 55.15612, "n_buses_at_location": 1, "bus_ids": "5528", "bus_names": "unknown", "node_id": 27 }, "geometry": { "type": "Point", "coordinates": [ 11.797943, 55.15612 ] } },
{ "type": "Feature", "properties": { "voltage_kv": 132.0, "lon": 11.8480685, "lat": 55.255251001923504, "n_buses_at_location": 1, "bus_ids": "7951", "bus_names": "nan", "node_id": 28 }, "geometry": { "type": "Point", "coordinates": [ 11.8480685, 55.255251001923504 ] } },
{ "type": "Feature", "properties": { "voltage_kv": 132.0, "lon": 11.851501, "lat": 54.929509, "n_buses_at_location": 1, "bus_ids": "5529", "bus_names": "unknown", "node_id": 29 }, "geometry": { "type": "Point", "coordinates": [ 11.851501, 54.929509 ] } },
{ "type": "Feature", "properties": { "voltage_kv": 132.0, "lon": 11.877594, "lat": 55.657447, "n_buses_at_location": 1, "bus_ids": "5590", "bus_names": "unknown", "node_id": 30 }, "geometry": { "type": "Point", "coordinates": [ 11.877594, 55.657447 ] } },
{ "type": "Feature", "properties": { "voltage_kv": 132.0, "lon": 11.885834, "lat": 55.816715, "n_buses_at_location": 1, "bus_ids": "5514", "bus_names": "Kyndbyværket", "node_id": 31 }, "geometry": { "type": "Point", "coordinates": [ 11.885834, 55.816715 ] } },
{ "type": "Feature", "properties": { "voltage_kv": 132.0, "lon": 11.90094, "lat": 55.293974, "n_buses_at_location": 1, "bus_ids": "5508", "bus_names": "unknown", "node_id": 32 }, "geometry": { "type": "Point", "coordinates": [ 11.90094, 55.293974 ] } },
{ "type": "Feature", "properties": { "voltage_kv": 132.0, "lon": 11.902313, "lat": 54.992585, "n_buses_at_location": 1, "bus_ids": "5533", "bus_names": "unknown", "node_id": 33 }, "geometry": { "type": "Point", "coordinates": [ 11.902313, 54.992585 ] } },
{ "type": "Feature", "properties": { "voltage_kv": 132.0, "lon": 11.921539, "lat": 54.859221, "n_buses_at_location": 1, "bus_ids": "5505", "bus_names": "unknown", "node_id": 34 }, "geometry": { "type": "Point", "coordinates": [ 11.921539, 54.859221 ] } },
{ "type": "Feature", "properties": { "voltage_kv": 132.0, "lon": 11.932526, "lat": 55.127864, "n_buses_at_location": 1, "bus_ids": "5507", "bus_names": "unknown", "node_id": 35 }, "geometry": { "type": "Point", "coordinates": [ 11.932526, 55.127864 ] } },
{ "type": "Feature", "properties": { "voltage_kv": 132.0, "lon": 11.933899, "lat": 55.22119, "n_buses_at_location": 1, "bus_ids": "7986", "bus_names": "nan", "node_id": 36 }, "geometry": { "type": "Point", "coordinates": [ 11.933899, 55.22119 ] } },
{ "type": "Feature", "properties": { "voltage_kv": 132.0, "lon": 11.949005, "lat": 55.560486, "n_buses_at_location": 1, "bus_ids": "5584", "bus_names": "unknown", "node_id": 37 }, "geometry": { "type": "Point", "coordinates": [ 11.949005, 55.560486 ] } },
{ "type": "Feature", "properties": { "voltage_kv": 132.0, "lon": 11.961365, "lat": 55.445374, "n_buses_at_location": 1, "bus_ids": "5523", "bus_names": "Bjæverskov", "node_id": 38 }, "geometry": { "type": "Point", "coordinates": [ 11.961365, 55.445374 ] } },
{ "type": "Feature", "properties": { "voltage_kv": 132.0, "lon": 11.965485, "lat": 54.756331, "n_buses_at_location": 1, "bus_ids": "5506", "bus_names": "unknown", "node_id": 39 }, "geometry": { "type": "Point", "coordinates": [ 11.965485, 54.756331 ] } },
{ "type": "Feature", "properties": { "voltage_kv": 132.0, "lon": 11.990204, "lat": 55.498305, "n_buses_at_location": 1, "bus_ids": "5501", "bus_names": "unknown", "node_id": 40 }, "geometry": { "type": "Point", "coordinates": [ 11.990204, 55.498305 ] } },
{ "type": "Feature", "properties": { "voltage_kv": 132.0, "lon": 12.024536, "lat": 55.351012, "n_buses_at_location": 1, "bus_ids": "5500", "bus_names": "unknown", "node_id": 41 }, "geometry": { "type": "Point", "coordinates": [ 12.024536, 55.351012 ] } },
{ "type": "Feature", "properties": { "voltage_kv": 132.0, "lon": 12.061615, "lat": 55.969187, "n_buses_at_location": 1, "bus_ids": "6106", "bus_names": "unknown", "node_id": 42 }, "geometry": { "type": "Point", "coordinates": [ 12.061615, 55.969187 ] } },
{ "type": "Feature", "properties": { "voltage_kv": 132.0, "lon": 12.108307, "lat": 55.611711, "n_buses_at_location": 1, "bus_ids": "5509", "bus_names": "unknown", "node_id": 43 }, "geometry": { "type": "Point", "coordinates": [ 12.108307, 55.611711 ] } },
{ "type": "Feature", "properties": { "voltage_kv": 132.0, "lon": 12.154999, "lat": 55.737935, "n_buses_at_location": 1, "bus_ids": "5526", "bus_names": "unknown", "node_id": 44 }, "geometry": { "type": "Point", "coordinates": [ 12.154999, 55.737935 ] } },
{ "type": "Feature", "properties": { "voltage_kv": 132.0, "lon": 12.170105, "lat": 55.499083, "n_buses_at_location": 1, "bus_ids": "5586", "bus_names": "unknown", "node_id": 45 }, "geometry": { "type": "Point", "coordinates": [ 12.170105, 55.499083 ] } },
{ "type": "Feature", "properties": { "voltage_kv": 132.0, "lon": 12.22641, "lat": 55.913812, "n_buses_at_location": 1, "bus_ids": "6103", "bus_names": "unknown", "node_id": 46 }, "geometry": { "type": "Point", "coordinates": [ 12.22641, 55.913812 ] } },
{ "type": "Feature", "properties": { "voltage_kv": 132.0, "lon": 12.23465, "lat": 55.822116, "n_buses_at_location": 1, "bus_ids": "7697", "bus_names": "nan", "node_id": 47 }, "geometry": { "type": "Point", "coordinates": [ 12.23465, 55.822116 ] } },
{ "type": "Feature", "properties": { "voltage_kv": 132.0, "lon": 12.240143, "lat": 55.764213, "n_buses_at_location": 1, "bus_ids": "5511", "bus_names": "Hovegård", "node_id": 48 }, "geometry": { "type": "Point", "coordinates": [ 12.240143, 55.764213 ] } },
{ "type": "Feature", "properties": { "voltage_kv": 132.0, "lon": 12.268982, "lat": 55.559709, "n_buses_at_location": 1, "bus_ids": "5585", "bus_names": "unknown", "node_id": 49 }, "geometry": { "type": "Point", "coordinates": [ 12.268982, 55.559709 ] } },
{ "type": "Feature", "properties": { "voltage_kv": 132.0, "lon": 12.311554, "lat": 55.670615, "n_buses_at_location": 1, "bus_ids": "5519", "bus_names": "Ishøj", "node_id": 50 }, "geometry": { "type": "Point", "coordinates": [ 12.311554, 55.670615 ] } },
{ "type": "Feature", "properties": { "voltage_kv": 132.0, "lon": 12.362366, "lat": 55.613262, "n_buses_at_location": 1, "bus_ids": "5522", "bus_names": "unknown", "node_id": 51 }, "geometry": { "type": "Point", "coordinates": [ 12.362366, 55.613262 ] } },
{ "type": "Feature", "properties": { "voltage_kv": 132.0, "lon": 12.389832, "lat": 55.761123, "n_buses_at_location": 1, "bus_ids": "5513", "bus_names": "unknown", "node_id": 52 }, "geometry": { "type": "Point", "coordinates": [ 12.389832, 55.761123 ] } },
{ "type": "Feature", "properties": { "voltage_kv": 132.0, "lon": 12.474976, "lat": 55.935356, "n_buses_at_location": 1, "bus_ids": "6104", "bus_names": "unknown", "node_id": 53 }, "geometry": { "type": "Point", "coordinates": [ 12.474976, 55.935356 ] } },
{ "type": "Feature", "properties": { "voltage_kv": 132.0, "lon": 12.490645134825499, "lat": 55.671527244775106, "n_buses_at_location": 1, "bus_ids": "7263", "bus_names": "nan", "node_id": 54 }, "geometry": { "type": "Point", "coordinates": [ 12.490645134825499, 55.671527244775106 ] } },
{ "type": "Feature", "properties": { "voltage_kv": 132.0, "lon": 12.520294, "lat": 55.933818, "n_buses_at_location": 1, "bus_ids": "6140", "bus_names": "unknown", "node_id": 55 }, "geometry": { "type": "Point", "coordinates": [ 12.520294, 55.933818 ] } },
{ "type": "Feature", "properties": { "voltage_kv": 132.0, "lon": 12.527161, "lat": 55.734843, "n_buses_at_location": 1, "bus_ids": "5518", "bus_names": "unknown", "node_id": 56 }, "geometry": { "type": "Point", "coordinates": [ 12.527161, 55.734843 ] } },
{ "type": "Feature", "properties": { "voltage_kv": 132.0, "lon": 12.56424, "lat": 55.795877, "n_buses_at_location": 1, "bus_ids": "5516", "bus_names": "Glentegård", "node_id": 57 }, "geometry": { "type": "Point", "coordinates": [ 12.56424, 55.795877 ] } },
{ "type": "Feature", "properties": { "voltage_kv": 132.0, "lon": 12.571106, "lat": 56.042897, "n_buses_at_location": 1, "bus_ids": "6107", "bus_names": "Teglstrupgård", "node_id": 58 }, "geometry": { "type": "Point", "coordinates": [ 12.571106, 56.042897 ] } },
{ "type": "Feature", "properties": { "voltage_kv": 132.0, "lon": 12.580719, "lat": 55.73407, "n_buses_at_location": 1, "bus_ids": "5576", "bus_names": "unknown", "node_id": 59 }, "geometry": { "type": "Point", "coordinates": [ 12.580719, 55.73407 ] } },
{ "type": "Feature", "properties": { "voltage_kv": 132.0, "lon": 12.583466, "lat": 55.662095, "n_buses_at_location": 1, "bus_ids": "5531", "bus_names": "København", "node_id": 60 }, "geometry": { "type": "Point", "coordinates": [ 12.583466, 55.662095 ] } },
{ "type": "Feature", "properties": { "voltage_kv": 132.0, "lon": 12.933655, "lat": 56.070502, "n_buses_at_location": 1, "bus_ids": "6129", "bus_names": "Mörap", "node_id": 61 }, "geometry": { "type": "Point", "coordinates": [ 12.933655, 56.070502 ] } },
{ "type": "Feature", "properties": { "voltage_kv": 132.0, "lon": 19.158783, "lat": 69.620772, "n_buses_at_location": 1, "bus_ids": "6755", "bus_names": "Tromsø", "node_id": 62 }, "geometry": { "type": "Point", "coordinates": [ 19.158783, 69.620772 ] } },
{ "type": "Feature", "properties": { "voltage_kv": 132.0, "lon": 19.24942, "lat": 69.183065, "n_buses_at_location": 1, "bus_ids": "6752", "bus_names": "Balsfjord", "node_id": 63 }, "geometry": { "type": "Point", "coordinates": [ 19.24942, 69.183065 ] } },
{ "type": "Feature", "properties": { "voltage_kv": 132.0, "lon": 19.820709, "lat": 69.558512, "n_buses_at_location": 1, "bus_ids": "6754", "bus_names": "unknown", "node_id": 64 }, "geometry": { "type": "Point", "coordinates": [ 19.820709, 69.558512 ] } },
{ "type": "Feature", "properties": { "voltage_kv": 132.0, "lon": 20.376892, "lat": 69.243986, "n_buses_at_location": 1, "bus_ids": "6756", "bus_names": "Skibotn", "node_id": 65 }, "geometry": { "type": "Point", "coordinates": [ 20.376892, 69.243986 ] } },
{ "type": "Feature", "properties": { "voltage_kv": 132.0, "lon": 21.041565, "lat": 69.431516, "n_buses_at_location": 1, "bus_ids": "6751", "bus_names": "Guolasjakka", "node_id": 66 }, "geometry": { "type": "Point", "coordinates": [ 21.041565, 69.431516 ] } },
{ "type": "Feature", "properties": { "voltage_kv": 132.0, "lon": 22.138824, "lat": 69.713346, "n_buses_at_location": 1, "bus_ids": "6750", "bus_names": "Kvænangsbotn", "node_id": 67 }, "geometry": { "type": "Point", "coordinates": [ 22.138824, 69.713346 ] } },
{ "type": "Feature", "properties": { "voltage_kv": 132.0, "lon": 23.410492, "lat": 69.935012, "n_buses_at_location": 1, "bus_ids": "6747", "bus_names": "unknown", "node_id": 68 }, "geometry": { "type": "Point", "coordinates": [ 23.410492, 69.935012 ] } },
{ "type": "Feature", "properties": { "voltage_kv": 132.0, "lon": 23.990021, "lat": 69.68142, "n_buses_at_location": 1, "bus_ids": "6749", "bus_names": "Alta", "node_id": 69 }, "geometry": { "type": "Point", "coordinates": [ 23.990021, 69.68142 ] } },
{ "type": "Feature", "properties": { "voltage_kv": 132.0, "lon": 24.613495, "lat": 70.363091, "n_buses_at_location": 1, "bus_ids": "6746", "bus_names": "Hammerfest", "node_id": 70 }, "geometry": { "type": "Point", "coordinates": [ 24.613495, 70.363091 ] } },
{ "type": "Feature", "properties": { "voltage_kv": 132.0, "lon": 25.157318, "lat": 69.959498, "n_buses_at_location": 1, "bus_ids": "6748", "bus_names": "unknown", "node_id": 71 }, "geometry": { "type": "Point", "coordinates": [ 25.157318, 69.959498 ] } },
{ "type": "Feature", "properties": { "voltage_kv": 132.0, "lon": 26.545715, "lat": 70.286801, "n_buses_at_location": 1, "bus_ids": "6745", "bus_names": "Adamselv", "node_id": 72 }, "geometry": { "type": "Point", "coordinates": [ 26.545715, 70.286801 ] } },
{ "type": "Feature", "properties": { "voltage_kv": 132.0, "lon": 28.572693, "lat": 70.163212, "n_buses_at_location": 1, "bus_ids": "6738", "bus_names": "Varangerbotn", "node_id": 73 }, "geometry": { "type": "Point", "coordinates": [ 28.572693, 70.163212 ] } },
{ "type": "Feature", "properties": { "voltage_kv": 132.0, "lon": 29.549103, "lat": 69.440681, "n_buses_at_location": 1, "bus_ids": "6740", "bus_names": "Skogfoss", "node_id": 74 }, "geometry": { "type": "Point", "coordinates": [ 29.549103, 69.440681 ] } },
{ "type": "Feature", "properties": { "voltage_kv": 132.0, "lon": 30.120392, "lat": 69.682374, "n_buses_at_location": 1, "bus_ids": "6809", "bus_names": "Kirkenes", "node_id": 75 }, "geometry": { "type": "Point", "coordinates": [ 30.120392, 69.682374 ] } }
]
}
